{"features":[{"geometry":{"coordinates":[[[-122.90272366641001,48.49119703726137],[-122.91264463369563,48.50018037002996],[-122.90431521064677,48.51087081772074],[-122.9,48.51127432562623],[-122.9,48.49145166013589],[-122.90272366641001,48.49119703726137]]],"type":"Polygon"},"id":"land:8728d1000ffffff","properties":{"source_h3":"8728d1000ffffff","source_type":"land"},"type":"Feature"},{"geometry":{"coordinates":[[[-122.90431521064677,48.51087081772074],[-122.91264463369563,48.50018037002996],[-122.93089314782422,48.498469692294975],[-122.93175630639887,48.499250711725104],[-122.9248754549999,48.507147528000075],[-122.91030839799993,48.51357656500005],[-122.91359070785121,48.519264403307794],[-122.90431521064677,48.51087081772074]]],"type":"Polygon"},"id":"land:8728d1001ffffff","properties":{"source_h3":"8728d1001ffffff","source_type":"land"},"type":"Feature"},{"geometry":{"coordinates":[[[-122.90590750499226,48.53053857264108],[-122.9,48.531091108425],[-122.9,48.51127432562623],[-122.90431521064677,48.51087081772074],[-122.91359070785121,48.519264403307794],[-122.91406075652907,48.520078939715845],[-122.90590750499226,48.53053857264108]]],"type":"Polygon"},"id":"land:8728d1003ffffff","properties":{"source_h3":"8728d1003ffffff","source_type":"land"},"type":"Feature"},{"geometry":{"coordinates":[[[-122.9011328717545,48.47151723318051],[-122.91105137518797,48.480503982835145],[-122.90272366641001,48.49119703726137],[-122.9,48.49145166013589],[-122.9,48.471623114031885],[-122.9011328717545,48.47151723318051]]],"type":"Polygon"},"id":"land:8728d1004ffffff","properties":{"source_h3":"8728d1004ffffff","source_type":"land"},"type":"Feature"},{"geometry":{"coordinates":[[[-122.93089314782422,48.498469692294975],[-122.91264463369563,48.50018037002996],[-122.90272366641001,48.49119703726137],[-122.91105137518797,48.480503982835145],[-122.92929571226242,48.47879411652145],[-122.93883884005074,48.487434542143475],[-122.93839643576852,48.488830067403136],[-122.93089314782422,48.498469692294975]]],"type":"Polygon"},"id":"land:8728d1005ffffff","properties":{"source_h3":"8728d1005ffffff","source_type":"land"},"type":"Feature"},{"geometry":{"coordinates":[[[-122.97220380594413,48.55402582190728],[-122.96387965055048,48.564711343472354],[-122.94562064266307,48.566428973069826],[-122.94080308307005,48.56207808227842],[-122.94302324099995,48.56049225500005],[-122.94452877499994,48.55707428600004],[-122.94546464799994,48.55109284100006],[-122.95164954299992,48.54751211100005],[-122.96941230707776,48.5515049562566],[-122.97220380594413,48.55402582190728]]],"type":"Polygon"},"id":"land:8728d100bffffff","properties":{"source_h3":"8728d100bffffff","source_type":"land"},"type":"Feature"},{"geometry":{"coordinates":[[[-122.99716072607127,48.52195854183506],[-122.98884434284541,48.53264942006559],[-122.98362448593556,48.53314156178918],[-122.97765051999993,48.53131745000007],[-122.97996985599993,48.525132554000045],[-122.99011480351525,48.51559227235638],[-122.99716072607127,48.52195854183506]]],"type":"Polygon"},"id":"land:8728d100dffffff","properties":{"source_h3":"8728d100dffffff","source_type":"land"},"type":"Feature"},{"geometry":{"coordinates":[[[-122.90590750499226,48.53053857264108],[-122.91406075652907,48.520078939715845],[-122.91624915299991,48.523871161000045],[-122.91698157499991,48.533636786000045],[-122.9144171459666,48.53823427559708],[-122.90590750499226,48.53053857264108]]],"type":"Polygon"},"id":"land:8728d100effffff","properties":{"source_h3":"8728d100effffff","source_type":"land"},"type":"Feature"},{"geometry":{"coordinates":[[[-122.90568170173366,48.55037046061507],[-122.9,48.554430240519075],[-122.9,48.55090200646117],[-122.90568170173366,48.55037046061507]]],"type":"Polygon"},"id":"land:8728d1019ffffff","properties":{"source_h3":"8728d1019ffffff","source_type":"land"},"type":"Feature"},{"geometry":{"coordinates":[[[-122.9,48.55090200646117],[-122.9,48.531091108425],[-122.90590750499226,48.53053857264108],[-122.9144171459666,48.53823427559708],[-122.91246497299994,48.54173411700003],[-122.91069912333585,48.54609876480827],[-122.90948987789704,48.54764938200451],[-122.90568170173366,48.55037046061507],[-122.9,48.55090200646117]]],"type":"Polygon"},"id":"land:8728d101dffffff","properties":{"source_h3":"8728d101dffffff","source_type":"land"},"type":"Feature"},{"geometry":{"coordinates":[[[-122.93761736949173,48.468098312755075],[-122.92867861270472,48.46],[-122.938085471568,48.46],[-122.94029855905542,48.467846400601374],[-122.93761736949173,48.468098312755075]]],"type":"Polygon"},"id":"land:8728d1021ffffff","properties":{"source_h3":"8728d1021ffffff","source_type":"land"},"type":"Feature"},{"geometry":{"coordinates":[[[-122.9094588669395,48.46082157329605],[-122.9011328717545,48.47151723318051],[-122.9,48.471623114031885],[-122.9,48.46],[-122.90855268184693,48.46],[-122.9094588669395,48.46082157329605]]],"type":"Polygon"},"id":"land:8728d1022ffffff","properties":{"source_h3":"8728d1022ffffff","source_type":"land"},"type":"Feature"},{"geometry":{"coordinates":[[[-122.93761736949173,48.468098312755075],[-122.92929571226242,48.47879411652145],[-122.91105137518797,48.480503982835145],[-122.9011328717545,48.47151723318051],[-122.9094588669395,48.46082157329605],[-122.91822724269159,48.46],[-122.92867861270472,48.46],[-122.93761736949173,48.468098312755075]]],"type":"Polygon"},"id":"land:8728d1023ffffff","properties":{"source_h3":"8728d1023ffffff","source_type":"land"},"type":"Feature"},{"geometry":{"coordinates":[[[-123.01216913342628,48.48090253467705],[-123.02209434515702,48.48987521019344],[-123.01683369566985,48.4966475866344],[-123.00569488426297,48.48151416708561],[-123.01216913342628,48.48090253467705]]],"type":"Polygon"},"id":"land:8728d1029ffffff","properties":{"source_h3":"8728d1029ffffff","source_type":"land"},"type":"Feature"},{"geometry":{"coordinates":[[[-122.99232345900786,48.462949392640375],[-122.98937920566651,48.4667393883365],[-122.98289954299992,48.46360911700002],[-122.97065630865642,48.46],[-122.9890653498794,48.46],[-122.99232345900786,48.462949392640375]]],"type":"Polygon"},"id":"land:8728d102cffffff","properties":{"source_h3":"8728d102cffffff","source_type":"land"},"type":"Feature"},{"geometry":{"coordinates":[[[-122.99232345900786,48.462949392640375],[-123.010553301345,48.46122761365707],[-123.02047604840291,48.47020370731769],[-123.01216913342628,48.48090253467705],[-123.00569488426297,48.48151416708561],[-122.99913489499994,48.472601630000035],[-122.99132239499995,48.46767812700004],[-122.98937920566651,48.4667393883365],[-122.99232345900786,48.462949392640375]]],"type":"Polygon"},"id":"land:8728d102dffffff","properties":{"source_h3":"8728d102dffffff","source_type":"land"},"type":"Feature"},{"geometry":{"coordinates":[[[-122.92929571226242,48.47879411652145],[-122.93761736949173,48.468098312755075],[-122.94029855905542,48.467846400601374],[-122.94253495999993,48.47577545800004],[-122.93883884005074,48.487434542143475],[-122.92929571226242,48.47879411652145]]],"type":"Polygon"},"id":"land:8728d102effffff","properties":{"source_h3":"8728d102effffff","source_type":"land"},"type":"Feature"},{"geometry":{"coordinates":[[[-123.09991496060381,48.54191894801647],[-123.10985193831362,48.5508716609394],[-123.10155299878292,48.56156309050199],[-123.0833127132686,48.56330167189693],[-123.07337553857059,48.55434800524086],[-123.08167884514185,48.5436567110738],[-123.09991496060381,48.54191894801647]]],"type":"Polygon"},"id":"land:8728d1040ffffff","properties":{"source_h3":"8728d1040ffffff","source_type":"land"},"type":"Feature"},{"geometry":{"coordinates":[[[-123.12808595635818,48.549129388442346],[-123.13802520219033,48.55807772607013],[-123.12973063376765,48.56876928940152],[-123.11149244717288,48.570512381487454],[-123.10155299878292,48.56156309050199],[-123.10985193831362,48.5508716609394],[-123.12808595635818,48.549129388442346]]],"type":"Polygon"},"id":"land:8728d1041ffffff","properties":{"source_h3":"8728d1041ffffff","source_type":"land"},"type":"Feature"},{"geometry":{"coordinates":[[[-123.04682378991184,48.566770626846626],[-123.05513316298745,48.556082074566504],[-123.07337553857059,48.55434800524086],[-123.0833127132686,48.56330167189693],[-123.07500770544975,48.57399036182799],[-123.06174638248278,48.575251251246485],[-123.05776933499992,48.57290273600006],[-123.05151388345718,48.570996898352966],[-123.04682378991184,48.566770626846626]]],"type":"Polygon"},"id":"land:8728d1042ffffff","properties":{"source_h3":"8728d1042ffffff","source_type":"land"},"type":"Feature"},{"geometry":{"coordinates":[[[-123.10155299878292,48.56156309050199],[-123.11149244717288,48.570512381487454],[-123.10319180868707,48.5812012074441],[-123.08494735124425,48.58294060654068],[-123.07500770544975,48.57399036182799],[-123.0833127132686,48.56330167189693],[-123.10155299878292,48.56156309050199]]],"type":"Polygon"},"id":"land:8728d1043ffffff","properties":{"source_h3":"8728d1043ffffff","source_type":"land"},"type":"Feature"},{"geometry":{"coordinates":[[[-123.09827769360739,48.522268781882616],[-123.1082122018454,48.531224916112855],[-123.09991496060381,48.54191894801647],[-123.08167884514185,48.5436567110738],[-123.07174414033145,48.53469962310307],[-123.08004574632294,48.52400572596617],[-123.09827769360739,48.522268781882616]]],"type":"Polygon"},"id":"land:8728d1044ffffff","properties":{"source_h3":"8728d1044ffffff","source_type":"land"},"type":"Feature"},{"geometry":{"coordinates":[[[-123.12644205321313,48.52948346384152],[-123.13637882878493,48.53843522339908],[-123.12808595635818,48.549129388442346],[-123.10985193831362,48.5508716609394],[-123.09991496060381,48.54191894801647],[-123.1082122018454,48.531224916112855],[-123.12644205321313,48.52948346384152]]],"type":"Polygon"},"id":"land:8728d1045ffffff","properties":{"source_h3":"8728d1045ffffff","source_type":"land"},"type":"Feature"},{"geometry":{"coordinates":[[[-123.07174414033145,48.53469962310307],[-123.08167884514185,48.5436567110738],[-123.07337553857059,48.55434800524086],[-123.05513316298745,48.556082074566504],[-123.04519826675862,48.54712403249016],[-123.05350593629677,48.53643287534429],[-123.07174414033145,48.53469962310307]]],"type":"Polygon"},"id":"land:8728d1046ffffff","properties":{"source_h3":"8728d1046ffffff","source_type":"land"},"type":"Feature"},{"geometry":{"coordinates":[[[-123.15790842989615,48.57596660307904],[-123.16785241132452,48.58490714199342],[-123.15956052370836,48.59559623512108],[-123.14132027596574,48.59734465671422],[-123.131376085986,48.588403164827206],[-123.13967235106884,48.57771420447134],[-123.15790842989615,48.57596660307904]]],"type":"Polygon"},"id":"land:8728d1048ffffff","properties":{"source_h3":"8728d1048ffffff","source_type":"land"},"type":"Feature"},{"geometry":{"coordinates":[[[-123.16950697860095,48.604533350236366],[-123.15956052370836,48.59559623512108],[-123.16785241132452,48.58490714199342],[-123.17511097340035,48.58420966362726],[-123.17756100199995,48.598822333000044],[-123.17077290944466,48.604411677172465],[-123.16950697860095,48.604533350236366]]],"type":"Polygon"},"id":"land:8728d1049ffffff","properties":{"source_h3":"8728d1049ffffff","source_type":"land"},"type":"Feature"},{"geometry":{"coordinates":[[[-123.131376085986,48.588403164827206],[-123.14132027596574,48.59734465671422],[-123.1330223135581,48.60803101283439],[-123.11477578423754,48.60977574218814],[-123.10483139085898,48.60083329695462],[-123.11313372896629,48.59014707586532],[-123.131376085986,48.588403164827206]]],"type":"Polygon"},"id":"land:8728d104affffff","properties":{"source_h3":"8728d104affffff","source_type":"land"},"type":"Feature"},{"geometry":{"coordinates":[[[-123.14296897742678,48.61696908091705],[-123.1330223135581,48.60803101283439],[-123.14132027596574,48.59734465671422],[-123.15956052370836,48.59559623512108],[-123.16950697860095,48.604533350236366],[-123.16752749369398,48.60708396625301],[-123.15843665299991,48.61456940300007],[-123.14843177095901,48.616445318361386],[-123.14296897742678,48.61696908091705]]],"type":"Polygon"},"id":"land:8728d104bffffff","properties":{"source_h3":"8728d104bffffff","source_type":"land"},"type":"Feature"},{"geometry":{"coordinates":[[[-123.15625711397561,48.556330945516024],[-123.16619862314961,48.565274907606586],[-123.15790842989615,48.57596660307904],[-123.13967235106884,48.57771420447134],[-123.12973063376765,48.56876928940152],[-123.13802520219033,48.55807772607013],[-123.15625711397561,48.556330945516024]]],"type":"Polygon"},"id":"land:8728d104cffffff","properties":{"source_h3":"8728d104cffffff","source_type":"land"},"type":"Feature"},{"geometry":{"coordinates":[[[-123.16785241132452,48.58490714199342],[-123.15790842989615,48.57596660307904],[-123.16619862314961,48.565274907606586],[-123.17179842415793,48.5647369498816],[-123.17393958199996,48.573431708000044],[-123.17414303299991,48.57843659100007],[-123.17511097340035,48.58420966362726],[-123.16785241132452,48.58490714199342]]],"type":"Polygon"},"id":"land:8728d104dffffff","properties":{"source_h3":"8728d104dffffff","source_type":"land"},"type":"Feature"},{"geometry":{"coordinates":[[[-123.12973063376765,48.56876928940152],[-123.13967235106884,48.57771420447134],[-123.131376085986,48.588403164827206],[-123.11313372896629,48.59014707586532],[-123.10319180868707,48.5812012074441],[-123.11149244717288,48.570512381487454],[-123.12973063376765,48.56876928940152]]],"type":"Polygon"},"id":"land:8728d104effffff","properties":{"source_h3":"8728d104effffff","source_type":"land"},"type":"Feature"},{"geometry":{"coordinates":[[[-122.97542219207881,48.593319489602834],[-122.96548675259295,48.58435858302779],[-122.9738126197295,48.57367567074754],[-122.9910582189127,48.57204892028357],[-122.99502519399995,48.57591380400003],[-122.99771243689645,48.577042446267576],[-123.00200483360615,48.580913472489826],[-122.99643880098994,48.58805907965892],[-122.97575618110075,48.59328797731336],[-122.97542219207881,48.593319489602834]]],"type":"Polygon"},"id":"land:8728d1052ffffff","properties":{"source_h3":"8728d1052ffffff","source_type":"land"},"type":"Feature"},{"geometry":{"coordinates":[[[-123.00200483360615,48.580913472489826],[-123.01229347052436,48.579940304784564],[-123.01577714799994,48.58234284100008],[-123.0144343739999,48.58624909100007],[-123.00247148299991,48.58653392100006],[-122.99643880098994,48.58805907965892],[-123.00200483360615,48.580913472489826]]],"type":"Polygon"},"id":"land:8728d1053ffffff","properties":{"source_h3":"8728d1053ffffff","source_type":"land"},"type":"Feature"},{"geometry":{"coordinates":[[[-123.01702119697458,48.53989117113338],[-123.02695380996037,48.54885358837442],[-123.02013045511869,48.557625920088896],[-123.00562091085858,48.540968963061474],[-123.01702119697458,48.53989117113338]]],"type":"Polygon"},"id":"land:8728d1054ffffff","properties":{"source_h3":"8728d1054ffffff","source_type":"land"},"type":"Feature"},{"geometry":{"coordinates":[[[-123.02695380996037,48.54885358837442],[-123.04519826675862,48.54712403249016],[-123.05513316298745,48.556082074566504],[-123.04682378991184,48.566770626846626],[-123.03982149423392,48.56743459826738],[-123.02464758999993,48.56281159100006],[-123.02013045511869,48.557625920088896],[-123.02695380996037,48.54885358837442]]],"type":"Polygon"},"id":"land:8728d1055ffffff","properties":{"source_h3":"8728d1055ffffff","source_type":"land"},"type":"Feature"},{"geometry":{"coordinates":[[[-122.9738126197295,48.57367567074754],[-122.96387965055048,48.564711343472354],[-122.97220380594413,48.55402582190728],[-122.97813741248751,48.55346624987034],[-122.98513749899992,48.55503978100006],[-122.98733476499991,48.560492255000035],[-122.98314368399991,48.56203847900008],[-122.98395748599991,48.56513092700004],[-122.9910582189127,48.57204892028357],[-122.9738126197295,48.57367567074754]]],"type":"Polygon"},"id":"land:8728d1056ffffff","properties":{"source_h3":"8728d1056ffffff","source_type":"land"},"type":"Feature"},{"geometry":{"coordinates":[[[-123.10483139085898,48.60083329695462],[-123.11477578423754,48.60977574218814],[-123.11213480925781,48.61317350583868],[-123.10212154899993,48.60911692900003],[-123.09670867298769,48.601607891209326],[-123.10483139085898,48.60083329695462]]],"type":"Polygon"},"id":"land:8728d1059ffffff","properties":{"source_h3":"8728d1059ffffff","source_type":"land"},"type":"Feature"},{"geometry":{"coordinates":[[[-123.07500770544975,48.57399036182799],[-123.08494735124425,48.58294060654068],[-123.08125721927955,48.587687740243624],[-123.07664954299993,48.58405182500008],[-123.06174638248278,48.575251251246485],[-123.07500770544975,48.57399036182799]]],"type":"Polygon"},"id":"land:8728d105cffffff","properties":{"source_h3":"8728d105cffffff","source_type":"land"},"type":"Feature"},{"geometry":{"coordinates":[[[-123.08494735124425,48.58294060654068],[-123.10319180868707,48.5812012074441],[-123.11313372896629,48.59014707586532],[-123.10483139085898,48.60083329695462],[-123.09670867298769,48.601607891209326],[-123.09382076699988,48.59760163000005],[-123.08125721927955,48.587687740243624],[-123.08494735124425,48.58294060654068]]],"type":"Polygon"},"id":"land:8728d105dffffff","properties":{"source_h3":"8728d105dffffff","source_type":"land"},"type":"Feature"},{"geometry":{"coordinates":[[[-123.12315656754109,48.490173551316325],[-123.1330884062147,48.49913215283545],[-123.12479892378856,48.509831517497695],[-123.10657323722548,48.511572148906325],[-123.09664119725183,48.50261259400226],[-123.10493504391171,48.49191336122514],[-123.12315656754109,48.490173551316325]]],"type":"Polygon"},"id":"land:8728d1060ffffff","properties":{"source_h3":"8728d1060ffffff","source_type":"land"},"type":"Feature"},{"geometry":{"coordinates":[[[-123.15295681362376,48.517041561388474],[-123.13473323030779,48.51878669835347],[-123.12479892378856,48.509831517497695],[-123.1330884062147,48.49913215283545],[-123.14179567400998,48.4982985253431],[-123.14915930899993,48.505601304000045],[-123.15444902299993,48.51312897300005],[-123.15497178945225,48.51443939764311],[-123.15295681362376,48.517041561388474]]],"type":"Polygon"},"id":"land:8728d1061ffffff","properties":{"source_h3":"8728d1061ffffff","source_type":"land"},"type":"Feature"},{"geometry":{"coordinates":[[[-123.09664119725183,48.50261259400226],[-123.10657323722548,48.511572148906325],[-123.09827769360739,48.522268781882616],[-123.08004574632294,48.52400572596617],[-123.07011351019223,48.51504521731287],[-123.07841341627132,48.504348718475725],[-123.09664119725183,48.50261259400226]]],"type":"Polygon"},"id":"land:8728d1062ffffff","properties":{"source_h3":"8728d1062ffffff","source_type":"land"},"type":"Feature"},{"geometry":{"coordinates":[[[-123.12479892378856,48.509831517497695],[-123.13473323030779,48.51878669835347],[-123.12644205321313,48.52948346384152],[-123.1082122018454,48.531224916112855],[-123.09827769360739,48.522268781882616],[-123.10657323722548,48.511572148906325],[-123.12479892378856,48.509831517497695]]],"type":"Polygon"},"id":"land:8728d1063ffffff","properties":{"source_h3":"8728d1063ffffff","source_type":"land"},"type":"Feature"},{"geometry":{"coordinates":[[[-123.12315656754109,48.490173551316325],[-123.10493504391171,48.49191336122514],[-123.09500547099582,48.48295038628407],[-123.0975864772769,48.479619345168054],[-123.10265051999995,48.48029205900008],[-123.11636308499993,48.48419830900008],[-123.12500801356607,48.487782792160836],[-123.12315656754109,48.490173551316325]]],"type":"Polygon"},"id":"land:8728d1064ffffff","properties":{"source_h3":"8728d1064ffffff","source_type":"land"},"type":"Feature"},{"geometry":{"coordinates":[[[-123.1330884062147,48.49913215283545],[-123.12315656754109,48.490173551316325],[-123.12500801356607,48.487782792160836],[-123.1297094389999,48.48973216400008],[-123.13931230399994,48.495835679000045],[-123.14179567400998,48.4982985253431],[-123.1330884062147,48.49913215283545]]],"type":"Polygon"},"id":"land:8728d1065ffffff","properties":{"source_h3":"8728d1065ffffff","source_type":"land"},"type":"Feature"},{"geometry":{"coordinates":[[[-123.09500547099582,48.48295038628407],[-123.10493504391171,48.49191336122514],[-123.09664119725183,48.50261259400226],[-123.07841341627132,48.504348718475725],[-123.06848364761315,48.49538478977529],[-123.07678185444688,48.48468569051106],[-123.09500547099582,48.48295038628407]]],"type":"Polygon"},"id":"land:8728d1066ffffff","properties":{"source_h3":"8728d1066ffffff","source_type":"land"},"type":"Feature"},{"geometry":{"coordinates":[[[-123.16454561352883,48.54563664896116],[-123.15460657540015,48.53668926432069],[-123.16070666026074,48.52881506386823],[-123.16657467399996,48.54352448100008],[-123.16703591349281,48.545397470345506],[-123.16454561352883,48.54563664896116]]],"type":"Polygon"},"id":"land:8728d1068ffffff","properties":{"source_h3":"8728d1068ffffff","source_type":"land"},"type":"Feature"},{"geometry":{"coordinates":[[[-123.15460657540015,48.53668926432069],[-123.16454561352883,48.54563664896116],[-123.15625711397561,48.556330945516024],[-123.13802520219033,48.55807772607013],[-123.12808595635818,48.549129388442346],[-123.13637882878493,48.53843522339908],[-123.15460657540015,48.53668926432069]]],"type":"Polygon"},"id":"land:8728d106affffff","properties":{"source_h3":"8728d106affffff","source_type":"land"},"type":"Feature"},{"geometry":{"coordinates":[[[-123.16619862314961,48.565274907606586],[-123.15625711397561,48.556330945516024],[-123.16454561352883,48.54563664896116],[-123.16703591349281,48.545397470345506],[-123.17179842415793,48.5647369498816],[-123.16619862314961,48.565274907606586]]],"type":"Polygon"},"id":"land:8728d106bffffff","properties":{"source_h3":"8728d106bffffff","source_type":"land"},"type":"Feature"},{"geometry":{"coordinates":[[[-123.15460657540015,48.53668926432069],[-123.13637882878493,48.53843522339908],[-123.12644205321313,48.52948346384152],[-123.13473323030779,48.51878669835347],[-123.15295681362376,48.517041561388474],[-123.15772239443973,48.52133437061419],[-123.16070666026074,48.52881506386823],[-123.15460657540015,48.53668926432069]]],"type":"Polygon"},"id":"land:8728d106effffff","properties":{"source_h3":"8728d106effffff","source_type":"land"},"type":"Feature"},{"geometry":{"coordinates":[[[-123.04194951657644,48.50781276901272],[-123.05187947582971,48.51677765183419],[-123.04357350915951,48.52747141257838],[-123.02533322539968,48.52920015263335],[-123.01540308070587,48.5202343153301],[-123.02371340397734,48.50954069260366],[-123.04194951657644,48.50781276901272]]],"type":"Polygon"},"id":"land:8728d1070ffffff","properties":{"source_h3":"8728d1070ffffff","source_type":"land"},"type":"Feature"},{"geometry":{"coordinates":[[[-123.07011351019223,48.51504521731287],[-123.08004574632294,48.52400572596617],[-123.07174414033145,48.53469962310307],[-123.05350593629677,48.53643287534429],[-123.04357350915951,48.52747141257838],[-123.05187947582971,48.51677765183419],[-123.07011351019223,48.51504521731287]]],"type":"Polygon"},"id":"land:8728d1071ffffff","properties":{"source_h3":"8728d1071ffffff","source_type":"land"},"type":"Feature"},{"geometry":{"coordinates":[[[-122.98884434284541,48.53264942006559],[-122.99716072607127,48.52195854183506],[-123.01540308070587,48.5202343153301],[-123.02533322539968,48.52920015263335],[-123.01702119697458,48.53989117113338],[-123.00562091085858,48.540968963061474],[-123.00430253799993,48.539455471000046],[-122.99233479876982,48.53580119937315],[-122.98884434284541,48.53264942006559]]],"type":"Polygon"},"id":"land:8728d1072ffffff","properties":{"source_h3":"8728d1072ffffff","source_type":"land"},"type":"Feature"},{"geometry":{"coordinates":[[[-123.04357350915951,48.52747141257838],[-123.05350593629677,48.53643287534429],[-123.04519826675862,48.54712403249016],[-123.02695380996037,48.54885358837442],[-123.01702119697458,48.53989117113338],[-123.02533322539968,48.52920015263335],[-123.04357350915951,48.52747141257838]]],"type":"Polygon"},"id":"land:8728d1073ffffff","properties":{"source_h3":"8728d1073ffffff","source_type":"land"},"type":"Feature"},{"geometry":{"coordinates":[[[-123.02209434515702,48.48987521019344],[-123.0403262884718,48.488148103701484],[-123.05025378104781,48.49711640594113],[-123.04194951657644,48.50781276901272],[-123.02371340397734,48.50954069260366],[-123.01853420687821,48.50486149669664],[-123.02017167899993,48.49933502800008],[-123.01683508999992,48.49664948100007],[-123.01683369566985,48.4966475866344],[-123.02209434515702,48.48987521019344]]],"type":"Polygon"},"id":"land:8728d1074ffffff","properties":{"source_h3":"8728d1074ffffff","source_type":"land"},"type":"Feature"},{"geometry":{"coordinates":[[[-123.06848364761315,48.49538478977529],[-123.07841341627132,48.504348718475725],[-123.07011351019223,48.51504521731287],[-123.05187947582971,48.51677765183419],[-123.04194951657644,48.50781276901272],[-123.05025378104781,48.49711640594113],[-123.06848364761315,48.49538478977529]]],"type":"Polygon"},"id":"land:8728d1075ffffff","properties":{"source_h3":"8728d1075ffffff","source_type":"land"},"type":"Feature"},{"geometry":{"coordinates":[[[-123.02371340397734,48.50954069260366],[-123.01540308070587,48.5202343153301],[-122.99716072607127,48.52195854183506],[-122.99011480351525,48.51559227235638],[-122.99225826699988,48.513576565000044],[-123.00234941299995,48.509182033000066],[-123.01056881399991,48.511623440000065],[-123.01659094999991,48.51141998900004],[-123.01853420687821,48.50486149669664],[-123.02371340397734,48.50954069260366]]],"type":"Polygon"},"id":"land:8728d1076ffffff","properties":{"source_h3":"8728d1076ffffff","source_type":"land"},"type":"Feature"},{"geometry":{"coordinates":[[[-122.91388024684642,48.628786897522346],[-122.92381849490783,48.637746294250064],[-122.92205698207728,48.64],[-122.9,48.64],[-122.9,48.6300867098003],[-122.91388024684642,48.628786897522346]]],"type":"Polygon"},"id":"land:8728d10c0ffffff","properties":{"source_h3":"8728d10c0ffffff","source_type":"land"},"type":"Feature"},{"geometry":{"coordinates":[[[-122.92381849490783,48.637746294250064],[-122.94209630121523,48.636029954255626],[-122.94650326670694,48.64],[-122.92205698207728,48.64],[-122.92381849490783,48.637746294250064]]],"type":"Polygon"},"id":"land:8728d10c1ffffff","properties":{"source_h3":"8728d10c1ffffff","source_type":"land"},"type":"Feature"},{"geometry":{"coordinates":[[[-122.91228419402802,48.60914929882085],[-122.92221996977845,48.61811211687084],[-122.91388024684642,48.628786897522346],[-122.9,48.6300867098003],[-122.9,48.610299371387136],[-122.91228419402802,48.60914929882085]]],"type":"Polygon"},"id":"land:8728d10c4ffffff","properties":{"source_h3":"8728d10c4ffffff","source_type":"land"},"type":"Feature"},{"geometry":{"coordinates":[[[-122.94049358582296,48.616396583876224],[-122.9504316679524,48.625355024683124],[-122.94209630121523,48.636029954255626],[-122.92381849490783,48.637746294250064],[-122.91388024684642,48.628786897522346],[-122.92221996977845,48.61811211687084],[-122.94049358582296,48.616396583876224]]],"type":"Polygon"},"id":"land:8728d10c5ffffff","properties":{"source_h3":"8728d10c5ffffff","source_type":"land"},"type":"Feature"},{"geometry":{"coordinates":[[[[-122.91902518088244,48.57882565704875],[-122.93316739198185,48.57749862406852],[-122.93293209499988,48.58177317900004],[-122.92943274599992,48.584418036000045],[-122.92300370999993,48.58535390800006],[-122.914436624447,48.584704271847656],[-122.91902518088244,48.57882565704875]]],[[[-122.92062219861361,48.598471903843716],[-122.9106888939631,48.589505665095196],[-122.91111842552398,48.58895537207256],[-122.91714433499993,48.58869049700006],[-122.93333899599992,48.59275950700004],[-122.93677254792041,48.596956070174315],[-122.92062219861361,48.598471903843716]]],[[[-122.9472235615808,48.586077022780074],[-122.94592051214421,48.587747315500216],[-122.94127356699994,48.58710358300005],[-122.94025631399991,48.58502838700008],[-122.94089101112843,48.58036149791438],[-122.9472235615808,48.586077022780074]]]],"type":"MultiPolygon"},"id":"land:8728d10e0ffffff","properties":{"source_h3":"8728d10e0ffffff","source_type":"land"},"type":"Feature"},{"geometry":{"coordinates":[[[-122.9472235615808,48.586077022780074],[-122.96548675259295,48.58435858302779],[-122.97542219207881,48.593319489602834],[-122.97537079342628,48.593385409491574],[-122.9699600899999,48.59475332200008],[-122.96007239499994,48.58970774900007],[-122.94592051214421,48.587747315500216],[-122.9472235615808,48.586077022780074]]],"type":"Polygon"},"id":"land:8728d10e1ffffff","properties":{"source_h3":"8728d10e1ffffff","source_type":"land"},"type":"Feature"},{"geometry":{"coordinates":[[[-122.9106888939631,48.589505665095196],[-122.92062219861361,48.598471903843716],[-122.91228419402802,48.60914929882085],[-122.9,48.610299371387136],[-122.9,48.590506139996066],[-122.9106888939631,48.589505665095196]]],"type":"Polygon"},"id":"land:8728d10e2ffffff","properties":{"source_h3":"8728d10e2ffffff","source_type":"land"},"type":"Feature"},{"geometry":{"coordinates":[[[-122.94049358582296,48.616396583876224],[-122.92221996977845,48.61811211687084],[-122.91228419402802,48.60914929882085],[-122.92062219861361,48.598471903843716],[-122.93677254792041,48.596956070174315],[-122.94139563699991,48.60260651200007],[-122.94468163595243,48.611030617844925],[-122.94049358582296,48.616396583876224]]],"type":"Polygon"},"id":"land:8728d10e3ffffff","properties":{"source_h3":"8728d10e3ffffff","source_type":"land"},"type":"Feature"},{"geometry":{"coordinates":[[[-122.91902518088244,48.57882565704875],[-122.91319399440795,48.57355885375857],[-122.91604570199992,48.56818268400008],[-122.92121334499991,48.56504954600007],[-122.92438717399996,48.56391022300005],[-122.92837480399992,48.563381252000056],[-122.93472245999995,48.56391022300005],[-122.93960527299994,48.562933661000045],[-122.94080308307005,48.56207808227842],[-122.94562064266307,48.566428973069826],[-122.93769561316313,48.57659211841796],[-122.93687903599995,48.57575104400008],[-122.93317623599991,48.57733795800003],[-122.93316739198185,48.57749862406852],[-122.91902518088244,48.57882565704875]]],"type":"Polygon"},"id":"land:8728d10e4ffffff","properties":{"source_h3":"8728d10e4ffffff","source_type":"land"},"type":"Feature"},{"geometry":{"coordinates":[[[-122.94562064266307,48.566428973069826],[-122.96387965055048,48.564711343472354],[-122.9738126197295,48.57367567074754],[-122.96548675259295,48.58435858302779],[-122.9472235615808,48.586077022780074],[-122.94089101112843,48.58036149791438],[-122.9409480459999,48.57994212400006],[-122.93769561316313,48.57659211841796],[-122.94562064266307,48.566428973069826]]],"type":"Polygon"},"id":"land:8728d10e5ffffff","properties":{"source_h3":"8728d10e5ffffff","source_type":"land"},"type":"Feature"},{"geometry":{"coordinates":[[[[-122.9106888939631,48.589505665095196],[-122.9,48.590506139996066],[-122.9,48.58944409394575],[-122.91111842552398,48.58895537207256],[-122.9106888939631,48.589505665095196]]],[[[-122.91902518088244,48.57882565704875],[-122.914436624447,48.584704271847656],[-122.91441809799994,48.58470286700003],[-122.91108150899993,48.57754140800006],[-122.91319399440795,48.57355885375857],[-122.91902518088244,48.57882565704875]]]],"type":"MultiPolygon"},"id":"land:8728d10e6ffffff","properties":{"source_h3":"8728d10e6ffffff","source_type":"land"},"type":"Feature"},{"geometry":{"coordinates":[[[-122.99529783901204,48.611233504754196],[-123.0052380460259,48.620186612856536],[-122.99691311551312,48.63086444783644],[-122.98552522283424,48.63193942818767],[-122.98623613199993,48.619330145000035],[-122.98793799128536,48.61192808340556],[-122.99529783901204,48.611233504754196]]],"type":"Polygon"},"id":"land:8728d10e8ffffff","properties":{"source_h3":"8728d10e8ffffff","source_type":"land"},"type":"Feature"},{"geometry":{"coordinates":[[[-123.00685579606333,48.63981413336674],[-122.99691311551312,48.63086444783644],[-123.0052380460259,48.620186612856536],[-123.02230036162817,48.61857196664357],[-123.02651933499995,48.62653229400007],[-123.02635657499991,48.636460679000045],[-123.02486363243888,48.638109600781746],[-123.00685579606333,48.63981413336674]]],"type":"Polygon"},"id":"land:8728d10e9ffffff","properties":{"source_h3":"8728d10e9ffffff","source_type":"land"},"type":"Feature"},{"geometry":{"coordinates":[[[-122.94209630121523,48.636029954255626],[-122.9504316679524,48.625355024683124],[-122.95374652466883,48.625042968928156],[-122.96841386599995,48.63458893400007],[-122.97524412926086,48.636945018223756],[-122.97285997099245,48.64],[-122.94650326670694,48.64],[-122.94209630121523,48.636029954255626]]],"type":"Polygon"},"id":"land:8728d10eaffffff","properties":{"source_h3":"8728d10eaffffff","source_type":"land"},"type":"Feature"},{"geometry":{"coordinates":[[[-122.97524412926086,48.636945018223756],[-122.98009192599993,48.63861725500004],[-122.98546301999994,48.63304271000004],[-122.98552522283424,48.63193942818767],[-122.99691311551312,48.63086444783644],[-123.00685579606333,48.63981413336674],[-123.00671082063961,48.64],[-122.97285997099245,48.64],[-122.97524412926086,48.636945018223756]]],"type":"Polygon"},"id":"land:8728d10ebffffff","properties":{"source_h3":"8728d10ebffffff","source_type":"land"},"type":"Feature"},{"geometry":{"coordinates":[[[[-122.97542219207881,48.593319489602834],[-122.97575618110075,48.59328797731336],[-122.97537079342628,48.593385409491574],[-122.97542219207881,48.593319489602834]]],[[[-122.99529783901204,48.611233504754196],[-122.98793799128536,48.61192808340556],[-122.98961341099994,48.60464101800004],[-122.99705969999992,48.59715403900009],[-123.00315124546857,48.60115592808337],[-122.99529783901204,48.611233504754196]]]],"type":"MultiPolygon"},"id":"land:8728d10ecffffff","properties":{"source_h3":"8728d10ecffffff","source_type":"land"},"type":"Feature"},{"geometry":{"coordinates":[[[-123.0052380460259,48.620186612856536],[-122.99529783901204,48.611233504754196],[-123.00315124546857,48.60115592808337],[-123.00963294199994,48.605414130000035],[-123.02220618399993,48.61839427300003],[-123.02230036162817,48.61857196664357],[-123.0052380460259,48.620186612856536]]],"type":"Polygon"},"id":"land:8728d10edffffff","properties":{"source_h3":"8728d10edffffff","source_type":"land"},"type":"Feature"},{"geometry":{"coordinates":[[[-122.9504316679524,48.625355024683124],[-122.94049358582296,48.616396583876224],[-122.94468163595243,48.611030617844925],[-122.94587154899995,48.614081122000066],[-122.95128333199996,48.623439846000046],[-122.95374652466883,48.625042968928156],[-122.9504316679524,48.625355024683124]]],"type":"Polygon"},"id":"land:8728d10eeffffff","properties":{"source_h3":"8728d10eeffffff","source_type":"land"},"type":"Feature"},{"geometry":{"coordinates":[[[-123.010553301345,48.46122761365707],[-122.99232345900786,48.462949392640375],[-122.9890653498794,48.46],[-123.011506033233,48.46],[-123.010553301345,48.46122761365707]]],"type":"Polygon"},"id":"land:8728d1153ffffff","properties":{"source_h3":"8728d1153ffffff","source_type":"land"},"type":"Feature"},{"geometry":{"coordinates":[[[-123.04862885141314,48.477449139576834],[-123.0387038243085,48.46847741855975],[-123.04251489924096,48.46356413828536],[-123.04527747299994,48.46637604400008],[-123.05370032499992,48.47260163000004],[-123.0609958296778,48.476274713887584],[-123.04862885141314,48.477449139576834]]],"type":"Polygon"},"id":"land:8728d1158ffffff","properties":{"source_h3":"8728d1158ffffff","source_type":"land"},"type":"Feature"},{"geometry":{"coordinates":[[[-123.09500547099582,48.48295038628407],[-123.07678185444688,48.48468569051106],[-123.07165162419,48.48005154532477],[-123.09162350199996,48.47882721600008],[-123.0975864772769,48.479619345168054],[-123.09500547099582,48.48295038628407]]],"type":"Polygon"},"id":"land:8728d1159ffffff","properties":{"source_h3":"8728d1159ffffff","source_type":"land"},"type":"Feature"},{"geometry":{"coordinates":[[[-123.0387038243085,48.46847741855975],[-123.04862885141314,48.477449139576834],[-123.0403262884718,48.488148103701484],[-123.02209434515702,48.48987521019344],[-123.01216913342628,48.48090253467705],[-123.02047604840291,48.47020370731769],[-123.0387038243085,48.46847741855975]]],"type":"Polygon"},"id":"land:8728d115affffff","properties":{"source_h3":"8728d115affffff","source_type":"land"},"type":"Feature"},{"geometry":{"coordinates":[[[-123.07678185444688,48.48468569051106],[-123.06848364761315,48.49538478977529],[-123.05025378104781,48.49711640594113],[-123.0403262884718,48.488148103701484],[-123.04862885141314,48.477449139576834],[-123.0609958296778,48.476274713887584],[-123.06541907499991,48.47850169500002],[-123.0703832669999,48.480129299000055],[-123.07165162419,48.48005154532477],[-123.07678185444688,48.48468569051106]]],"type":"Polygon"},"id":"land:8728d115bffffff","properties":{"source_h3":"8728d115bffffff","source_type":"land"},"type":"Feature"},{"geometry":{"coordinates":[[[-123.0387038243085,48.46847741855975],[-123.02047604840291,48.47020370731769],[-123.010553301345,48.46122761365707],[-123.011506033233,48.46],[-123.03901329004795,48.46],[-123.04247179066905,48.46352025991314],[-123.04251489924096,48.46356413828536],[-123.0387038243085,48.46847741855975]]],"type":"Polygon"},"id":"land:8728d115effffff","properties":{"source_h3":"8728d115effffff","source_type":"land"},"type":"Feature"},{"geometry":{"coordinates":[[[-123.11226326995714,48.63474206375152],[-123.11595618299985,48.63516834724864],[-123.14089921799989,48.63804759300006],[-123.14281801744848,48.63890405289796],[-123.14196625002573,48.64],[-123.11787291848447,48.64],[-123.11375891799992,48.638047593000074],[-123.11070716099994,48.63727448100008],[-123.11045168591333,48.637071723050205],[-123.11226326995714,48.63474206375152]]],"type":"Polygon"},"id":"land:8728d13a0ffffff","properties":{"source_h3":"8728d13a0ffffff","source_type":"land"},"type":"Feature"},{"geometry":{"coordinates":[[[-123.11477578423754,48.60977574218814],[-123.1330223135581,48.60803101283439],[-123.14296897742678,48.61696908091705],[-123.14251386443006,48.61755492582294],[-123.12913977799991,48.62006256700005],[-123.11213480925781,48.61317350583868],[-123.11477578423754,48.60977574218814]]],"type":"Polygon"},"id":"land:8728d13a4ffffff","properties":{"source_h3":"8728d13a4ffffff","source_type":"land"},"type":"Feature"},{"geometry":{"coordinates":[[[-123.00685579606333,48.63981413336674],[-123.02486363243888,48.638109600781746],[-123.02315205492101,48.64],[-123.00671082063961,48.64],[-123.00685579606333,48.63981413336674]]],"type":"Polygon"},"id":"land:8728d13b6ffffff","properties":{"source_h3":"8728d13b6ffffff","source_type":"land"},"type":"Feature"},{"geometry":{"coordinates":[[[-122.94081641660016,48.50744865161036],[-122.93249133605623,48.51813924443526],[-122.91423864299033,48.51985073295946],[-122.91359070785123,48.519264403307815],[-122.91030839799994,48.513576565000044],[-122.9248754549999,48.507147528000075],[-122.93175630639887,48.499250711725104],[-122.94081641660016,48.50744865161036]]],"type":"Polygon"},"id":"water:8728d1001ffffff","properties":{"source_h3":"8728d1001ffffff","source_type":"water"},"type":"Feature"},{"geometry":{"coordinates":[[[-122.96066771799742,48.52539877819346],[-122.9705957501892,48.53436994497613],[-122.9622733058629,48.54505807456176],[-122.9440184792146,48.54677489337214],[-122.93409027748808,48.53780277102796],[-122.94241707070397,48.52711478558425],[-122.96066771799742,48.52539877819346]]],"type":"Polygon"},"id":"water:8728d1008ffffff","properties":{"source_h3":"8728d1008ffffff","source_type":"water"},"type":"Feature"},{"geometry":{"coordinates":[[[-122.9622733058629,48.54505807456176],[-122.9705957501892,48.53436994497613],[-122.98362448593556,48.53314156178917],[-122.99233479876982,48.535801199373154],[-122.99877466781773,48.54161621221049],[-122.99045657648207,48.552304484316885],[-122.97813741248751,48.55346624987033],[-122.96941230707777,48.55150495625661],[-122.9622733058629,48.54505807456176]]],"type":"Polygon"},"id":"water:8728d1009ffffff","properties":{"source_h3":"8728d1009ffffff","source_type":"water"},"type":"Feature"},{"geometry":{"coordinates":[[[-122.9158334036004,48.53951506970952],[-122.93409027748808,48.53780277102796],[-122.9440184792146,48.54677489337214],[-122.93568997264984,48.55746027016561],[-122.91742891605467,48.5591733783728],[-122.90750054997439,48.55020030011168],[-122.90948987789703,48.54764938200453],[-122.91030839799994,48.54706452000005],[-122.91069912333589,48.54609876480822],[-122.9158334036004,48.53951506970952]]],"type":"Polygon"},"id":"water:8728d100affffff","properties":{"source_h3":"8728d100affffff","source_type":"water"},"type":"Feature"},{"geometry":{"coordinates":[[[-122.93568997264984,48.55746027016561],[-122.9440184792146,48.54677489337214],[-122.9622733058629,48.54505807456176],[-122.96941230707777,48.55150495625661],[-122.95164954299992,48.54751211100005],[-122.94546464799994,48.55109284100006],[-122.94452877499994,48.55707428600004],[-122.94302324099995,48.56049225500005],[-122.94080308307007,48.56207808227841],[-122.93568997264984,48.55746027016561]]],"type":"Polygon"},"id":"water:8728d100bffffff","properties":{"source_h3":"8728d100bffffff","source_type":"water"},"type":"Feature"},{"geometry":{"coordinates":[[[-122.95906288642188,48.50573345627174],[-122.96898845193161,48.514708041854995],[-122.96066771799742,48.52539877819346],[-122.94241707070397,48.52711478558425],[-122.93249133605623,48.51813924443526],[-122.94081641660016,48.50744865161036],[-122.95906288642188,48.50573345627174]]],"type":"Polygon"},"id":"water:8728d100cffffff","properties":{"source_h3":"8728d100cffffff","source_type":"water"},"type":"Feature"},{"geometry":{"coordinates":[[[-122.9705957501892,48.53436994497613],[-122.96066771799742,48.52539877819346],[-122.96898845193161,48.514708041854995],[-122.98723286858778,48.512988330257606],[-122.99011480351525,48.51559227235638],[-122.97996985599993,48.525132554000045],[-122.97765051999993,48.53131745000007],[-122.98362448593556,48.53314156178917],[-122.9705957501892,48.53436994497613]]],"type":"Polygon"},"id":"water:8728d100dffffff","properties":{"source_h3":"8728d100dffffff","source_type":"water"},"type":"Feature"},{"geometry":{"coordinates":[[[-122.91423864299033,48.51985073295946],[-122.93249133605623,48.51813924443526],[-122.94241707070397,48.52711478558425],[-122.93409027748808,48.53780277102796],[-122.9158334036004,48.53951506970952],[-122.9144171459666,48.53823427559706],[-122.91698157499992,48.533636786000024],[-122.91624915299991,48.52387116100003],[-122.91406075652907,48.52007893971584],[-122.91423864299033,48.51985073295946]]],"type":"Polygon"},"id":"water:8728d100effffff","properties":{"source_h3":"8728d100effffff","source_type":"water"},"type":"Feature"},{"geometry":{"coordinates":[[[-122.90750054997439,48.55020030011168],[-122.91742891605467,48.5591733783728],[-122.90909434612172,48.56985599822874],[-122.89082706364049,48.57156539133229],[-122.88305883274327,48.56454396865324],[-122.88707434799996,48.56366608300005],[-122.90568170173367,48.55037046061507],[-122.90750054997439,48.55020030011168]]],"type":"Polygon"},"id":"water:8728d1019ffffff","properties":{"source_h3":"8728d1019ffffff","source_type":"water"},"type":"Feature"},{"geometry":{"coordinates":[[[[-122.90750054997439,48.55020030011168],[-122.90568170173367,48.55037046061507],[-122.90948987789703,48.54764938200453],[-122.90750054997439,48.55020030011168]]],[[[-122.9158334036004,48.53951506970952],[-122.91069912333589,48.54609876480822],[-122.91246497299996,48.541734117000026],[-122.9144171459666,48.53823427559706],[-122.9158334036004,48.53951506970952]]]],"type":"MultiPolygon"},"id":"water:8728d101dffffff","properties":{"source_h3":"8728d101dffffff","source_type":"water"},"type":"Feature"},{"geometry":{"coordinates":[[[-122.90786710842285,48.44113314334052],[-122.92610309703366,48.43942490176603],[-122.93601897542771,48.44841411171608],[-122.93073004856572,48.455215008004195],[-122.92137610599991,48.45099518400007],[-122.90222325619587,48.448386552042436],[-122.90786710842285,48.44113314334052]]],"type":"Polygon"},"id":"water:8728d1020ffffff","properties":{"source_h3":"8728d1020ffffff","source_type":"water"},"type":"Feature"},{"geometry":{"coordinates":[[[-122.93601897542771,48.44841411171608],[-122.95425292412014,48.44670135633081],[-122.96417109681936,48.4556861944632],[-122.95585549001423,48.46638474341909],[-122.9402985590554,48.46784640060138],[-122.93761145699993,48.458319403000054],[-122.93073004856572,48.455215008004195],[-122.93601897542771,48.44841411171608]]],"type":"Polygon"},"id":"water:8728d1021ffffff","properties":{"source_h3":"8728d1021ffffff","source_type":"water"},"type":"Feature"},{"geometry":{"coordinates":[[[-122.9840121960746,48.4736480816098],[-122.99393512220031,48.48262513013523],[-122.98562215317526,48.49332121680076],[-122.96738191063875,48.49504011445161],[-122.95745881060455,48.486062110707614],[-122.96577612577852,48.47536616468054],[-122.9840121960746,48.4736480816098]]],"type":"Polygon"},"id":"water:8728d1028ffffff","properties":{"source_h3":"8728d1028ffffff","source_type":"water"},"type":"Feature"},{"geometry":{"coordinates":[[[-123.01378572636824,48.50057143587417],[-122.99554754437685,48.50229484717285],[-122.98562215317526,48.49332121680076],[-122.99393512220031,48.48262513013523],[-123.00569488426295,48.48151416708561],[-123.01683369566986,48.4966475866344],[-123.01378572636824,48.50057143587417]]],"type":"Polygon"},"id":"water:8728d1029ffffff","properties":{"source_h3":"8728d1029ffffff","source_type":"water"},"type":"Feature"},{"geometry":{"coordinates":[[[-122.93921651637277,48.48777649336135],[-122.95745881060455,48.486062110707614],[-122.96738191063875,48.49504011445161],[-122.95906288642188,48.50573345627174],[-122.94081641660016,48.50744865161036],[-122.93175630639887,48.499250711725104],[-122.93700110599991,48.49323151200008],[-122.93839643576851,48.488830067403136],[-122.93921651637277,48.48777649336135]]],"type":"Polygon"},"id":"water:8728d102affffff","properties":{"source_h3":"8728d102affffff","source_type":"water"},"type":"Feature"},{"geometry":{"coordinates":[[[-122.98562215317526,48.49332121680076],[-122.99554754437685,48.50229484717285],[-122.98723286858778,48.512988330257606],[-122.96898845193161,48.514708041854995],[-122.95906288642188,48.50573345627174],[-122.96738191063875,48.49504011445161],[-122.98562215317526,48.49332121680076]]],"type":"Polygon"},"id":"water:8728d102bffffff","properties":{"source_h3":"8728d102bffffff","source_type":"water"},"type":"Feature"},{"geometry":{"coordinates":[[[[-122.9840121960746,48.4736480816098],[-122.96577612577852,48.47536616468054],[-122.95585549001423,48.46638474341909],[-122.96417109681936,48.4556861944632],[-122.96495520699995,48.45561233890156],[-122.96495520699995,48.45831940300007],[-122.98289954299992,48.46360911700002],[-122.98937920566652,48.46673938833651],[-122.9840121960746,48.4736480816098]]],[[[-122.98240299675295,48.45396892660623],[-122.98478489004499,48.45612512772432],[-122.97931881399991,48.456366278000075],[-122.97446581160817,48.45471653233979],[-122.98240299675295,48.45396892660623]]]],"type":"MultiPolygon"},"id":"water:8728d102cffffff","properties":{"source_h3":"8728d102cffffff","source_type":"water"},"type":"Feature"},{"geometry":{"coordinates":[[[-122.99393512220031,48.48262513013523],[-122.9840121960746,48.4736480816098],[-122.98937920566652,48.46673938833651],[-122.99132239499995,48.46767812700004],[-122.99913489499994,48.47260163000003],[-123.00569488426295,48.48151416708561],[-122.99393512220031,48.48262513013523]]],"type":"Polygon"},"id":"water:8728d102dffffff","properties":{"source_h3":"8728d102dffffff","source_type":"water"},"type":"Feature"},{"geometry":{"coordinates":[[[-122.95585549001423,48.46638474341909],[-122.96577612577852,48.47536616468054],[-122.95745881060455,48.486062110707614],[-122.93921651637277,48.48777649336135],[-122.93883884005075,48.48743454214348],[-122.94253495999993,48.475775458000015],[-122.9402985590554,48.46784640060138],[-122.95585549001423,48.46638474341909]]],"type":"Polygon"},"id":"water:8728d102effffff","properties":{"source_h3":"8728d102effffff","source_type":"water"},"type":"Feature"},{"geometry":{"coordinates":[[[-123.05676115644071,48.575725247602726],[-123.05151388345719,48.570996898352966],[-123.05776933499992,48.57290273600006],[-123.06174638248278,48.57525125124648],[-123.05676115644071,48.575725247602726]]],"type":"Polygon"},"id":"water:8728d1042ffffff","properties":{"source_h3":"8728d1042ffffff","source_type":"water"},"type":"Feature"},{"geometry":{"coordinates":[[[-123.18608637353942,48.583155032685646],[-123.19603261430755,48.59209119521001],[-123.18774510821544,48.60278041948107],[-123.17077290944468,48.60441167717247],[-123.17756100199995,48.598822333000044],[-123.17511097340036,48.58420966362725],[-123.18608637353942,48.583155032685646]]],"type":"Polygon"},"id":"water:8728d1049ffffff","properties":{"source_h3":"8728d1049ffffff","source_type":"water"},"type":"Feature"},{"geometry":{"coordinates":[[[-123.16121339595925,48.61521983976033],[-123.14843177095901,48.61644531836138],[-123.15843665299991,48.61456940300007],[-123.16752749369398,48.607083966253015],[-123.16121339595925,48.61521983976033]]],"type":"Polygon"},"id":"water:8728d104bffffff","properties":{"source_h3":"8728d104bffffff","source_type":"water"},"type":"Feature"},{"geometry":{"coordinates":[[[-123.1844284198367,48.56352362038436],[-123.19437218756876,48.57246320670084],[-123.18608637353942,48.583155032685646],[-123.17511097340036,48.58420966362725],[-123.17414303299991,48.57843659100007],[-123.17393958199996,48.573431708000044],[-123.17179842415794,48.564736949881606],[-123.1844284198367,48.56352362038436]]],"type":"Polygon"},"id":"water:8728d104dffffff","properties":{"source_h3":"8728d104dffffff","source_type":"water"},"type":"Feature"},{"geometry":{"coordinates":[[[-122.99206957003211,48.57195352111041],[-123.00038937015098,48.56126785639465],[-123.01864007571038,48.55954200137932],[-123.02857515819626,48.56850099792553],[-123.02025971744969,48.57918680417011],[-123.01229347052436,48.579940304784564],[-123.0110570949999,48.57908763200004],[-122.99909420499989,48.57762278900009],[-122.99771243689645,48.57704244626758],[-122.99206957003211,48.57195352111041]]],"type":"Polygon"},"id":"water:8728d1050ffffff","properties":{"source_h3":"8728d1050ffffff","source_type":"water"},"type":"Feature"},{"geometry":{"coordinates":[[[-123.05676115644071,48.575725247602726],[-123.04845007915765,48.58641119375317],[-123.03019727064469,48.58814237939219],[-123.02025971744969,48.57918680417011],[-123.02857515819626,48.56850099792553],[-123.03982149423393,48.567434598267376],[-123.05151388345719,48.570996898352966],[-123.05676115644071,48.575725247602726]]],"type":"Polygon"},"id":"water:8728d1051ffffff","properties":{"source_h3":"8728d1051ffffff","source_type":"water"},"type":"Feature"},{"geometry":{"coordinates":[[[[-122.9936833240303,48.591596528552],[-122.97575618110075,48.59328797731336],[-122.99643880098995,48.58805907965891],[-122.9936833240303,48.591596528552]]],[[[-122.99206957003211,48.57195352111041],[-122.99771243689645,48.57704244626758],[-122.99502519399995,48.57591380400003],[-122.99105821891271,48.57204892028357],[-122.99206957003211,48.57195352111041]]]],"type":"MultiPolygon"},"id":"water:8728d1052ffffff","properties":{"source_h3":"8728d1052ffffff","source_type":"water"},"type":"Feature"},{"geometry":{"coordinates":[[[-123.02025971744969,48.57918680417011],[-123.03019727064469,48.58814237939219],[-123.0218801227295,48.598825577614726],[-123.00362105871908,48.60055305860513],[-122.9936833240303,48.591596528552],[-122.99643880098995,48.58805907965891],[-123.00247148299991,48.58653392100006],[-123.0144343739999,48.58624909100007],[-123.01577714799994,48.58234284100008],[-123.01229347052436,48.579940304784564],[-123.02025971744969,48.57918680417011]]],"type":"Polygon"},"id":"water:8728d1053ffffff","properties":{"source_h3":"8728d1053ffffff","source_type":"water"},"type":"Feature"},{"geometry":{"coordinates":[[[-123.01864007571038,48.55954200137932],[-123.00038937015098,48.56126785639465],[-122.99045657648207,48.552304484316885],[-122.99877466781773,48.54161621221049],[-123.00562091085858,48.540968963061474],[-123.02013045511869,48.55762592008888],[-123.01864007571038,48.55954200137932]]],"type":"Polygon"},"id":"water:8728d1054ffffff","properties":{"source_h3":"8728d1054ffffff","source_type":"water"},"type":"Feature"},{"geometry":{"coordinates":[[[-123.02857515819626,48.56850099792553],[-123.01864007571038,48.55954200137932],[-123.02013045511869,48.55762592008888],[-123.02464758999993,48.56281159100006],[-123.03982149423393,48.567434598267376],[-123.02857515819626,48.56850099792553]]],"type":"Polygon"},"id":"water:8728d1055ffffff","properties":{"source_h3":"8728d1055ffffff","source_type":"water"},"type":"Feature"},{"geometry":{"coordinates":[[[-122.99045657648207,48.552304484316885],[-123.00038937015098,48.56126785639465],[-122.99206957003211,48.57195352111041],[-122.99105821891271,48.57204892028357],[-122.98395748599991,48.56513092700004],[-122.98314368399991,48.56203847900008],[-122.98733476499991,48.56049225500003],[-122.98513749899992,48.55503978100006],[-122.97813741248751,48.55346624987033],[-122.99045657648207,48.552304484316885]]],"type":"Polygon"},"id":"water:8728d1056ffffff","properties":{"source_h3":"8728d1056ffffff","source_type":"water"},"type":"Feature"},{"geometry":{"coordinates":[[[-123.07664064150971,48.59362669097304],[-123.08658275961037,48.60257351311691],[-123.07827434729164,48.61325699079138],[-123.06001944579326,48.61499350755884],[-123.05007713503527,48.606045731321984],[-123.05838991719597,48.59536239256167],[-123.07664064150971,48.59362669097304]]],"type":"Polygon"},"id":"water:8728d1058ffffff","properties":{"source_h3":"8728d1058ffffff","source_type":"water"},"type":"Feature"},{"geometry":{"coordinates":[[[-123.10647174584203,48.620459357152114],[-123.08821893890901,48.62220038974441],[-123.07827434729164,48.61325699079138],[-123.08658275961037,48.60257351311691],[-123.0967086729877,48.601607891209326],[-123.10212154899993,48.60911692900003],[-123.11213480925781,48.613173505838674],[-123.10647174584203,48.620459357152114]]],"type":"Polygon"},"id":"water:8728d1059ffffff","properties":{"source_h3":"8728d1059ffffff","source_type":"water"},"type":"Feature"},{"geometry":{"coordinates":[[[-123.05007713503527,48.606045731321984],[-123.06001944579326,48.61499350755884],[-123.05170495808424,48.625674237672044],[-123.03344379033095,48.62740705052827],[-123.02350129208729,48.618458319828974],[-123.03182014784348,48.60777773088671],[-123.05007713503527,48.606045731321984]]],"type":"Polygon"},"id":"water:8728d105affffff","properties":{"source_h3":"8728d105affffff","source_type":"water"},"type":"Feature"},{"geometry":{"coordinates":[[[-123.07827434729164,48.61325699079138],[-123.08821893890901,48.62220038974441],[-123.07990882333718,48.63288125940524],[-123.06164974277296,48.63461859071661],[-123.05170495808424,48.625674237672044],[-123.06001944579326,48.61499350755884],[-123.07827434729164,48.61325699079138]]],"type":"Polygon"},"id":"water:8728d105bffffff","properties":{"source_h3":"8728d105bffffff","source_type":"water"},"type":"Feature"},{"geometry":{"coordinates":[[[-123.07664064150971,48.59362669097304],[-123.05838991719597,48.59536239256167],[-123.04845007915765,48.58641119375317],[-123.05676115644071,48.575725247602726],[-123.06174638248278,48.57525125124648],[-123.07664954299993,48.58405182500008],[-123.08125721927956,48.587687740243624],[-123.07664064150971,48.59362669097304]]],"type":"Polygon"},"id":"water:8728d105cffffff","properties":{"source_h3":"8728d105cffffff","source_type":"water"},"type":"Feature"},{"geometry":{"coordinates":[[[-123.08658275961037,48.60257351311691],[-123.07664064150971,48.59362669097304],[-123.08125721927956,48.587687740243624],[-123.09382076699988,48.59760163000005],[-123.0967086729877,48.601607891209326],[-123.08658275961037,48.60257351311691]]],"type":"Polygon"},"id":"water:8728d105dffffff","properties":{"source_h3":"8728d105dffffff","source_type":"water"},"type":"Feature"},{"geometry":{"coordinates":[[[-123.04845007915765,48.58641119375317],[-123.05838991719597,48.59536239256167],[-123.05007713503527,48.606045731321984],[-123.03182014784348,48.60777773088671],[-123.0218801227295,48.598825577614726],[-123.03019727064469,48.58814237939219],[-123.04845007915765,48.58641119375317]]],"type":"Polygon"},"id":"water:8728d105effffff","properties":{"source_h3":"8728d105effffff","source_type":"water"},"type":"Feature"},{"geometry":{"coordinates":[[[-123.15130782810095,48.4973878386216],[-123.1612419277625,48.506342066469834],[-123.15497178945226,48.51443939764311],[-123.15444902299993,48.51312897300005],[-123.14915930899993,48.505601304000045],[-123.14179567400998,48.498298525343095],[-123.15130782810095,48.4973878386216]]],"type":"Polygon"},"id":"water:8728d1061ffffff","properties":{"source_h3":"8728d1061ffffff","source_type":"water"},"type":"Feature"},{"geometry":{"coordinates":[[[-123.10329762136239,48.472248554981455],[-123.12151498392782,48.470509567209675],[-123.13144435596183,48.47947158875393],[-123.12500801356606,48.487782792160836],[-123.11636308499993,48.48419830900008],[-123.10265051999995,48.48029205900008],[-123.0975864772769,48.479619345168054],[-123.10329762136239,48.472248554981455]]],"type":"Polygon"},"id":"water:8728d1064ffffff","properties":{"source_h3":"8728d1064ffffff","source_type":"water"},"type":"Feature"},{"geometry":{"coordinates":[[[-123.13144435596183,48.47947158875393],[-123.14965961828665,48.47772809792919],[-123.15959125052461,48.48668574642855],[-123.15130782810095,48.4973878386216],[-123.14179567400998,48.498298525343095],[-123.13931230399994,48.495835679000045],[-123.1297094389999,48.48973216400008],[-123.12500801356606,48.487782792160836],[-123.13144435596183,48.47947158875393]]],"type":"Polygon"},"id":"water:8728d1065ffffff","properties":{"source_h3":"8728d1065ffffff","source_type":"water"},"type":"Feature"},{"geometry":{"coordinates":[[[-123.16289338191524,48.52599236794928],[-123.18111485315728,48.52424272681295],[-123.19105367844433,48.53318915883737],[-123.1827712465587,48.54388618446273],[-123.16703591349281,48.545397470345506],[-123.16657467399996,48.54352448100008],[-123.16070666026076,48.52881506386822],[-123.16289338191524,48.52599236794928]]],"type":"Polygon"},"id":"water:8728d1068ffffff","properties":{"source_h3":"8728d1068ffffff","source_type":"water"},"type":"Feature"},{"geometry":{"coordinates":[[[-123.20927302878857,48.53143501492103],[-123.2192141062911,48.540377072172916],[-123.21093605307863,48.55107422542177],[-123.19271254246401,48.55282919394703],[-123.1827712465587,48.54388618446273],[-123.19105367844433,48.53318915883737],[-123.20927302878857,48.53143501492103]]],"type":"Polygon"},"id":"water:8728d1069ffffff","properties":{"source_h3":"8728d1069ffffff","source_type":"water"},"type":"Feature"},{"geometry":{"coordinates":[[[-123.1827712465587,48.54388618446273],[-123.19271254246401,48.55282919394703],[-123.1844284198367,48.56352362038436],[-123.17179842415794,48.564736949881606],[-123.16703591349281,48.545397470345506],[-123.1827712465587,48.54388618446273]]],"type":"Polygon"},"id":"water:8728d106bffffff","properties":{"source_h3":"8728d106bffffff","source_type":"water"},"type":"Feature"},{"geometry":{"coordinates":[[[-123.1612419277625,48.506342066469834],[-123.17945923908478,48.50459324933408],[-123.18939559496114,48.513543103267686],[-123.18111485315728,48.52424272681295],[-123.16289338191524,48.52599236794928],[-123.15772239443974,48.5213343706142],[-123.15497178945226,48.51443939764311],[-123.1612419277625,48.506342066469834]]],"type":"Polygon"},"id":"water:8728d106cffffff","properties":{"source_h3":"8728d106cffffff","source_type":"water"},"type":"Feature"},{"geometry":{"coordinates":[[[-123.20761078690172,48.511789784599394],[-123.21754939421645,48.52073526437992],[-123.20927302878857,48.53143501492103],[-123.19105367844433,48.53318915883737],[-123.18111485315728,48.52424272681295],[-123.18939559496114,48.513543103267686],[-123.20761078690172,48.511789784599394]]],"type":"Polygon"},"id":"water:8728d106dffffff","properties":{"source_h3":"8728d106dffffff","source_type":"water"},"type":"Feature"},{"geometry":{"coordinates":[[[-123.16289338191524,48.52599236794928],[-123.16070666026076,48.52881506386822],[-123.15772239443974,48.5213343706142],[-123.16289338191524,48.52599236794928]]],"type":"Polygon"},"id":"water:8728d106effffff","properties":{"source_h3":"8728d106effffff","source_type":"water"},"type":"Feature"},{"geometry":{"coordinates":[[[-122.99877466781773,48.54161621221049],[-122.99233479876982,48.535801199373154],[-123.00430253799993,48.539455471000046],[-123.00562091085858,48.540968963061474],[-122.99877466781773,48.54161621221049]]],"type":"Polygon"},"id":"water:8728d1072ffffff","properties":{"source_h3":"8728d1072ffffff","source_type":"water"},"type":"Feature"},{"geometry":{"coordinates":[[[-123.01378572636824,48.50057143587417],[-123.01683369566986,48.4966475866344],[-123.01683508999992,48.49664948100007],[-123.02017167899993,48.49933502800008],[-123.01853420687823,48.504861496696634],[-123.01378572636824,48.50057143587417]]],"type":"Polygon"},"id":"water:8728d1074ffffff","properties":{"source_h3":"8728d1074ffffff","source_type":"water"},"type":"Feature"},{"geometry":{"coordinates":[[[-122.98723286858778,48.512988330257606],[-122.99554754437685,48.50229484717285],[-123.01378572636824,48.50057143587417],[-123.01853420687823,48.504861496696634],[-123.01659094999991,48.51141998900004],[-123.01056881399991,48.51162344000008],[-123.00234941299995,48.509182033000066],[-122.99225826699988,48.513576565000044],[-122.99011480351525,48.51559227235638],[-122.98723286858778,48.512988330257606]]],"type":"Polygon"},"id":"water:8728d1076ffffff","properties":{"source_h3":"8728d1076ffffff","source_type":"water"},"type":"Feature"},{"geometry":{"coordinates":[[[-122.89719300732658,48.65013107664444],[-122.88725459853553,48.64117072363442],[-122.89146179708769,48.635790855765194],[-122.90338653931714,48.64955094517973],[-122.89719300732658,48.65013107664444]]],"type":"Polygon"},"id":"water:8728d10c0ffffff","properties":{"source_h3":"8728d10c0ffffff","source_type":"water"},"type":"Feature"},{"geometry":{"coordinates":[[[-122.914436624447,48.58470427184765],[-122.92300370999993,48.58535390800006],[-122.92943274599992,48.584418036000045],[-122.93293209499988,48.58177317900004],[-122.93316739198185,48.577498624068525],[-122.93729042207214,48.57711173994765],[-122.94089101112843,48.58036149791439],[-122.94025631399991,48.58502838700008],[-122.94127356699994,48.58710358300006],[-122.94592051214423,48.587747315500216],[-122.93889162628595,48.596757178480175],[-122.93677254792041,48.596956070174315],[-122.93333899599992,48.59275950700004],[-122.91714433499993,48.58869049700006],[-122.91111842552398,48.58895537207256],[-122.914436624447,48.58470427184765]]],"type":"Polygon"},"id":"water:8728d10e0ffffff","properties":{"source_h3":"8728d10e0ffffff","source_type":"water"},"type":"Feature"},{"geometry":{"coordinates":[[[-122.96709461252348,48.60399979133747],[-122.94882723649977,48.60571904061239],[-122.93889162628595,48.596757178480175],[-122.94592051214423,48.587747315500216],[-122.96007239499994,48.58970774900007],[-122.9699600899999,48.59475332200008],[-122.97537079342628,48.59338540949157],[-122.96709461252348,48.60399979133747]]],"type":"Polygon"},"id":"water:8728d10e1ffffff","properties":{"source_h3":"8728d10e1ffffff","source_type":"water"},"type":"Feature"},{"geometry":{"coordinates":[[[-122.93889162628595,48.596757178480175],[-122.94882723649977,48.60571904061239],[-122.94468163595243,48.61103061784492],[-122.94139563699991,48.60260651200007],[-122.93677254792041,48.596956070174315],[-122.93889162628595,48.596757178480175]]],"type":"Polygon"},"id":"water:8728d10e3ffffff","properties":{"source_h3":"8728d10e3ffffff","source_type":"water"},"type":"Feature"},{"geometry":{"coordinates":[[[[-122.90909434612172,48.56985599822874],[-122.91742891605467,48.5591733783728],[-122.93568997264984,48.55746027016561],[-122.94080308307007,48.56207808227841],[-122.93960527299994,48.562933661000045],[-122.93472245999995,48.56391022300005],[-122.92837480399992,48.563381252000056],[-122.92438717399996,48.56391022300005],[-122.92121334499991,48.56504954600007],[-122.91604570199992,48.56818268400008],[-122.91319399440795,48.57355885375856],[-122.90909434612172,48.56985599822874]]],[[[-122.93729042207214,48.57711173994765],[-122.93316739198185,48.577498624068525],[-122.93317623599991,48.57733795800003],[-122.93687903599995,48.575751044000086],[-122.93769561316314,48.57659211841796],[-122.93729042207214,48.57711173994765]]]],"type":"MultiPolygon"},"id":"water:8728d10e4ffffff","properties":{"source_h3":"8728d10e4ffffff","source_type":"water"},"type":"Feature"},{"geometry":{"coordinates":[[[-122.93729042207214,48.57711173994765],[-122.93769561316314,48.57659211841796],[-122.9409480459999,48.579942124000056],[-122.94089101112843,48.58036149791439],[-122.93729042207214,48.57711173994765]]],"type":"Polygon"},"id":"water:8728d10e5ffffff","properties":{"source_h3":"8728d10e5ffffff","source_type":"water"},"type":"Feature"},{"geometry":{"coordinates":[[[-122.88248642921783,48.58224525010705],[-122.89082706364049,48.57156539133229],[-122.90909434612172,48.56985599822874],[-122.91319399440795,48.57355885375856],[-122.91108150899993,48.57754140800006],[-122.91441809799994,48.58470286700003],[-122.914436624447,48.58470427184765],[-122.91111842552398,48.58895537207256],[-122.89089884862983,48.58984414445076],[-122.88248642921783,48.58224525010705]]],"type":"Polygon"},"id":"water:8728d10e6ffffff","properties":{"source_h3":"8728d10e6ffffff","source_type":"water"},"type":"Feature"},{"geometry":{"coordinates":[[[-122.9786436146063,48.632589029816224],[-122.96870323087578,48.62363496651765],[-122.97703252352622,48.612957276585895],[-122.98793799128535,48.61192808340556],[-122.98623613199993,48.619330145000035],[-122.98552522283424,48.63193942818768],[-122.9786436146063,48.632589029816224]]],"type":"Polygon"},"id":"water:8728d10e8ffffff","properties":{"source_h3":"8728d10e8ffffff","source_type":"water"},"type":"Feature"},{"geometry":{"coordinates":[[[-123.02350129208729,48.618458319828974],[-123.03344379033095,48.62740705052827],[-123.02512322606096,48.63808502893544],[-123.02486363243887,48.638109600781746],[-123.02635657499991,48.636460679000045],[-123.02651933499995,48.62653229400007],[-123.02230036162817,48.61857196664356],[-123.02350129208729,48.618458319828974]]],"type":"Polygon"},"id":"water:8728d10e9ffffff","properties":{"source_h3":"8728d10e9ffffff","source_type":"water"},"type":"Feature"},{"geometry":{"coordinates":[[[-122.96870323087578,48.62363496651765],[-122.9786436146063,48.632589029816224],[-122.97524412926086,48.636945018223756],[-122.96841386599995,48.63458893400007],[-122.95374652466884,48.62504296892815],[-122.96870323087578,48.62363496651765]]],"type":"Polygon"},"id":"water:8728d10eaffffff","properties":{"source_h3":"8728d10eaffffff","source_type":"water"},"type":"Feature"},{"geometry":{"coordinates":[[[-122.9786436146063,48.632589029816224],[-122.98552522283424,48.63193942818768],[-122.98546301999994,48.63304271000004],[-122.98009192599993,48.63861725500004],[-122.97524412926086,48.636945018223756],[-122.9786436146063,48.632589029816224]]],"type":"Polygon"},"id":"water:8728d10ebffffff","properties":{"source_h3":"8728d10ebffffff","source_type":"water"},"type":"Feature"},{"geometry":{"coordinates":[[[-122.97703252352622,48.612957276585895],[-122.96709461252348,48.60399979133747],[-122.97537079342628,48.59338540949157],[-122.97575618110075,48.59328797731336],[-122.9936833240303,48.591596528552],[-123.00362105871908,48.60055305860513],[-123.00315124546857,48.601155928083365],[-122.99705969999992,48.59715403900009],[-122.98961341099994,48.60464101800004],[-122.98793799128535,48.61192808340556],[-122.97703252352622,48.612957276585895]]],"type":"Polygon"},"id":"water:8728d10ecffffff","properties":{"source_h3":"8728d10ecffffff","source_type":"water"},"type":"Feature"},{"geometry":{"coordinates":[[[-123.00362105871908,48.60055305860513],[-123.0218801227295,48.598825577614726],[-123.03182014784348,48.60777773088671],[-123.02350129208729,48.618458319828974],[-123.02230036162817,48.61857196664356],[-123.02220618399993,48.61839427300003],[-123.00963294199994,48.60541413000003],[-123.00315124546857,48.601155928083365],[-123.00362105871908,48.60055305860513]]],"type":"Polygon"},"id":"water:8728d10edffffff","properties":{"source_h3":"8728d10edffffff","source_type":"water"},"type":"Feature"},{"geometry":{"coordinates":[[[-122.94882723649977,48.60571904061239],[-122.96709461252348,48.60399979133747],[-122.97703252352622,48.612957276585895],[-122.96870323087578,48.62363496651765],[-122.95374652466884,48.62504296892815],[-122.95128333199996,48.623439846000046],[-122.94587154899995,48.614081122000066],[-122.94468163595243,48.61103061784492],[-122.94882723649977,48.60571904061239]]],"type":"Polygon"},"id":"water:8728d10eeffffff","properties":{"source_h3":"8728d10eeffffff","source_type":"water"},"type":"Feature"},{"geometry":{"coordinates":[[[-123.17449706737229,48.44560871701571],[-123.18442602225358,48.45456883285746],[-123.17615034673864,48.46527624251935],[-123.15794134965638,48.46702340973799],[-123.1480121836364,48.45806234122712],[-123.15629222461277,48.44735505831749],[-123.17449706737229,48.44560871701571]]],"type":"Polygon"},"id":"water:8728d1149ffffff","properties":{"source_h3":"8728d1149ffffff","source_type":"water"},"type":"Feature"},{"geometry":{"coordinates":[[[-123.11987417240633,48.45083956709687],[-123.12980107900594,48.459805008024695],[-123.12151498392782,48.470509567209675],[-123.10329762136239,48.472248554981455],[-123.09337051429858,48.463282160643544],[-123.10166096903639,48.452577732094234],[-123.11987417240633,48.45083956709687]]],"type":"Polygon"},"id":"water:8728d114affffff","properties":{"source_h3":"8728d114affffff","source_type":"water"},"type":"Feature"},{"geometry":{"coordinates":[[[-123.1480121836364,48.45806234122712],[-123.15794134965638,48.46702340973799],[-123.14965961828665,48.47772809792919],[-123.13144435596183,48.47947158875393],[-123.12151498392782,48.470509567209675],[-123.12980107900594,48.459805008024695],[-123.1480121836364,48.45806234122712]]],"type":"Polygon"},"id":"water:8728d114bffffff","properties":{"source_h3":"8728d114bffffff","source_type":"water"},"type":"Feature"},{"geometry":{"coordinates":[[[-122.98240299675295,48.45396892660623],[-122.99071255426638,48.443267636613285],[-123.00893822958994,48.44154667473936],[-123.01885851317964,48.450526185898184],[-123.01792248161443,48.45173228086297],[-123.01646887899996,48.451483466000056],[-123.00161699099993,48.45311107000004],[-122.99038652299994,48.45587799700007],[-122.98478489004499,48.45612512772432],[-122.98240299675295,48.45396892660623]]],"type":"Polygon"},"id":"water:8728d1153ffffff","properties":{"source_h3":"8728d1153ffffff","source_type":"water"},"type":"Feature"},{"geometry":{"coordinates":[[[-123.04700468638826,48.4577758546599],[-123.06522622297933,48.45604587711239],[-123.07515106031008,48.465016643987475],[-123.06685455205509,48.47571834240226],[-123.06099582967778,48.47627471388758],[-123.05370032499992,48.47260163000004],[-123.04527747299994,48.46637604400008],[-123.04251489924097,48.46356413828537],[-123.04700468638826,48.4577758546599]]],"type":"Polygon"},"id":"water:8728d1158ffffff","properties":{"source_h3":"8728d1158ffffff","source_type":"water"},"type":"Feature"},{"geometry":{"coordinates":[[[-123.06685455205509,48.47571834240226],[-123.07515106031008,48.465016643987475],[-123.09337051429858,48.463282160643544],[-123.10329762136239,48.472248554981455],[-123.0975864772769,48.479619345168054],[-123.09162350199996,48.47882721600008],[-123.07165162419001,48.48005154532478],[-123.06685455205509,48.47571834240226]]],"type":"Polygon"},"id":"water:8728d1159ffffff","properties":{"source_h3":"8728d1159ffffff","source_type":"water"},"type":"Feature"},{"geometry":{"coordinates":[[[-123.06685455205509,48.47571834240226],[-123.07165162419001,48.48005154532478],[-123.0703832669999,48.480129299000055],[-123.06541907499991,48.47850169500001],[-123.06099582967778,48.47627471388758],[-123.06685455205509,48.47571834240226]]],"type":"Polygon"},"id":"water:8728d115bffffff","properties":{"source_h3":"8728d115bffffff","source_type":"water"},"type":"Feature"},{"geometry":{"coordinates":[[[-123.09173632661981,48.44360791900299],[-123.10166096903639,48.452577732094234],[-123.09337051429858,48.463282160643544],[-123.07515106031008,48.465016643987475],[-123.06522622297933,48.45604587711239],[-123.07352103332191,48.445341580827204],[-123.09173632661981,48.44360791900299]]],"type":"Polygon"},"id":"water:8728d115dffffff","properties":{"source_h3":"8728d115dffffff","source_type":"water"},"type":"Feature"},{"geometry":{"coordinates":[[[-123.01885851317964,48.450526185898184],[-123.03708212355,48.44880071550945],[-123.04700468638826,48.4577758546599],[-123.04251489924097,48.46356413828537],[-123.03844153599995,48.45941803600003],[-123.03001868399991,48.45380280200004],[-123.01792248161443,48.45173228086297],[-123.01885851317964,48.450526185898184]]],"type":"Polygon"},"id":"water:8728d115effffff","properties":{"source_h3":"8728d115effffff","source_type":"water"},"type":"Feature"},{"geometry":{"coordinates":[[[-123.2159298258681,48.60995571907397],[-123.22588079621015,48.61888407995419],[-123.2175959852735,48.629570831400535],[-123.19935581488586,48.63132909197254],[-123.18940462441392,48.62239977889203],[-123.19769382322993,48.611713157592334],[-123.2159298258681,48.60995571907397]]],"type":"Polygon"},"id":"water:8728d1310ffffff","properties":{"source_h3":"8728d1310ffffff","source_type":"water"},"type":"Feature"},{"geometry":{"coordinates":[[[-123.18940462441392,48.62239977889203],[-123.19935581488586,48.63132909197254],[-123.19106492268465,48.642013109046694],[-123.17281845265053,48.64376768078339],[-123.16286704719634,48.634837415121766],[-123.17116232552681,48.624153530456915],[-123.18940462441392,48.62239977889203]]],"type":"Polygon"},"id":"water:8728d1312ffffff","properties":{"source_h3":"8728d1312ffffff","source_type":"water"},"type":"Feature"},{"geometry":{"coordinates":[[[-123.2175959852735,48.629570831400535],[-123.22754943185184,48.63849576664019],[-123.21926292983598,48.64917991449492],[-123.20101858982595,48.650938996482104],[-123.19106492268465,48.642013109046694],[-123.19935581488586,48.63132909197254],[-123.2175959852735,48.629570831400535]]],"type":"Polygon"},"id":"water:8728d1313ffffff","properties":{"source_h3":"8728d1313ffffff","source_type":"water"},"type":"Feature"},{"geometry":{"coordinates":[[[-123.2142644510679,48.59033457938389],[-123.2242129463851,48.59926636528892],[-123.2159298258681,48.60995571907397],[-123.19769382322993,48.611713157592334],[-123.18774510821544,48.60278041948107],[-123.19603261430755,48.59209119521001],[-123.2142644510679,48.59033457938389]]],"type":"Polygon"},"id":"water:8728d1314ffffff","properties":{"source_h3":"8728d1314ffffff","source_type":"water"},"type":"Feature"},{"geometry":{"coordinates":[[[-123.18774510821544,48.60278041948107],[-123.19769382322993,48.611713157592334],[-123.18940462441392,48.62239977889203],[-123.17116232552681,48.624153530456915],[-123.16121339595925,48.61521983976033],[-123.16752749369398,48.607083966253015],[-123.17077290944468,48.60441167717247],[-123.18774510821544,48.60278041948107]]],"type":"Polygon"},"id":"water:8728d1316ffffff","properties":{"source_h3":"8728d1316ffffff","source_type":"water"},"type":"Feature"},{"geometry":{"coordinates":[[[-123.21259986032166,48.570707414205735],[-123.22254588182459,48.57964262451656],[-123.2142644510679,48.59033457938389],[-123.19603261430755,48.59209119521001],[-123.18608637353942,48.583155032685646],[-123.19437218756876,48.57246320670084],[-123.21259986032166,48.570707414205735]]],"type":"Polygon"},"id":"water:8728d1332ffffff","properties":{"source_h3":"8728d1332ffffff","source_type":"water"},"type":"Feature"},{"geometry":{"coordinates":[[[-123.21093605307863,48.55107422542177],[-123.22087960197695,48.560012859515986],[-123.21259986032166,48.570707414205735],[-123.19437218756876,48.57246320670084],[-123.1844284198367,48.56352362038436],[-123.19271254246401,48.55282919394703],[-123.21093605307863,48.55107422542177]]],"type":"Polygon"},"id":"water:8728d1336ffffff","properties":{"source_h3":"8728d1336ffffff","source_type":"water"},"type":"Feature"},{"geometry":{"coordinates":[[[[-123.1164186135309,48.6293983785778],[-123.13466931702943,48.627652831544836],[-123.1446184559984,48.63658747520494],[-123.14281801744846,48.638904052897956],[-123.14089921799989,48.63804759300006],[-123.11226326995715,48.634742063751524],[-123.1164186135309,48.6293983785778]]],[[[-123.13631709694594,48.6472686190871],[-123.11806221739104,48.64901498316297],[-123.10811287418002,48.64007938616196],[-123.11045168591333,48.63707172305021],[-123.11070716099994,48.63727448100008],[-123.11375891799992,48.638047593000074],[-123.12096106699994,48.641465562000064],[-123.1321101549999,48.64366282800007],[-123.13812277613921,48.64494529839391],[-123.13631709694594,48.6472686190871]]]],"type":"MultiPolygon"},"id":"water:8728d13a0ffffff","properties":{"source_h3":"8728d13a0ffffff","source_type":"water"},"type":"Feature"},{"geometry":{"coordinates":[[[-123.1446184559984,48.63658747520494],[-123.16286704719634,48.634837415121766],[-123.17281845265053,48.64376768078339],[-123.16452147796777,48.65444895933711],[-123.14626871222731,48.65619983770979],[-123.13631709694594,48.6472686190871],[-123.13812277613921,48.64494529839391],[-123.1467992829999,48.64679596600008],[-123.15221106699995,48.64846426000008],[-123.16323808499995,48.650132554000024],[-123.16401119699992,48.64626699400007],[-123.15038001199993,48.642279364000046],[-123.14281801744846,48.638904052897956],[-123.1446184559984,48.63658747520494]]],"type":"Polygon"},"id":"water:8728d13a1ffffff","properties":{"source_h3":"8728d13a1ffffff","source_type":"water"},"type":"Feature"},{"geometry":{"coordinates":[[[-123.13466931702943,48.627652831544836],[-123.1164186135309,48.6293983785778],[-123.10647174584203,48.620459357152114],[-123.11213480925781,48.613173505838674],[-123.12913977799991,48.62006256700005],[-123.14251386443007,48.61755492582294],[-123.13466931702943,48.627652831544836]]],"type":"Polygon"},"id":"water:8728d13a4ffffff","properties":{"source_h3":"8728d13a4ffffff","source_type":"water"},"type":"Feature"},{"geometry":{"coordinates":[[[-123.16121339595925,48.61521983976033],[-123.17116232552681,48.624153530456915],[-123.16286704719634,48.634837415121766],[-123.1446184559984,48.63658747520494],[-123.13466931702943,48.627652831544836],[-123.14251386443007,48.61755492582294],[-123.14843177095901,48.61644531836138],[-123.16121339595925,48.61521983976033]]],"type":"Polygon"},"id":"water:8728d13a5ffffff","properties":{"source_h3":"8728d13a5ffffff","source_type":"water"},"type":"Feature"},{"geometry":{"coordinates":[[[-123.10811287418002,48.64007938616196],[-123.08985588968287,48.64182123454863],[-123.07990882333718,48.63288125940524],[-123.08821893890901,48.62220038974441],[-123.10647174584203,48.620459357152114],[-123.1164186135309,48.6293983785778],[-123.11226326995715,48.634742063751524],[-123.10846920499988,48.63430410400008],[-123.10814368399993,48.63523997600004],[-123.11045168591333,48.63707172305021],[-123.10811287418002,48.64007938616196]]],"type":"Polygon"},"id":"water:8728d13a6ffffff","properties":{"source_h3":"8728d13a6ffffff","source_type":"water"},"type":"Feature"},{"geometry":{"coordinates":[[[-123.05170495808424,48.625674237672044],[-123.06164974277296,48.63461859071661],[-123.05333354884459,48.64529671092915],[-123.03506819864599,48.64703033644277],[-123.02512322606096,48.63808502893544],[-123.03344379033095,48.62740705052827],[-123.05170495808424,48.625674237672044]]],"type":"Polygon"},"id":"water:8728d13b4ffffff","properties":{"source_h3":"8728d13b4ffffff","source_type":"water"},"type":"Feature"},{"geometry":{"coordinates":[[[-123.07990882333718,48.63288125940524],[-123.08985588968287,48.64182123454863],[-123.08154407018866,48.65249949494358],[-123.0632808086761,48.65423764016407],[-123.05333354884459,48.64529671092915],[-123.06164974277296,48.63461859071661],[-123.07990882333718,48.63288125940524]]],"type":"Polygon"},"id":"water:8728d13b5ffffff","properties":{"source_h3":"8728d13b5ffffff","source_type":"water"},"type":"Feature"},{"geometry":{"coordinates":[[[-123.02512322606096,48.63808502893544],[-123.03506819864599,48.64703033644277],[-123.02674592518902,48.65770570306357],[-123.00847430936861,48.6594356182653],[-123.00397159201647,48.65538515455038],[-123.02090410099993,48.64248281500005],[-123.02486363243887,48.638109600781746],[-123.02512322606096,48.63808502893544]]],"type":"Polygon"},"id":"water:8728d13b6ffffff","properties":{"source_h3":"8728d13b6ffffff","source_type":"water"},"type":"Feature"},{"geometry":{"coordinates":[[[-123.2042886481414,48.47248127211078],[-123.21422231870073,48.48143359504814],[-123.20594932686892,48.49213853635948],[-123.18773829146652,48.49389102914045],[-123.17780440379413,48.48493775393199],[-123.18608176741301,48.47423293836498],[-123.2042886481414,48.47248127211078]]],"type":"Polygon"},"id":"water:8728d1a90ffffff","properties":{"source_h3":"8728d1a90ffffff","source_type":"water"},"type":"Feature"},{"geometry":{"coordinates":[[[-123.17780440379413,48.48493775393199],[-123.18773829146652,48.49389102914045],[-123.17945923908478,48.50459324933408],[-123.1612419277625,48.506342066469834],[-123.15130782810095,48.4973878386216],[-123.15959125052461,48.48668574642855],[-123.17780440379413,48.48493775393199]]],"type":"Polygon"},"id":"water:8728d1a92ffffff","properties":{"source_h3":"8728d1a92ffffff","source_type":"water"},"type":"Feature"},{"geometry":{"coordinates":[[[-123.20594932686892,48.49213853635948],[-123.21588546520285,48.501087438036286],[-123.20761078690172,48.511789784599394],[-123.18939559496114,48.513543103267686],[-123.17945923908478,48.50459324933408],[-123.18773829146652,48.49389102914045],[-123.20594932686892,48.49213853635948]]],"type":"Polygon"},"id":"water:8728d1a93ffffff","properties":{"source_h3":"8728d1a93ffffff","source_type":"water"},"type":"Feature"},{"geometry":{"coordinates":[[[-123.20262875017094,48.452817993769614],[-123.2125599541611,48.461773737328414],[-123.2042886481414,48.47248127211078],[-123.18608176741301,48.47423293836498],[-123.17615034673864,48.46527624251935],[-123.18442602225358,48.45456883285746],[-123.20262875017094,48.452817993769614]]],"type":"Polygon"},"id":"water:8728d1a94ffffff","properties":{"source_h3":"8728d1a94ffffff","source_type":"water"},"type":"Feature"},{"geometry":{"coordinates":[[[-123.17615034673864,48.46527624251935],[-123.18608176741301,48.47423293836498],[-123.17780440379413,48.48493775393199],[-123.15959125052461,48.48668574642855],[-123.14965961828665,48.47772809792919],[-123.15794134965638,48.46702340973799],[-123.17615034673864,48.46527624251935]]],"type":"Polygon"},"id":"water:8728d1a96ffffff","properties":{"source_h3":"8728d1a96ffffff","source_type":"water"},"type":"Feature"}],"type":"FeatureCollection"}
