{"features":[{"geometry":{"coordinates":[-122.90424018040962,48.50552222280246],"type":"Point"},"id":"land:8728d1000ffffff:1","properties":{"sample_index":1,"source_h3":"8728d1000ffffff","source_type":"land"},"type":"Feature"},{"geometry":{"coordinates":[-122.91320912653912,48.50900859534845],"type":"Point"},"id":"land:8728d1001ffffff:1","properties":{"sample_index":1,"source_h3":"8728d1001ffffff","source_type":"land"},"type":"Feature"},{"geometry":{"coordinates":[-122.90499227543113,48.52530481930715],"type":"Point"},"id":"land:8728d1003ffffff:1","properties":{"sample_index":1,"source_h3":"8728d1003ffffff","source_type":"land"},"type":"Feature"},{"geometry":{"coordinates":[-122.90344397971039,48.485847750651],"type":"Point"},"id":"land:8728d1004ffffff:1","properties":{"sample_index":1,"source_h3":"8728d1004ffffff","source_type":"land"},"type":"Feature"},{"geometry":{"coordinates":[-122.92056037198276,48.49001493454051],"type":"Point"},"id":"land:8728d1005ffffff:1","properties":{"sample_index":1,"source_h3":"8728d1005ffffff","source_type":"land"},"type":"Feature"},{"geometry":{"coordinates":[-122.92900236530399,48.479442351831246],"type":"Point"},"id":"land:8728d1005ffffff:2","properties":{"sample_index":2,"source_h3":"8728d1005ffffff","source_type":"land"},"type":"Feature"},{"geometry":{"coordinates":[-122.93774253025906,48.48917364037012],"type":"Point"},"id":"land:8728d1005ffffff:3","properties":{"sample_index":3,"source_h3":"8728d1005ffffff","source_type":"land"},"type":"Feature"},{"geometry":{"coordinates":[-122.95789051432848,48.55555071260061],"type":"Point"},"id":"land:8728d100bffffff:1","properties":{"sample_index":1,"source_h3":"8728d100bffffff","source_type":"land"},"type":"Feature"},{"geometry":{"coordinates":[-122.94555604578004,48.56585562371379],"type":"Point"},"id":"land:8728d100bffffff:2","properties":{"sample_index":2,"source_h3":"8728d100bffffff","source_type":"land"},"type":"Feature"},{"geometry":{"coordinates":[-122.98879210230696,48.52354589131583],"type":"Point"},"id":"land:8728d100dffffff:1","properties":{"sample_index":1,"source_h3":"8728d100dffffff","source_type":"land"},"type":"Feature"},{"geometry":{"coordinates":[-122.91250373730345,48.52720607600496],"type":"Point"},"id":"land:8728d100effffff:1","properties":{"sample_index":1,"source_h3":"8728d100effffff","source_type":"land"},"type":"Feature"},{"geometry":{"coordinates":[-122.90123304926038,48.552667188088236],"type":"Point"},"id":"land:8728d1019ffffff:1","properties":{"sample_index":1,"source_h3":"8728d1019ffffff","source_type":"land"},"type":"Feature"},{"geometry":{"coordinates":[-122.90672054631507,48.539978951902576],"type":"Point"},"id":"land:8728d101dffffff:1","properties":{"sample_index":1,"source_h3":"8728d101dffffff","source_type":"land"},"type":"Feature"},{"geometry":{"coordinates":[-122.9361002157461,48.46392425440487],"type":"Point"},"id":"land:8728d1021ffffff:1","properties":{"sample_index":1,"source_h3":"8728d1021ffffff","source_type":"land"},"type":"Feature"},{"geometry":{"coordinates":[-122.9026481536035,48.4661672718472],"type":"Point"},"id":"land:8728d1022ffffff:1","properties":{"sample_index":1,"source_h3":"8728d1022ffffff","source_type":"land"},"type":"Feature"},{"geometry":{"coordinates":[-122.91937558279714,48.46980921911556],"type":"Point"},"id":"land:8728d1023ffffff:1","properties":{"sample_index":1,"source_h3":"8728d1023ffffff","source_type":"land"},"type":"Feature"},{"geometry":{"coordinates":[-122.90223661166193,48.47241468037953],"type":"Point"},"id":"land:8728d1023ffffff:2","properties":{"sample_index":2,"source_h3":"8728d1023ffffff","source_type":"land"},"type":"Feature"},{"geometry":{"coordinates":[-122.93651276983839,48.46746505290856],"type":"Point"},"id":"land:8728d1023ffffff:3","properties":{"sample_index":3,"source_h3":"8728d1023ffffff","source_type":"land"},"type":"Feature"},{"geometry":{"coordinates":[-123.01312050588272,48.485695073053975],"type":"Point"},"id":"land:8728d1029ffffff:1","properties":{"sample_index":1,"source_h3":"8728d1029ffffff","source_type":"land"},"type":"Feature"},{"geometry":{"coordinates":[-122.98692241678378,48.46327927504861],"type":"Point"},"id":"land:8728d102cffffff:1","properties":{"sample_index":1,"source_h3":"8728d102cffffff","source_type":"land"},"type":"Feature"},{"geometry":{"coordinates":[-123.00838975160126,48.47140327532289],"type":"Point"},"id":"land:8728d102dffffff:1","properties":{"sample_index":1,"source_h3":"8728d102dffffff","source_type":"land"},"type":"Feature"},{"geometry":{"coordinates":[-122.9903217217957,48.46553083213294],"type":"Point"},"id":"land:8728d102dffffff:2","properties":{"sample_index":2,"source_h3":"8728d102dffffff","source_type":"land"},"type":"Feature"},{"geometry":{"coordinates":[-122.9362640252093,48.47728517140295],"type":"Point"},"id":"land:8728d102effffff:1","properties":{"sample_index":1,"source_h3":"8728d102effffff","source_type":"land"},"type":"Feature"},{"geometry":{"coordinates":[-123.09161421557278,48.55261127757359],"type":"Point"},"id":"land:8728d1040ffffff:1","properties":{"sample_index":1,"source_h3":"8728d1040ffffff","source_type":"land"},"type":"Feature"},{"geometry":{"coordinates":[-123.10874527822287,48.55032924956954],"type":"Point"},"id":"land:8728d1040ffffff:2","properties":{"sample_index":2,"source_h3":"8728d1040ffffff","source_type":"land"},"type":"Feature"},{"geometry":{"coordinates":[-123.07448190672723,48.554889439534676],"type":"Point"},"id":"land:8728d1040ffffff:3","properties":{"sample_index":3,"source_h3":"8728d1040ffffff","source_type":"land"},"type":"Feature"},{"geometry":{"coordinates":[-123.11978957989719,48.55982185230907],"type":"Point"},"id":"land:8728d1041ffffff:1","properties":{"sample_index":1,"source_h3":"8728d1041ffffff","source_type":"land"},"type":"Feature"},{"geometry":{"coordinates":[-123.13691831061328,48.55753603678613],"type":"Point"},"id":"land:8728d1041ffffff:2","properties":{"sample_index":2,"source_h3":"8728d1041ffffff","source_type":"land"},"type":"Feature"},{"geometry":{"coordinates":[-123.10265959853582,48.56210380268078],"type":"Point"},"id":"land:8728d1041ffffff:3","properties":{"sample_index":3,"source_h3":"8728d1041ffffff","source_type":"land"},"type":"Feature"},{"geometry":{"coordinates":[-123.06506872707848,48.56503759484389],"type":"Point"},"id":"land:8728d1042ffffff:1","properties":{"sample_index":1,"source_h3":"8728d1042ffffff","source_type":"land"},"type":"Feature"},{"geometry":{"coordinates":[-123.04793052711072,48.56765914086678],"type":"Point"},"id":"land:8728d1042ffffff:2","properties":{"sample_index":2,"source_h3":"8728d1042ffffff","source_type":"land"},"type":"Feature"},{"geometry":{"coordinates":[-123.08220571197924,48.56257397287911],"type":"Point"},"id":"land:8728d1042ffffff:3","properties":{"sample_index":3,"source_h3":"8728d1042ffffff","source_type":"land"},"type":"Feature"},{"geometry":{"coordinates":[-123.09325055408245,48.572252816670506],"type":"Point"},"id":"land:8728d1043ffffff:1","properties":{"sample_index":1,"source_h3":"8728d1043ffffff","source_type":"land"},"type":"Feature"},{"geometry":{"coordinates":[-123.11038551487755,48.569971119891285],"type":"Point"},"id":"land:8728d1043ffffff:2","properties":{"sample_index":2,"source_h3":"8728d1043ffffff","source_type":"land"},"type":"Feature"},{"geometry":{"coordinates":[-123.07611434632173,48.574530645602174],"type":"Point"},"id":"land:8728d1043ffffff:3","properties":{"sample_index":3,"source_h3":"8728d1043ffffff","source_type":"land"},"type":"Feature"},{"geometry":{"coordinates":[-123.08997864757924,48.532963713561806],"type":"Point"},"id":"land:8728d1044ffffff:1","properties":{"sample_index":1,"source_h3":"8728d1044ffffff","source_type":"land"},"type":"Feature"},{"geometry":{"coordinates":[-123.1071058138796,48.53068135444211],"type":"Point"},"id":"land:8728d1044ffffff:2","properties":{"sample_index":2,"source_h3":"8728d1044ffffff","source_type":"land"},"type":"Feature"},{"geometry":{"coordinates":[-123.0728502358531,48.53524220844551],"type":"Point"},"id":"land:8728d1044ffffff:3","properties":{"sample_index":3,"source_h3":"8728d1044ffffff","source_type":"land"},"type":"Feature"},{"geometry":{"coordinates":[-123.11814737346313,48.54017852920164],"type":"Point"},"id":"land:8728d1045ffffff:1","properties":{"sample_index":1,"source_h3":"8728d1045ffffff","source_type":"land"},"type":"Feature"},{"geometry":{"coordinates":[-123.13527220895546,48.53789238408823],"type":"Point"},"id":"land:8728d1045ffffff:2","properties":{"sample_index":2,"source_h3":"8728d1045ffffff","source_type":"land"},"type":"Feature"},{"geometry":{"coordinates":[-123.1010212880997,48.5424608109693],"type":"Point"},"id":"land:8728d1045ffffff:3","properties":{"sample_index":3,"source_h3":"8728d1045ffffff","source_type":"land"},"type":"Feature"},{"geometry":{"coordinates":[-123.06343903079997,48.54539181672431],"type":"Point"},"id":"land:8728d1046ffffff:1","properties":{"sample_index":1,"source_h3":"8728d1046ffffff","source_type":"land"},"type":"Feature"},{"geometry":{"coordinates":[-123.08057241738653,48.543113577488995],"type":"Point"},"id":"land:8728d1046ffffff:2","properties":{"sample_index":2,"source_h3":"8728d1046ffffff","source_type":"land"},"type":"Feature"},{"geometry":{"coordinates":[-123.04630440246957,48.54766618902803],"type":"Point"},"id":"land:8728d1046ffffff:3","properties":{"sample_index":3,"source_h3":"8728d1046ffffff","source_type":"land"},"type":"Feature"},{"geometry":{"coordinates":[-123.14961473098901,48.58665659749968],"type":"Point"},"id":"land:8728d1048ffffff:1","properties":{"sample_index":1,"source_h3":"8728d1048ffffff","source_type":"land"},"type":"Feature"},{"geometry":{"coordinates":[-123.16674501766308,48.5843673238907],"type":"Point"},"id":"land:8728d1048ffffff:2","properties":{"sample_index":2,"source_h3":"8728d1048ffffff","source_type":"land"},"type":"Feature"},{"geometry":{"coordinates":[-123.13248318844265,48.5889420050508],"type":"Point"},"id":"land:8728d1048ffffff:3","properties":{"sample_index":3,"source_h3":"8728d1048ffffff","source_type":"land"},"type":"Feature"},{"geometry":{"coordinates":[-123.16991384118268,48.590242774192355],"type":"Point"},"id":"land:8728d1049ffffff:1","properties":{"sample_index":1,"source_h3":"8728d1049ffffff","source_type":"land"},"type":"Feature"},{"geometry":{"coordinates":[-123.1230763141084,48.59909042191483],"type":"Point"},"id":"land:8728d104affffff:1","properties":{"sample_index":1,"source_h3":"8728d104affffff","source_type":"land"},"type":"Feature"},{"geometry":{"coordinates":[-123.14021284065686,48.59680526590148],"type":"Point"},"id":"land:8728d104affffff:2","properties":{"sample_index":2,"source_h3":"8728d104affffff","source_type":"land"},"type":"Feature"},{"geometry":{"coordinates":[-123.1059385353648,48.601371709173236],"type":"Point"},"id":"land:8728d104affffff:3","properties":{"sample_index":3,"source_h3":"8728d104affffff","source_type":"land"},"type":"Feature"},{"geometry":{"coordinates":[-123.15161550902266,48.60583215401471],"type":"Point"},"id":"land:8728d104bffffff:1","properties":{"sample_index":1,"source_h3":"8728d104bffffff","source_type":"land"},"type":"Feature"},{"geometry":{"coordinates":[-123.14299927908196,48.616322042873186],"type":"Point"},"id":"land:8728d104bffffff:2","properties":{"sample_index":2,"source_h3":"8728d104bffffff","source_type":"land"},"type":"Feature"},{"geometry":{"coordinates":[-123.13412454788087,48.6066277053575],"type":"Point"},"id":"land:8728d104bffffff:3","properties":{"sample_index":3,"source_h3":"8728d104bffffff","source_type":"land"},"type":"Feature"},{"geometry":{"coordinates":[-123.14796511014802,48.56702354206505],"type":"Point"},"id":"land:8728d104cffffff:1","properties":{"sample_index":1,"source_h3":"8728d104cffffff","source_type":"land"},"type":"Feature"},{"geometry":{"coordinates":[-123.16509150093589,48.56473394027876],"type":"Point"},"id":"land:8728d104cffffff:2","properties":{"sample_index":2,"source_h3":"8728d104cffffff","source_type":"land"},"type":"Feature"},{"geometry":{"coordinates":[-123.13083746426702,48.569309279595025],"type":"Point"},"id":"land:8728d104cffffff:3","properties":{"sample_index":3,"source_h3":"8728d104cffffff","source_type":"land"},"type":"Feature"},{"geometry":{"coordinates":[-123.16643705676141,48.57469869430611],"type":"Point"},"id":"land:8728d104dffffff:1","properties":{"sample_index":1,"source_h3":"8728d104dffffff","source_type":"land"},"type":"Feature"},{"geometry":{"coordinates":[-123.12143255993091,48.57945915050958],"type":"Point"},"id":"land:8728d104effffff:1","properties":{"sample_index":1,"source_h3":"8728d104effffff","source_type":"land"},"type":"Feature"},{"geometry":{"coordinates":[-123.13856518766532,48.57717366468687],"type":"Point"},"id":"land:8728d104effffff:2","properties":{"sample_index":2,"source_h3":"8728d104effffff","source_type":"land"},"type":"Feature"},{"geometry":{"coordinates":[-123.10429868077661,48.581740769377994],"type":"Point"},"id":"land:8728d104effffff:3","properties":{"sample_index":3,"source_h3":"8728d104effffff","source_type":"land"},"type":"Feature"},{"geometry":{"coordinates":[-122.98374620964233,48.58263747565347],"type":"Point"},"id":"land:8728d1052ffffff:1","properties":{"sample_index":1,"source_h3":"8728d1052ffffff","source_type":"land"},"type":"Feature"},{"geometry":{"coordinates":[-122.96659298400544,48.58493706439547],"type":"Point"},"id":"land:8728d1052ffffff:2","properties":{"sample_index":2,"source_h3":"8728d1052ffffff","source_type":"land"},"type":"Feature"},{"geometry":{"coordinates":[-123.00089828759687,48.58042948501479],"type":"Point"},"id":"land:8728d1052ffffff:3","properties":{"sample_index":3,"source_h3":"8728d1052ffffff","source_type":"land"},"type":"Feature"},{"geometry":{"coordinates":[-123.00723764789446,48.58429673161377],"type":"Point"},"id":"land:8728d1053ffffff:1","properties":{"sample_index":1,"source_h3":"8728d1053ffffff","source_type":"land"},"type":"Feature"},{"geometry":{"coordinates":[-123.01581932695035,48.544911836396025],"type":"Point"},"id":"land:8728d1054ffffff:1","properties":{"sample_index":1,"source_h3":"8728d1054ffffff","source_type":"land"},"type":"Feature"},{"geometry":{"coordinates":[-123.03763202233793,48.556855327431734],"type":"Point"},"id":"land:8728d1055ffffff:1","properties":{"sample_index":1,"source_h3":"8728d1055ffffff","source_type":"land"},"type":"Feature"},{"geometry":{"coordinates":[-123.04559645017652,48.566817045788476],"type":"Point"},"id":"land:8728d1055ffffff:2","properties":{"sample_index":2,"source_h3":"8728d1055ffffff","source_type":"land"},"type":"Feature"},{"geometry":{"coordinates":[-123.02119169436672,48.558823781539],"type":"Point"},"id":"land:8728d1055ffffff:3","properties":{"sample_index":3,"source_h3":"8728d1055ffffff","source_type":"land"},"type":"Feature"},{"geometry":{"coordinates":[-122.97420920068603,48.563375472599716],"type":"Point"},"id":"land:8728d1056ffffff:1","properties":{"sample_index":1,"source_h3":"8728d1056ffffff","source_type":"land"},"type":"Feature"},{"geometry":{"coordinates":[-122.99023450762688,48.57184093528833],"type":"Point"},"id":"land:8728d1056ffffff:2","properties":{"sample_index":2,"source_h3":"8728d1056ffffff","source_type":"land"},"type":"Feature"},{"geometry":{"coordinates":[-123.10463590095897,48.60535781798483],"type":"Point"},"id":"land:8728d1059ffffff:1","properties":{"sample_index":1,"source_h3":"8728d1059ffffff","source_type":"land"},"type":"Feature"},{"geometry":{"coordinates":[-123.07446732419476,48.579095795246786],"type":"Point"},"id":"land:8728d105cffffff:1","properties":{"sample_index":1,"source_h3":"8728d105cffffff","source_type":"land"},"type":"Feature"},{"geometry":{"coordinates":[-123.09967760855717,48.59387811065066],"type":"Point"},"id":"land:8728d105dffffff:1","properties":{"sample_index":1,"source_h3":"8728d105dffffff","source_type":"land"},"type":"Feature"},{"geometry":{"coordinates":[-123.08511261987636,48.583070633904896],"type":"Point"},"id":"land:8728d105dffffff:2","properties":{"sample_index":2,"source_h3":"8728d105dffffff","source_type":"land"},"type":"Feature"},{"geometry":{"coordinates":[-123.11486527922037,48.50087381585352],"type":"Point"},"id":"land:8728d1060ffffff:1","properties":{"sample_index":1,"source_h3":"8728d1060ffffff","source_type":"land"},"type":"Feature"},{"geometry":{"coordinates":[-123.13198232964363,48.49858701189088],"type":"Point"},"id":"land:8728d1060ffffff:2","properties":{"sample_index":2,"source_h3":"8728d1060ffffff","source_type":"land"},"type":"Feature"},{"geometry":{"coordinates":[-123.09774698047276,48.50315676008865],"type":"Point"},"id":"land:8728d1060ffffff:3","properties":{"sample_index":3,"source_h3":"8728d1060ffffff","source_type":"land"},"type":"Feature"},{"geometry":{"coordinates":[-123.13853099685176,48.50771519856551],"type":"Point"},"id":"land:8728d1061ffffff:1","properties":{"sample_index":1,"source_h3":"8728d1061ffffff","source_type":"land"},"type":"Feature"},{"geometry":{"coordinates":[-123.153149367909,48.516281288714154],"type":"Point"},"id":"land:8728d1061ffffff:2","properties":{"sample_index":2,"source_h3":"8728d1061ffffff","source_type":"land"},"type":"Feature"},{"geometry":{"coordinates":[-123.08834384956047,48.513310126533504],"type":"Point"},"id":"land:8728d1062ffffff:1","properties":{"sample_index":1,"source_h3":"8728d1062ffffff","source_type":"land"},"type":"Feature"},{"geometry":{"coordinates":[-123.10546712130503,48.511027436407986],"type":"Point"},"id":"land:8728d1062ffffff:2","properties":{"sample_index":2,"source_h3":"8728d1062ffffff","source_type":"land"},"type":"Feature"},{"geometry":{"coordinates":[-123.07121933315925,48.51558895423251],"type":"Point"},"id":"land:8728d1062ffffff:3","properties":{"sample_index":3,"source_h3":"8728d1062ffffff","source_type":"land"},"type":"Feature"},{"geometry":{"coordinates":[-123.11650594008519,48.520529183082445],"type":"Point"},"id":"land:8728d1063ffffff:1","properties":{"sample_index":1,"source_h3":"8728d1063ffffff","source_type":"land"},"type":"Feature"},{"geometry":{"coordinates":[-123.133626882147,48.518242708488955],"type":"Point"},"id":"land:8728d1063ffffff:2","properties":{"sample_index":2,"source_h3":"8728d1063ffffff","source_type":"land"},"type":"Feature"},{"geometry":{"coordinates":[-123.09938374892596,48.52281179613814],"type":"Point"},"id":"land:8728d1063ffffff:3","properties":{"sample_index":3,"source_h3":"8728d1063ffffff","source_type":"land"},"type":"Feature"},{"geometry":{"coordinates":[-123.10954099382208,48.48600177741473],"type":"Point"},"id":"land:8728d1064ffffff:1","properties":{"sample_index":1,"source_h3":"8728d1064ffffff","source_type":"land"},"type":"Feature"},{"geometry":{"coordinates":[-123.13057633063967,48.4930056476118],"type":"Point"},"id":"land:8728d1065ffffff:1","properties":{"sample_index":1,"source_h3":"8728d1065ffffff","source_type":"land"},"type":"Feature"},{"geometry":{"coordinates":[-123.0867098209755,48.4936505183939],"type":"Point"},"id":"land:8728d1066ffffff:1","properties":{"sample_index":1,"source_h3":"8728d1066ffffff","source_type":"land"},"type":"Feature"},{"geometry":{"coordinates":[-123.10382919995698,48.49136749737294],"type":"Point"},"id":"land:8728d1066ffffff:2","properties":{"sample_index":2,"source_h3":"8728d1066ffffff","source_type":"land"},"type":"Feature"},{"geometry":{"coordinates":[-123.06958919810594,48.49592967880018],"type":"Point"},"id":"land:8728d1066ffffff:3","properties":{"sample_index":3,"source_h3":"8728d1066ffffff","source_type":"land"},"type":"Feature"},{"geometry":{"coordinates":[-123.16180720041616,48.540105325709845],"type":"Point"},"id":"land:8728d1068ffffff:1","properties":{"sample_index":1,"source_h3":"8728d1068ffffff","source_type":"land"},"type":"Feature"},{"geometry":{"coordinates":[-123.14631626598914,48.547384461734055],"type":"Point"},"id":"land:8728d106affffff:1","properties":{"sample_index":1,"source_h3":"8728d106affffff","source_type":"land"},"type":"Feature"},{"geometry":{"coordinates":[-123.16343876268462,48.545094531880785],"type":"Point"},"id":"land:8728d106affffff:2","properties":{"sample_index":2,"source_h3":"8728d106affffff","source_type":"land"},"type":"Feature"},{"geometry":{"coordinates":[-123.1291925149792,48.54967052913502],"type":"Point"},"id":"land:8728d106affffff:3","properties":{"sample_index":3,"source_h3":"8728d106affffff","source_type":"land"},"type":"Feature"},{"geometry":{"coordinates":[-123.16440510870225,48.550978227090404],"type":"Point"},"id":"land:8728d106bffffff:1","properties":{"sample_index":1,"source_h3":"8728d106bffffff","source_type":"land"},"type":"Feature"},{"geometry":{"coordinates":[-123.14452281550284,48.52509410903628],"type":"Point"},"id":"land:8728d106effffff:1","properties":{"sample_index":1,"source_h3":"8728d106effffff","source_type":"land"},"type":"Feature"},{"geometry":{"coordinates":[-123.13580973105036,48.53778823580993],"type":"Point"},"id":"land:8728d106effffff:2","properties":{"sample_index":2,"source_h3":"8728d106effffff","source_type":"land"},"type":"Feature"},{"geometry":{"coordinates":[-123.15449774358505,48.53582169284385],"type":"Point"},"id":"land:8728d106effffff:3","properties":{"sample_index":3,"source_h3":"8728d106effffff","source_type":"land"},"type":"Feature"},{"geometry":{"coordinates":[-123.03364175019959,48.518507428451215],"type":"Point"},"id":"land:8728d1070ffffff:1","properties":{"sample_index":1,"source_h3":"8728d1070ffffff","source_type":"land"},"type":"Feature"},{"geometry":{"coordinates":[-123.05077355413634,48.516232645057755],"type":"Point"},"id":"land:8728d1070ffffff:2","properties":{"sample_index":2,"source_h3":"8728d1070ffffff","source_type":"land"},"type":"Feature"},{"geometry":{"coordinates":[-123.01650870973323,48.520778345837606],"type":"Point"},"id":"land:8728d1070ffffff:3","properties":{"sample_index":3,"source_h3":"8728d1070ffffff","source_type":"land"},"type":"Feature"},{"geometry":{"coordinates":[-123.06181010195304,48.525740013684526],"type":"Point"},"id":"land:8728d1071ffffff:1","properties":{"sample_index":1,"source_h3":"8728d1071ffffff","source_type":"land"},"type":"Feature"},{"geometry":{"coordinates":[-123.0789395910693,48.52346144180668],"type":"Point"},"id":"land:8728d1071ffffff:2","properties":{"sample_index":2,"source_h3":"8728d1071ffffff","source_type":"land"},"type":"Feature"},{"geometry":{"coordinates":[-123.0446793718582,48.52801472043923],"type":"Point"},"id":"land:8728d1071ffffff:3","properties":{"sample_index":3,"source_h3":"8728d1071ffffff","source_type":"land"},"type":"Feature"},{"geometry":{"coordinates":[-123.0070892544073,48.53092623220481],"type":"Point"},"id":"land:8728d1072ffffff:1","properties":{"sample_index":1,"source_h3":"8728d1072ffffff","source_type":"land"},"type":"Feature"},{"geometry":{"coordinates":[-123.02422714325941,48.52840064823492],"type":"Point"},"id":"land:8728d1072ffffff:2","properties":{"sample_index":2,"source_h3":"8728d1072ffffff","source_type":"land"},"type":"Feature"},{"geometry":{"coordinates":[-122.989949964392,48.53342912321389],"type":"Point"},"id":"land:8728d1072ffffff:3","properties":{"sample_index":3,"source_h3":"8728d1072ffffff","source_type":"land"},"type":"Feature"},{"geometry":{"coordinates":[-123.03526403920344,48.53816346863845],"type":"Point"},"id":"land:8728d1073ffffff:1","properties":{"sample_index":1,"source_h3":"8728d1073ffffff","source_type":"land"},"type":"Feature"},{"geometry":{"coordinates":[-123.05239974172574,48.53588901941608],"type":"Point"},"id":"land:8728d1073ffffff:2","properties":{"sample_index":2,"source_h3":"8728d1073ffffff","source_type":"land"},"type":"Feature"},{"geometry":{"coordinates":[-123.01812709939087,48.54043405004374],"type":"Point"},"id":"land:8728d1073ffffff:3","properties":{"sample_index":3,"source_h3":"8728d1073ffffff","source_type":"land"},"type":"Feature"},{"geometry":{"coordinates":[-123.0340977080204,48.49822703546632],"type":"Point"},"id":"land:8728d1074ffffff:1","properties":{"sample_index":1,"source_h3":"8728d1074ffffff","source_type":"land"},"type":"Feature"},{"geometry":{"coordinates":[-123.02392846928491,48.50889252904468],"type":"Point"},"id":"land:8728d1074ffffff:2","properties":{"sample_index":2,"source_h3":"8728d1074ffffff","source_type":"land"},"type":"Feature"},{"geometry":{"coordinates":[-123.01784616005038,48.495931236201535],"type":"Point"},"id":"land:8728d1074ffffff:3","properties":{"sample_index":3,"source_h3":"8728d1074ffffff","source_type":"land"},"type":"Feature"},{"geometry":{"coordinates":[-123.06018193999847,48.50608218762606],"type":"Point"},"id":"land:8728d1075ffffff:1","properties":{"sample_index":1,"source_h3":"8728d1075ffffff","source_type":"land"},"type":"Feature"},{"geometry":{"coordinates":[-123.07730753343904,48.503803283214964],"type":"Point"},"id":"land:8728d1075ffffff:2","properties":{"sample_index":2,"source_h3":"8728d1075ffffff","source_type":"land"},"type":"Feature"},{"geometry":{"coordinates":[-123.04305510634389,48.50835722872505],"type":"Point"},"id":"land:8728d1075ffffff:3","properties":{"sample_index":3,"source_h3":"8728d1075ffffff","source_type":"land"},"type":"Feature"},{"geometry":{"coordinates":[-123.0079190478801,48.512600102940944],"type":"Point"},"id":"land:8728d1076ffffff:1","properties":{"sample_index":1,"source_h3":"8728d1076ffffff","source_type":"land"},"type":"Feature"},{"geometry":{"coordinates":[-122.99113291202686,48.516259711664674],"type":"Point"},"id":"land:8728d1076ffffff:2","properties":{"sample_index":2,"source_h3":"8728d1076ffffff","source_type":"land"},"type":"Feature"},{"geometry":{"coordinates":[-122.90978831801831,48.63391547751868],"type":"Point"},"id":"land:8728d10c0ffffff:1","properties":{"sample_index":1,"source_h3":"8728d10c0ffffff","source_type":"land"},"type":"Feature"},{"geometry":{"coordinates":[-122.93410097537627,48.63887310420451],"type":"Point"},"id":"land:8728d10c1ffffff:1","properties":{"sample_index":1,"source_h3":"8728d10c1ffffff","source_type":"land"},"type":"Feature"},{"geometry":{"coordinates":[-122.90902527301984,48.623442810122604],"type":"Point"},"id":"land:8728d10c4ffffff:1","properties":{"sample_index":1,"source_h3":"8728d10c4ffffff","source_type":"land"},"type":"Feature"},{"geometry":{"coordinates":[-122.90067348024948,48.610409413322984],"type":"Point"},"id":"land:8728d10c4ffffff:2","properties":{"sample_index":2,"source_h3":"8728d10c4ffffff","source_type":"land"},"type":"Feature"},{"geometry":{"coordinates":[-122.93215642461108,48.62707241150404],"type":"Point"},"id":"land:8728d10c5ffffff:1","properties":{"sample_index":1,"source_h3":"8728d10c5ffffff","source_type":"land"},"type":"Feature"},{"geometry":{"coordinates":[-122.94932476659218,48.624815178675064],"type":"Point"},"id":"land:8728d10c5ffffff:2","properties":{"sample_index":2,"source_h3":"8728d10c5ffffff","source_type":"land"},"type":"Feature"},{"geometry":{"coordinates":[-122.91498685870583,48.629325762159965],"type":"Point"},"id":"land:8728d10c5ffffff:3","properties":{"sample_index":3,"source_h3":"8728d10c5ffffff","source_type":"land"},"type":"Feature"},{"geometry":{"coordinates":[-122.92583014300205,48.59485222947243],"type":"Point"},"id":"land:8728d10e0ffffff:1","properties":{"sample_index":1,"source_h3":"8728d10e0ffffff","source_type":"land"},"type":"Feature"},{"geometry":{"coordinates":[-122.9420257217284,48.58269568356309],"type":"Point"},"id":"land:8728d10e0ffffff:2","properties":{"sample_index":2,"source_h3":"8728d10e0ffffff","source_type":"land"},"type":"Feature"},{"geometry":{"coordinates":[-122.9616666193437,48.58873096224719],"type":"Point"},"id":"land:8728d10e1ffffff:1","properties":{"sample_index":1,"source_h3":"8728d10e1ffffff","source_type":"land"},"type":"Feature"},{"geometry":{"coordinates":[-122.90822681716159,48.603804417534725],"type":"Point"},"id":"land:8728d10e2ffffff:1","properties":{"sample_index":1,"source_h3":"8728d10e2ffffff","source_type":"land"},"type":"Feature"},{"geometry":{"coordinates":[-122.90062479901644,48.590758179290795],"type":"Point"},"id":"land:8728d10e2ffffff:2","properties":{"sample_index":2,"source_h3":"8728d10e2ffffff","source_type":"land"},"type":"Feature"},{"geometry":{"coordinates":[-122.92876020422878,48.60588002992549],"type":"Point"},"id":"land:8728d10e3ffffff:1","properties":{"sample_index":1,"source_h3":"8728d10e3ffffff","source_type":"land"},"type":"Feature"},{"geometry":{"coordinates":[-122.9397662921142,48.61619854636941],"type":"Point"},"id":"land:8728d10e3ffffff:2","properties":{"sample_index":2,"source_h3":"8728d10e3ffffff","source_type":"land"},"type":"Feature"},{"geometry":{"coordinates":[-122.92110845775738,48.61682863847504],"type":"Point"},"id":"land:8728d10e3ffffff:3","properties":{"sample_index":3,"source_h3":"8728d10e3ffffff","source_type":"land"},"type":"Feature"},{"geometry":{"coordinates":[-122.92838201008841,48.570880160335605],"type":"Point"},"id":"land:8728d10e4ffffff:1","properties":{"sample_index":1,"source_h3":"8728d10e4ffffff","source_type":"land"},"type":"Feature"},{"geometry":{"coordinates":[-122.9446392530078,48.56563532217675],"type":"Point"},"id":"land:8728d10e4ffffff:2","properties":{"sample_index":2,"source_h3":"8728d10e4ffffff","source_type":"land"},"type":"Feature"},{"geometry":{"coordinates":[-122.95575451396424,48.575135310898936],"type":"Point"},"id":"land:8728d10e5ffffff:1","properties":{"sample_index":1,"source_h3":"8728d10e5ffffff","source_type":"land"},"type":"Feature"},{"geometry":{"coordinates":[-122.9475361504859,48.585429527124084],"type":"Point"},"id":"land:8728d10e5ffffff:2","properties":{"sample_index":2,"source_h3":"8728d10e5ffffff","source_type":"land"},"type":"Feature"},{"geometry":{"coordinates":[-122.97271856550208,48.57313310176992],"type":"Point"},"id":"land:8728d10e5ffffff:3","properties":{"sample_index":3,"source_h3":"8728d10e5ffffff","source_type":"land"},"type":"Feature"},{"geometry":{"coordinates":[-122.90267224961516,48.59000379911805],"type":"Point"},"id":"land:8728d10e6ffffff:1","properties":{"sample_index":1,"source_h3":"8728d10e6ffffff","source_type":"land"},"type":"Feature"},{"geometry":{"coordinates":[-122.99348147278018,48.625525428610814],"type":"Point"},"id":"land:8728d10e8ffffff:1","properties":{"sample_index":1,"source_h3":"8728d10e8ffffff","source_type":"land"},"type":"Feature"},{"geometry":{"coordinates":[-122.98911391236126,48.61186056423164],"type":"Point"},"id":"land:8728d10e8ffffff:2","properties":{"sample_index":2,"source_h3":"8728d10e8ffffff","source_type":"land"},"type":"Feature"},{"geometry":{"coordinates":[-123.01254243418114,48.6286992356107],"type":"Point"},"id":"land:8728d10e9ffffff:1","properties":{"sample_index":1,"source_h3":"8728d10e9ffffff","source_type":"land"},"type":"Feature"},{"geometry":{"coordinates":[-123.02473058009191,48.63788075738692],"type":"Point"},"id":"land:8728d10e9ffffff:2","properties":{"sample_index":2,"source_h3":"8728d10e9ffffff","source_type":"land"},"type":"Feature"},{"geometry":{"coordinates":[-123.02203039972154,48.61921566254323],"type":"Point"},"id":"land:8728d10e9ffffff:3","properties":{"sample_index":3,"source_h3":"8728d10e9ffffff","source_type":"land"},"type":"Feature"},{"geometry":{"coordinates":[-122.95407561284296,48.629970324283626],"type":"Point"},"id":"land:8728d10eaffffff:1","properties":{"sample_index":1,"source_h3":"8728d10eaffffff","source_type":"land"},"type":"Feature"},{"geometry":{"coordinates":[-122.97423898086726,48.63819619094695],"type":"Point"},"id":"land:8728d10eaffffff:2","properties":{"sample_index":2,"source_h3":"8728d10eaffffff","source_type":"land"},"type":"Feature"},{"geometry":{"coordinates":[-122.99254238221592,48.634995411878045],"type":"Point"},"id":"land:8728d10ebffffff:1","properties":{"sample_index":1,"source_h3":"8728d10ebffffff","source_type":"land"},"type":"Feature"},{"geometry":{"coordinates":[-122.99657007440132,48.60289867797506],"type":"Point"},"id":"land:8728d10ecffffff:1","properties":{"sample_index":1,"source_h3":"8728d10ecffffff","source_type":"land"},"type":"Feature"},{"geometry":{"coordinates":[-123.00500793157539,48.60832395866375],"type":"Point"},"id":"land:8728d10edffffff:1","properties":{"sample_index":1,"source_h3":"8728d10edffffff","source_type":"land"},"type":"Feature"},{"geometry":{"coordinates":[-122.94682337855437,48.619918777867056],"type":"Point"},"id":"land:8728d10eeffffff:1","properties":{"sample_index":1,"source_h3":"8728d10eeffffff","source_type":"land"},"type":"Feature"},{"geometry":{"coordinates":[-122.99640549761989,48.46208881700644],"type":"Point"},"id":"land:8728d1153ffffff:1","properties":{"sample_index":1,"source_h3":"8728d1153ffffff","source_type":"land"},"type":"Feature"},{"geometry":{"coordinates":[-123.04594742202896,48.470539870812104],"type":"Point"},"id":"land:8728d1158ffffff:1","properties":{"sample_index":1,"source_h3":"8728d1158ffffff","source_type":"land"},"type":"Feature"},{"geometry":{"coordinates":[-123.08470008668418,48.481500557137615],"type":"Point"},"id":"land:8728d1159ffffff:1","properties":{"sample_index":1,"source_h3":"8728d1159ffffff","source_type":"land"},"type":"Feature"},{"geometry":{"coordinates":[-123.03039946308157,48.47917728093396],"type":"Point"},"id":"land:8728d115affffff:1","properties":{"sample_index":1,"source_h3":"8728d115affffff","source_type":"land"},"type":"Feature"},{"geometry":{"coordinates":[-123.04752347523213,48.476901829525],"type":"Point"},"id":"land:8728d115affffff:2","properties":{"sample_index":2,"source_h3":"8728d115affffff","source_type":"land"},"type":"Feature"},{"geometry":{"coordinates":[-123.01327421592114,48.48144886996327],"type":"Point"},"id":"land:8728d115affffff:3","properties":{"sample_index":3,"source_h3":"8728d115affffff","source_type":"land"},"type":"Feature"},{"geometry":{"coordinates":[-123.05855454439731,48.486418340457426],"type":"Point"},"id":"land:8728d115bffffff:1","properties":{"sample_index":1,"source_h3":"8728d115bffffff","source_type":"land"},"type":"Feature"},{"geometry":{"coordinates":[-123.07567580333514,48.483842916795965],"type":"Point"},"id":"land:8728d115bffffff:2","properties":{"sample_index":2,"source_h3":"8728d115bffffff","source_type":"land"},"type":"Feature"},{"geometry":{"coordinates":[-123.04143178288678,48.48891161004498],"type":"Point"},"id":"land:8728d115bffffff:3","properties":{"sample_index":3,"source_h3":"8728d115bffffff","source_type":"land"},"type":"Feature"},{"geometry":{"coordinates":[-123.02823380129037,48.46602449592347],"type":"Point"},"id":"land:8728d115effffff:1","properties":{"sample_index":1,"source_h3":"8728d115effffff","source_type":"land"},"type":"Feature"},{"geometry":{"coordinates":[-123.12477259160178,48.637648146089056],"type":"Point"},"id":"land:8728d13a0ffffff:1","properties":{"sample_index":1,"source_h3":"8728d13a0ffffff","source_type":"land"},"type":"Feature"},{"geometry":{"coordinates":[-123.12884469523728,48.615070886402656],"type":"Point"},"id":"land:8728d13a4ffffff:1","properties":{"sample_index":1,"source_h3":"8728d13a4ffffff","source_type":"land"},"type":"Feature"},{"geometry":{"coordinates":[-123.01997642252945,48.63896157866135],"type":"Point"},"id":"land:8728d13b6ffffff:1","properties":{"sample_index":1,"source_h3":"8728d13b6ffffff","source_type":"land"},"type":"Feature"},{"geometry":{"coordinates":[-122.92784321691452,48.510515071882104],"type":"Point"},"id":"water:8728d1001ffffff:1","properties":{"sample_index":1,"source_h3":"8728d1001ffffff","source_type":"water"},"type":"Feature"},{"geometry":{"coordinates":[-122.91399591308472,48.51922595480032],"type":"Point"},"id":"water:8728d1001ffffff:2","properties":{"sample_index":2,"source_h3":"8728d1001ffffff","source_type":"water"},"type":"Feature"},{"geometry":{"coordinates":[-122.93158503309789,48.49987520928318],"type":"Point"},"id":"water:8728d1001ffffff:3","properties":{"sample_index":3,"source_h3":"8728d1001ffffff","source_type":"water"},"type":"Feature"},{"geometry":{"coordinates":[-122.95234348018505,48.536087805295715],"type":"Point"},"id":"water:8728d1008ffffff:1","properties":{"sample_index":1,"source_h3":"8728d1008ffffff","source_type":"water"},"type":"Feature"},{"geometry":{"coordinates":[-122.96948998617525,48.533825072393995],"type":"Point"},"id":"water:8728d1008ffffff:2","properties":{"sample_index":2,"source_h3":"8728d1008ffffff","source_type":"water"},"type":"Feature"},{"geometry":{"coordinates":[-122.93519574952855,48.538346665930746],"type":"Point"},"id":"water:8728d1008ffffff:3","properties":{"sample_index":3,"source_h3":"8728d1008ffffff","source_type":"water"},"type":"Feature"},{"geometry":{"coordinates":[-122.98052445547371,48.543338590226796],"type":"Point"},"id":"water:8728d1009ffffff:1","properties":{"sample_index":1,"source_h3":"8728d1009ffffff","source_type":"water"},"type":"Feature"},{"geometry":{"coordinates":[-122.9976686648818,48.54114976559444],"type":"Point"},"id":"water:8728d1009ffffff:2","properties":{"sample_index":2,"source_h3":"8728d1009ffffff","source_type":"water"},"type":"Feature"},{"geometry":{"coordinates":[-122.96337911855005,48.54545545591871],"type":"Point"},"id":"water:8728d1009ffffff:3","properties":{"sample_index":3,"source_h3":"8728d1009ffffff","source_type":"water"},"type":"Feature"},{"geometry":{"coordinates":[-122.92541060550772,48.54893704644889],"type":"Point"},"id":"water:8728d100affffff:1","properties":{"sample_index":1,"source_h3":"8728d100affffff","source_type":"water"},"type":"Feature"},{"geometry":{"coordinates":[-122.93407155846187,48.53845068118462],"type":"Point"},"id":"water:8728d100affffff:2","properties":{"sample_index":2,"source_h3":"8728d100affffff","source_type":"water"},"type":"Feature"},{"geometry":{"coordinates":[-122.94291049061128,48.54817420751867],"type":"Point"},"id":"water:8728d100affffff:3","properties":{"sample_index":3,"source_h3":"8728d100affffff","source_type":"water"},"type":"Feature"},{"geometry":{"coordinates":[-122.94156651627551,48.55428350680247],"type":"Point"},"id":"water:8728d100bffffff:1","properties":{"sample_index":1,"source_h3":"8728d100bffffff","source_type":"water"},"type":"Feature"},{"geometry":{"coordinates":[-122.96839112565517,48.550736270312825],"type":"Point"},"id":"water:8728d100bffffff:2","properties":{"sample_index":2,"source_h3":"8728d100bffffff","source_type":"water"},"type":"Feature"},{"geometry":{"coordinates":[-122.95307075396833,48.54608675607985],"type":"Point"},"id":"water:8728d100bffffff:3","properties":{"sample_index":3,"source_h3":"8728d100bffffff","source_type":"water"},"type":"Feature"},{"geometry":{"coordinates":[-122.9507403597096,48.51642508990712],"type":"Point"},"id":"water:8728d100cffffff:1","properties":{"sample_index":1,"source_h3":"8728d100cffffff","source_type":"water"},"type":"Feature"},{"geometry":{"coordinates":[-122.96788296200225,48.51416201813217],"type":"Point"},"id":"water:8728d100cffffff:2","properties":{"sample_index":2,"source_h3":"8728d100cffffff","source_type":"water"},"type":"Feature"},{"geometry":{"coordinates":[-122.93359653349829,48.518684291227515],"type":"Point"},"id":"water:8728d100cffffff:3","properties":{"sample_index":3,"source_h3":"8728d100cffffff","source_type":"water"},"type":"Feature"},{"geometry":{"coordinates":[-122.97481713944279,48.520360744249416],"type":"Point"},"id":"water:8728d100dffffff:1","properties":{"sample_index":1,"source_h3":"8728d100dffffff","source_type":"water"},"type":"Feature"},{"geometry":{"coordinates":[-122.98297209663353,48.533076402861916],"type":"Point"},"id":"water:8728d100dffffff:2","properties":{"sample_index":2,"source_h3":"8728d100dffffff","source_type":"water"},"type":"Feature"},{"geometry":{"coordinates":[-122.96601842040775,48.529832551127825],"type":"Point"},"id":"water:8728d100dffffff:3","properties":{"sample_index":3,"source_h3":"8728d100dffffff","source_type":"water"},"type":"Feature"},{"geometry":{"coordinates":[-122.92830412316786,48.530375628646105],"type":"Point"},"id":"water:8728d100effffff:1","properties":{"sample_index":1,"source_h3":"8728d100effffff","source_type":"water"},"type":"Feature"},{"geometry":{"coordinates":[-122.91492029233542,48.52007185729036],"type":"Point"},"id":"water:8728d100effffff:2","properties":{"sample_index":2,"source_h3":"8728d100effffff","source_type":"water"},"type":"Feature"},{"geometry":{"coordinates":[-122.93297198649583,48.51878761125106],"type":"Point"},"id":"water:8728d100effffff:3","properties":{"sample_index":3,"source_h3":"8728d100effffff","source_type":"water"},"type":"Feature"},{"geometry":{"coordinates":[-122.90295023381196,48.56142132222928],"type":"Point"},"id":"water:8728d1019ffffff:1","properties":{"sample_index":1,"source_h3":"8728d1019ffffff","source_type":"water"},"type":"Feature"},{"geometry":{"coordinates":[-122.88409886051443,48.565080128846496],"type":"Point"},"id":"water:8728d1019ffffff:2","properties":{"sample_index":2,"source_h3":"8728d1019ffffff","source_type":"water"},"type":"Feature"},{"geometry":{"coordinates":[-122.90807371618473,48.55084862979445],"type":"Point"},"id":"water:8728d1019ffffff:3","properties":{"sample_index":3,"source_h3":"8728d1019ffffff","source_type":"water"},"type":"Feature"},{"geometry":{"coordinates":[-122.91199138361308,48.543916758323704],"type":"Point"},"id":"water:8728d101dffffff:1","properties":{"sample_index":1,"source_h3":"8728d101dffffff","source_type":"water"},"type":"Feature"},{"geometry":{"coordinates":[-122.90810052403528,48.548924531135356],"type":"Point"},"id":"water:8728d101dffffff:2","properties":{"sample_index":2,"source_h3":"8728d101dffffff","source_type":"water"},"type":"Feature"},{"geometry":{"coordinates":[-122.9146398192751,48.53849668484534],"type":"Point"},"id":"water:8728d101dffffff:3","properties":{"sample_index":3,"source_h3":"8728d101dffffff","source_type":"water"},"type":"Feature"},{"geometry":{"coordinates":[-122.91852697040773,48.44477021746447],"type":"Point"},"id":"water:8728d1020ffffff:1","properties":{"sample_index":1,"source_h3":"8728d1020ffffff","source_type":"water"},"type":"Feature"},{"geometry":{"coordinates":[-122.93088982475075,48.45473670384626],"type":"Point"},"id":"water:8728d1020ffffff:2","properties":{"sample_index":2,"source_h3":"8728d1020ffffff","source_type":"water"},"type":"Feature"},{"geometry":{"coordinates":[-122.90324715909786,48.4484975779163],"type":"Point"},"id":"water:8728d1020ffffff:3","properties":{"sample_index":3,"source_h3":"8728d1020ffffff","source_type":"water"},"type":"Feature"},{"geometry":{"coordinates":[-122.94891020229,48.45700270263543],"type":"Point"},"id":"water:8728d1021ffffff:1","properties":{"sample_index":1,"source_h3":"8728d1021ffffff","source_type":"water"},"type":"Feature"},{"geometry":{"coordinates":[-122.93174454077936,48.45438164888385],"type":"Point"},"id":"water:8728d1021ffffff:2","properties":{"sample_index":2,"source_h3":"8728d1021ffffff","source_type":"water"},"type":"Feature"},{"geometry":{"coordinates":[-122.9408498705579,48.46720573375836],"type":"Point"},"id":"water:8728d1021ffffff:3","properties":{"sample_index":3,"source_h3":"8728d1021ffffff","source_type":"water"},"type":"Feature"},{"geometry":{"coordinates":[-122.97569743313973,48.48434506566759],"type":"Point"},"id":"water:8728d1028ffffff:1","properties":{"sample_index":1,"source_h3":"8728d1028ffffff","source_type":"water"},"type":"Feature"},{"geometry":{"coordinates":[-122.99282994371553,48.48207752582206],"type":"Point"},"id":"water:8728d1028ffffff:2","properties":{"sample_index":2,"source_h3":"8728d1028ffffff","source_type":"water"},"type":"Feature"},{"geometry":{"coordinates":[-122.958563695689,48.48660873956311],"type":"Point"},"id":"water:8728d1028ffffff:3","properties":{"sample_index":3,"source_h3":"8728d1028ffffff","source_type":"water"},"type":"Feature"},{"geometry":{"coordinates":[-123.00011359028693,48.48797370477517],"type":"Point"},"id":"water:8728d1029ffffff:1","properties":{"sample_index":1,"source_h3":"8728d1029ffffff","source_type":"water"},"type":"Feature"},{"geometry":{"coordinates":[-123.01305132886756,48.500405048763646],"type":"Point"},"id":"water:8728d1029ffffff:2","properties":{"sample_index":2,"source_h3":"8728d1029ffffff","source_type":"water"},"type":"Feature"},{"geometry":{"coordinates":[-122.99318745603566,48.49977587203232],"type":"Point"},"id":"water:8728d1029ffffff:3","properties":{"sample_index":3,"source_h3":"8728d1029ffffff","source_type":"water"},"type":"Feature"},{"geometry":{"coordinates":[-122.94966772559609,48.497146834798315],"type":"Point"},"id":"water:8728d102affffff:1","properties":{"sample_index":1,"source_h3":"8728d102affffff","source_type":"water"},"type":"Feature"},{"geometry":{"coordinates":[-122.95767431101169,48.48671049114912],"type":"Point"},"id":"water:8728d102affffff:2","properties":{"sample_index":2,"source_h3":"8728d102affffff","source_type":"water"},"type":"Feature"},{"geometry":{"coordinates":[-122.93283524147273,48.49966468258349],"type":"Point"},"id":"water:8728d102affffff:3","properties":{"sample_index":3,"source_h3":"8728d102affffff","source_type":"water"},"type":"Feature"},{"geometry":{"coordinates":[-122.97730568276806,48.50401559750025],"type":"Point"},"id":"water:8728d102bffffff:1","properties":{"sample_index":1,"source_h3":"8728d102bffffff","source_type":"water"},"type":"Feature"},{"geometry":{"coordinates":[-122.99444209234682,48.50174839478048],"type":"Point"},"id":"water:8728d102bffffff:2","properties":{"sample_index":2,"source_h3":"8728d102bffffff","source_type":"water"},"type":"Feature"},{"geometry":{"coordinates":[-122.96016804556324,48.50627893245455],"type":"Point"},"id":"water:8728d102bffffff:3","properties":{"sample_index":3,"source_h3":"8728d102bffffff","source_type":"water"},"type":"Feature"},{"geometry":{"coordinates":[-122.97135863619593,48.46499823474467],"type":"Point"},"id":"water:8728d102cffffff:1","properties":{"sample_index":1,"source_h3":"8728d102cffffff","source_type":"water"},"type":"Feature"},{"geometry":{"coordinates":[-122.98027192760134,48.45542105838099],"type":"Point"},"id":"water:8728d102cffffff:2","properties":{"sample_index":2,"source_h3":"8728d102cffffff","source_type":"water"},"type":"Feature"},{"geometry":{"coordinates":[-122.98833129942805,48.46796307741214],"type":"Point"},"id":"water:8728d102cffffff:3","properties":{"sample_index":3,"source_h3":"8728d102cffffff","source_type":"water"},"type":"Feature"},{"geometry":{"coordinates":[-122.99557963233359,48.477581666457645],"type":"Point"},"id":"water:8728d102dffffff:1","properties":{"sample_index":1,"source_h3":"8728d102dffffff","source_type":"water"},"type":"Feature"},{"geometry":{"coordinates":[-122.9892697471176,48.46722075493966],"type":"Point"},"id":"water:8728d102dffffff:2","properties":{"sample_index":2,"source_h3":"8728d102dffffff","source_type":"water"},"type":"Feature"},{"geometry":{"coordinates":[-122.985326016404,48.47444096619768],"type":"Point"},"id":"water:8728d102dffffff:3","properties":{"sample_index":3,"source_h3":"8728d102dffffff","source_type":"water"},"type":"Feature"},{"geometry":{"coordinates":[-122.95118057703625,48.48091953674662],"type":"Point"},"id":"water:8728d102effffff:1","properties":{"sample_index":1,"source_h3":"8728d102effffff","source_type":"water"},"type":"Feature"},{"geometry":{"coordinates":[-122.94212546052032,48.46767558994779],"type":"Point"},"id":"water:8728d102effffff:2","properties":{"sample_index":2,"source_h3":"8728d102effffff","source_type":"water"},"type":"Feature"},{"geometry":{"coordinates":[-122.96006922675765,48.470277076356204],"type":"Point"},"id":"water:8728d102effffff:3","properties":{"sample_index":3,"source_h3":"8728d102effffff","source_type":"water"},"type":"Feature"},{"geometry":{"coordinates":[-123.05734618351273,48.574078237214934],"type":"Point"},"id":"water:8728d1042ffffff:1","properties":{"sample_index":1,"source_h3":"8728d1042ffffff","source_type":"water"},"type":"Feature"},{"geometry":{"coordinates":[-123.05182394856536,48.57114011734643],"type":"Point"},"id":"water:8728d1042ffffff:2","properties":{"sample_index":2,"source_h3":"8728d1042ffffff","source_type":"water"},"type":"Feature"},{"geometry":{"coordinates":[-123.06143631433558,48.57514941608855],"type":"Point"},"id":"water:8728d1042ffffff:3","properties":{"sample_index":3,"source_h3":"8728d1042ffffff","source_type":"water"},"type":"Feature"},{"geometry":{"coordinates":[-123.18521556177322,48.595459689691126],"type":"Point"},"id":"water:8728d1049ffffff:1","properties":{"sample_index":1,"source_h3":"8728d1049ffffff","source_type":"water"},"type":"Feature"},{"geometry":{"coordinates":[-123.1753052080114,48.584458795861245],"type":"Point"},"id":"water:8728d1049ffffff:2","properties":{"sample_index":2,"source_h3":"8728d1049ffffff","source_type":"water"},"type":"Feature"},{"geometry":{"coordinates":[-123.1723044935826,48.603765975307816],"type":"Point"},"id":"water:8728d1049ffffff:3","properties":{"sample_index":3,"source_h3":"8728d1049ffffff","source_type":"water"},"type":"Feature"},{"geometry":{"coordinates":[-123.16380363924472,48.61082561007016],"type":"Point"},"id":"water:8728d104bffffff:1","properties":{"sample_index":1,"source_h3":"8728d104bffffff","source_type":"water"},"type":"Feature"},{"geometry":{"coordinates":[-123.15016971559311,48.616160182058664],"type":"Point"},"id":"water:8728d104bffffff:2","properties":{"sample_index":2,"source_h3":"8728d104bffffff","source_type":"water"},"type":"Feature"},{"geometry":{"coordinates":[-123.15886091925083,48.615299871651715],"type":"Point"},"id":"water:8728d104bffffff:3","properties":{"sample_index":3,"source_h3":"8728d104bffffff","source_type":"water"},"type":"Feature"},{"geometry":{"coordinates":[-123.1828729005492,48.57592046307004],"type":"Point"},"id":"water:8728d104dffffff:1","properties":{"sample_index":1,"source_h3":"8728d104dffffff","source_type":"water"},"type":"Feature"},{"geometry":{"coordinates":[-123.17248177757294,48.564794955917165],"type":"Point"},"id":"water:8728d104dffffff:2","properties":{"sample_index":2,"source_h3":"8728d104dffffff","source_type":"water"},"type":"Feature"},{"geometry":{"coordinates":[-123.18751809168629,48.56665068007373],"type":"Point"},"id":"water:8728d104dffffff:3","properties":{"sample_index":3,"source_h3":"8728d104dffffff","source_type":"water"},"type":"Feature"},{"geometry":{"coordinates":[-123.01032283566884,48.570228706434484],"type":"Point"},"id":"water:8728d1050ffffff:1","properties":{"sample_index":1,"source_h3":"8728d1050ffffff","source_type":"water"},"type":"Feature"},{"geometry":{"coordinates":[-123.02746844341901,48.56757560192304],"type":"Point"},"id":"water:8728d1050ffffff:2","properties":{"sample_index":2,"source_h3":"8728d1050ffffff","source_type":"water"},"type":"Feature"},{"geometry":{"coordinates":[-122.99317578222083,48.57252351234189],"type":"Point"},"id":"water:8728d1050ffffff:3","properties":{"sample_index":3,"source_h3":"8728d1050ffffff","source_type":"water"},"type":"Feature"},{"geometry":{"coordinates":[-123.03851091078675,48.577457472346275],"type":"Point"},"id":"water:8728d1051ffffff:1","properties":{"sample_index":1,"source_h3":"8728d1051ffffff","source_type":"water"},"type":"Feature"},{"geometry":{"coordinates":[-123.02136627668543,48.57998790750982],"type":"Point"},"id":"water:8728d1051ffffff:2","properties":{"sample_index":2,"source_h3":"8728d1051ffffff","source_type":"water"},"type":"Feature"},{"geometry":{"coordinates":[-123.05565416714906,48.57495708141285],"type":"Point"},"id":"water:8728d1051ffffff:3","properties":{"sample_index":3,"source_h3":"8728d1051ffffff","source_type":"water"},"type":"Feature"},{"geometry":{"coordinates":[-122.99225370121418,48.58982765799656],"type":"Point"},"id":"water:8728d1052ffffff:1","properties":{"sample_index":1,"source_h3":"8728d1052ffffff","source_type":"water"},"type":"Feature"},{"geometry":{"coordinates":[-122.99367985059764,48.57398141634563],"type":"Point"},"id":"water:8728d1052ffffff:2","properties":{"sample_index":2,"source_h3":"8728d1052ffffff","source_type":"water"},"type":"Feature"},{"geometry":{"coordinates":[-122.9771350764939,48.59311387960574],"type":"Point"},"id":"water:8728d1052ffffff:3","properties":{"sample_index":3,"source_h3":"8728d1052ffffff","source_type":"water"},"type":"Feature"},{"geometry":{"coordinates":[-123.01194066173029,48.58987090142992],"type":"Point"},"id":"water:8728d1053ffffff:1","properties":{"sample_index":1,"source_h3":"8728d1053ffffff","source_type":"water"},"type":"Feature"},{"geometry":{"coordinates":[-123.0290904898575,48.587601251194194],"type":"Point"},"id":"water:8728d1053ffffff:2","properties":{"sample_index":2,"source_h3":"8728d1053ffffff","source_type":"water"},"type":"Feature"},{"geometry":{"coordinates":[-122.99478981409212,48.59213667752371],"type":"Point"},"id":"water:8728d1053ffffff:3","properties":{"sample_index":3,"source_h3":"8728d1053ffffff","source_type":"water"},"type":"Feature"},{"geometry":{"coordinates":[-123.00272719771513,48.54696051947331],"type":"Point"},"id":"water:8728d1054ffffff:1","properties":{"sample_index":1,"source_h3":"8728d1054ffffff","source_type":"water"},"type":"Feature"},{"geometry":{"coordinates":[-123.01833262619402,48.559421059060114],"type":"Point"},"id":"water:8728d1054ffffff:2","properties":{"sample_index":2,"source_h3":"8728d1054ffffff","source_type":"water"},"type":"Feature"},{"geometry":{"coordinates":[-122.9985486731568,48.55942250935292],"type":"Point"},"id":"water:8728d1054ffffff:3","properties":{"sample_index":3,"source_h3":"8728d1054ffffff","source_type":"water"},"type":"Feature"},{"geometry":{"coordinates":[-123.02853260715739,48.565124321872894],"type":"Point"},"id":"water:8728d1055ffffff:1","properties":{"sample_index":1,"source_h3":"8728d1055ffffff","source_type":"water"},"type":"Feature"},{"geometry":{"coordinates":[-123.01992279958893,48.55795555844465],"type":"Point"},"id":"water:8728d1055ffffff:2","properties":{"sample_index":2,"source_h3":"8728d1055ffffff","source_type":"water"},"type":"Feature"},{"geometry":{"coordinates":[-123.03853800441813,48.56750928953175],"type":"Point"},"id":"water:8728d1055ffffff:3","properties":{"sample_index":3,"source_h3":"8728d1055ffffff","source_type":"water"},"type":"Feature"},{"geometry":{"coordinates":[-122.99106774421263,48.563585532447334],"type":"Point"},"id":"water:8728d1056ffffff:1","properties":{"sample_index":1,"source_h3":"8728d1056ffffff","source_type":"water"},"type":"Feature"},{"geometry":{"coordinates":[-122.9788116985155,48.55349956174172],"type":"Point"},"id":"water:8728d1056ffffff:2","properties":{"sample_index":2,"source_h3":"8728d1056ffffff","source_type":"water"},"type":"Feature"},{"geometry":{"coordinates":[-122.99297184045096,48.55469792805964],"type":"Point"},"id":"water:8728d1056ffffff:3","properties":{"sample_index":3,"source_h3":"8728d1056ffffff","source_type":"water"},"type":"Feature"},{"geometry":{"coordinates":[-123.06833042409006,48.60431106875026],"type":"Point"},"id":"water:8728d1058ffffff:1","properties":{"sample_index":1,"source_h3":"8728d1058ffffff","source_type":"water"},"type":"Feature"},{"geometry":{"coordinates":[-123.0854755138685,48.60203382809169],"type":"Point"},"id":"water:8728d1058ffffff:2","properties":{"sample_index":2,"source_h3":"8728d1058ffffff","source_type":"water"},"type":"Feature"},{"geometry":{"coordinates":[-123.05118409026919,48.606584437066154],"type":"Point"},"id":"water:8728d1058ffffff:3","properties":{"sample_index":3,"source_h3":"8728d1058ffffff","source_type":"water"},"type":"Feature"},{"geometry":{"coordinates":[-123.09351383489081,48.61115718573796],"type":"Point"},"id":"water:8728d1059ffffff:1","properties":{"sample_index":1,"source_h3":"8728d1059ffffff","source_type":"water"},"type":"Feature"},{"geometry":{"coordinates":[-123.1070181873222,48.61968922558173],"type":"Point"},"id":"water:8728d1059ffffff:2","properties":{"sample_index":2,"source_h3":"8728d1059ffffff","source_type":"water"},"type":"Feature"},{"geometry":{"coordinates":[-123.08854969769718,48.621576328455525],"type":"Point"},"id":"water:8728d1059ffffff:3","properties":{"sample_index":3,"source_h3":"8728d1059ffffff","source_type":"water"},"type":"Feature"},{"geometry":{"coordinates":[-123.04176084405819,48.616727361212796],"type":"Point"},"id":"water:8728d105affffff:1","properties":{"sample_index":1,"source_h3":"8728d105affffff","source_type":"water"},"type":"Feature"},{"geometry":{"coordinates":[-123.05891215890212,48.61445424974901],"type":"Point"},"id":"water:8728d105affffff:2","properties":{"sample_index":2,"source_h3":"8728d105affffff","source_type":"water"},"type":"Feature"},{"geometry":{"coordinates":[-123.02460828887615,48.61899659764352],"type":"Point"},"id":"water:8728d105affffff:3","properties":{"sample_index":3,"source_h3":"8728d105affffff","source_type":"water"},"type":"Feature"},{"geometry":{"coordinates":[-123.06996242590432,48.62393876076794],"type":"Point"},"id":"water:8728d105bffffff:1","properties":{"sample_index":1,"source_h3":"8728d105bffffff","source_type":"water"},"type":"Feature"},{"geometry":{"coordinates":[-123.08711142034453,48.621661853182644],"type":"Point"},"id":"water:8728d105bffffff:2","properties":{"sample_index":2,"source_h3":"8728d105bffffff","source_type":"water"},"type":"Feature"},{"geometry":{"coordinates":[-123.05281218665442,48.62621179421167],"type":"Point"},"id":"water:8728d105bffffff:3","properties":{"sample_index":3,"source_h3":"8728d105bffffff","source_type":"water"},"type":"Feature"},{"geometry":{"coordinates":[-123.06374779216247,48.585231715782534],"type":"Point"},"id":"water:8728d105cffffff:1","properties":{"sample_index":1,"source_h3":"8728d105cffffff","source_type":"water"},"type":"Feature"},{"geometry":{"coordinates":[-123.07629541070914,48.593523798348095],"type":"Point"},"id":"water:8728d105cffffff:2","properties":{"sample_index":2,"source_h3":"8728d105cffffff","source_type":"water"},"type":"Feature"},{"geometry":{"coordinates":[-123.0573849812062,48.57586288384837],"type":"Point"},"id":"water:8728d105cffffff:3","properties":{"sample_index":3,"source_h3":"8728d105cffffff","source_type":"water"},"type":"Feature"},{"geometry":{"coordinates":[-123.0850751587453,48.595614596166676],"type":"Point"},"id":"water:8728d105dffffff:1","properties":{"sample_index":1,"source_h3":"8728d105dffffff","source_type":"water"},"type":"Feature"},{"geometry":{"coordinates":[-123.09610102228187,48.601663561558794],"type":"Point"},"id":"water:8728d105dffffff:2","properties":{"sample_index":2,"source_h3":"8728d105dffffff","source_type":"water"},"type":"Feature"},{"geometry":{"coordinates":[-123.0814931005764,48.58813877575101],"type":"Point"},"id":"water:8728d105dffffff:3","properties":{"sample_index":3,"source_h3":"8728d105dffffff","source_type":"water"},"type":"Feature"},{"geometry":{"coordinates":[-123.04013549444214,48.59709543207771],"type":"Point"},"id":"water:8728d105effffff:1","properties":{"sample_index":1,"source_h3":"8728d105effffff","source_type":"water"},"type":"Feature"},{"geometry":{"coordinates":[-123.05728290350619,48.59482198601432],"type":"Point"},"id":"water:8728d105effffff:2","properties":{"sample_index":2,"source_h3":"8728d105effffff","source_type":"water"},"type":"Feature"},{"geometry":{"coordinates":[-123.02298684580272,48.59936500490838],"type":"Point"},"id":"water:8728d105effffff:3","properties":{"sample_index":3,"source_h3":"8728d105effffff","source_type":"water"},"type":"Feature"},{"geometry":{"coordinates":[-123.15512377919094,48.50597194733305],"type":"Point"},"id":"water:8728d1061ffffff:1","properties":{"sample_index":1,"source_h3":"8728d1061ffffff","source_type":"water"},"type":"Feature"},{"geometry":{"coordinates":[-123.14238455779793,48.49843294668559],"type":"Point"},"id":"water:8728d1061ffffff:2","properties":{"sample_index":2,"source_h3":"8728d1061ffffff","source_type":"water"},"type":"Feature"},{"geometry":{"coordinates":[-123.15479040878331,48.51392278079933],"type":"Point"},"id":"water:8728d1061ffffff:3","properties":{"sample_index":3,"source_h3":"8728d1061ffffff","source_type":"water"},"type":"Feature"},{"geometry":{"coordinates":[-123.11395903375164,48.475864361906744],"type":"Point"},"id":"water:8728d1064ffffff:1","properties":{"sample_index":1,"source_h3":"8728d1064ffffff","source_type":"water"},"type":"Feature"},{"geometry":{"coordinates":[-123.12530750681083,48.48725892285869],"type":"Point"},"id":"water:8728d1064ffffff:2","properties":{"sample_index":2,"source_h3":"8728d1064ffffff","source_type":"water"},"type":"Feature"},{"geometry":{"coordinates":[-123.09861212145985,48.479431729186096],"type":"Point"},"id":"water:8728d1064ffffff:3","properties":{"sample_index":3,"source_h3":"8728d1064ffffff","source_type":"water"},"type":"Feature"},{"geometry":{"coordinates":[-123.14268806442612,48.48873952023814],"type":"Point"},"id":"water:8728d1065ffffff:1","properties":{"sample_index":1,"source_h3":"8728d1065ffffff","source_type":"water"},"type":"Feature"},{"geometry":{"coordinates":[-123.15013412177984,48.47835052566],"type":"Point"},"id":"water:8728d1065ffffff:2","properties":{"sample_index":2,"source_h3":"8728d1065ffffff","source_type":"water"},"type":"Feature"},{"geometry":{"coordinates":[-123.13232334264251,48.479618470631756],"type":"Point"},"id":"water:8728d1065ffffff:3","properties":{"sample_index":3,"source_h3":"8728d1065ffffff","source_type":"water"},"type":"Feature"},{"geometry":{"coordinates":[-123.17579207065282,48.538362127351704],"type":"Point"},"id":"water:8728d1068ffffff:1","properties":{"sample_index":1,"source_h3":"8728d1068ffffff","source_type":"water"},"type":"Feature"},{"geometry":{"coordinates":[-123.16345553710505,48.52619038079236],"type":"Point"},"id":"water:8728d1068ffffff:2","properties":{"sample_index":2,"source_h3":"8728d1068ffffff","source_type":"water"},"type":"Feature"},{"geometry":{"coordinates":[-123.18275570267919,48.526161360311896],"type":"Point"},"id":"water:8728d1068ffffff:3","properties":{"sample_index":3,"source_h3":"8728d1068ffffff","source_type":"water"},"type":"Feature"},{"geometry":{"coordinates":[-123.20099316137417,48.542133069894284],"type":"Point"},"id":"water:8728d1069ffffff:1","properties":{"sample_index":1,"source_h3":"8728d1069ffffff","source_type":"water"},"type":"Feature"},{"geometry":{"coordinates":[-123.21810706650012,48.539835249432215],"type":"Point"},"id":"water:8728d1069ffffff:2","properties":{"sample_index":2,"source_h3":"8728d1069ffffff","source_type":"water"},"type":"Feature"},{"geometry":{"coordinates":[-123.18387799383976,48.54442703150362],"type":"Point"},"id":"water:8728d1069ffffff:3","properties":{"sample_index":3,"source_h3":"8728d1069ffffff","source_type":"water"},"type":"Feature"},{"geometry":{"coordinates":[-123.17938020732322,48.55819116880301],"type":"Point"},"id":"water:8728d106bffffff:1","properties":{"sample_index":1,"source_h3":"8728d106bffffff","source_type":"water"},"type":"Feature"},{"geometry":{"coordinates":[-123.16781447858148,48.54580294760421],"type":"Point"},"id":"water:8728d106bffffff:2","properties":{"sample_index":2,"source_h3":"8728d106bffffff","source_type":"water"},"type":"Feature"},{"geometry":{"coordinates":[-123.18569530598565,48.54703815749325],"type":"Point"},"id":"water:8728d106bffffff:3","properties":{"sample_index":3,"source_h3":"8728d106bffffff","source_type":"water"},"type":"Feature"},{"geometry":{"coordinates":[-123.17120775683397,48.51786575162433],"type":"Point"},"id":"water:8728d106cffffff:1","properties":{"sample_index":1,"source_h3":"8728d106cffffff","source_type":"water"},"type":"Feature"},{"geometry":{"coordinates":[-123.17997713347333,48.5052401536884],"type":"Point"},"id":"water:8728d106cffffff:2","properties":{"sample_index":2,"source_h3":"8728d106cffffff","source_type":"water"},"type":"Feature"},{"geometry":{"coordinates":[-123.16120833987132,48.507211106108514],"type":"Point"},"id":"water:8728d106cffffff:3","properties":{"sample_index":3,"source_h3":"8728d106cffffff","source_type":"water"},"type":"Feature"},{"geometry":{"coordinates":[-123.19933260798982,48.52249043664456],"type":"Point"},"id":"water:8728d106dffffff:1","properties":{"sample_index":1,"source_h3":"8728d106dffffff","source_type":"water"},"type":"Feature"},{"geometry":{"coordinates":[-123.21644262488307,48.5201922913821],"type":"Point"},"id":"water:8728d106dffffff:2","properties":{"sample_index":2,"source_h3":"8728d106dffffff","source_type":"water"},"type":"Feature"},{"geometry":{"coordinates":[-123.18222132947466,48.52478472486004],"type":"Point"},"id":"water:8728d106dffffff:3","properties":{"sample_index":3,"source_h3":"8728d106dffffff","source_type":"water"},"type":"Feature"},{"geometry":{"coordinates":[-123.15948004882442,48.52366454853359],"type":"Point"},"id":"water:8728d106effffff:1","properties":{"sample_index":1,"source_h3":"8728d106effffff","source_type":"water"},"type":"Feature"},{"geometry":{"coordinates":[-123.16087024466557,48.52858802280156],"type":"Point"},"id":"water:8728d106effffff:2","properties":{"sample_index":2,"source_h3":"8728d106effffff","source_type":"water"},"type":"Feature"},{"geometry":{"coordinates":[-123.16273671120032,48.52586364765086],"type":"Point"},"id":"water:8728d106effffff:3","properties":{"sample_index":3,"source_h3":"8728d106effffff","source_type":"water"},"type":"Feature"},{"geometry":{"coordinates":[-122.99633827709789,48.53762844502968],"type":"Point"},"id":"water:8728d1072ffffff:1","properties":{"sample_index":1,"source_h3":"8728d1072ffffff","source_type":"water"},"type":"Feature"},{"geometry":{"coordinates":[-123.00521827182894,48.540911280887016],"type":"Point"},"id":"water:8728d1072ffffff:2","properties":{"sample_index":2,"source_h3":"8728d1072ffffff","source_type":"water"},"type":"Feature"},{"geometry":{"coordinates":[-122.99877613679455,48.54144000733746],"type":"Point"},"id":"water:8728d1072ffffff:3","properties":{"sample_index":3,"source_h3":"8728d1072ffffff","source_type":"water"},"type":"Feature"},{"geometry":{"coordinates":[-123.01766490530943,48.50271627006252],"type":"Point"},"id":"water:8728d1074ffffff:1","properties":{"sample_index":1,"source_h3":"8728d1074ffffff","source_type":"water"},"type":"Feature"},{"geometry":{"coordinates":[-123.01668744889024,48.496896522383466],"type":"Point"},"id":"water:8728d1074ffffff:2","properties":{"sample_index":2,"source_h3":"8728d1074ffffff","source_type":"water"},"type":"Feature"},{"geometry":{"coordinates":[-123.01417266123782,48.50013274640441],"type":"Point"},"id":"water:8728d1074ffffff:3","properties":{"sample_index":3,"source_h3":"8728d1074ffffff","source_type":"water"},"type":"Feature"},{"geometry":{"coordinates":[-123.00488332219001,48.50702241970096],"type":"Point"},"id":"water:8728d1076ffffff:1","properties":{"sample_index":1,"source_h3":"8728d1076ffffff","source_type":"water"},"type":"Feature"},{"geometry":{"coordinates":[-122.98818130167678,48.51377143334643],"type":"Point"},"id":"water:8728d1076ffffff:2","properties":{"sample_index":2,"source_h3":"8728d1076ffffff","source_type":"water"},"type":"Feature"},{"geometry":{"coordinates":[-123.01758551871781,48.504212239412986],"type":"Point"},"id":"water:8728d1076ffffff:3","properties":{"sample_index":3,"source_h3":"8728d1076ffffff","source_type":"water"},"type":"Feature"},{"geometry":{"coordinates":[-122.89582825214204,48.64536157873956],"type":"Point"},"id":"water:8728d10c0ffffff:1","properties":{"sample_index":1,"source_h3":"8728d10c0ffffff","source_type":"water"},"type":"Feature"},{"geometry":{"coordinates":[-122.89117989064086,48.63622498312345],"type":"Point"},"id":"water:8728d10c0ffffff:2","properties":{"sample_index":2,"source_h3":"8728d10c0ffffff","source_type":"water"},"type":"Feature"},{"geometry":{"coordinates":[-122.90289767126198,48.64926724224816],"type":"Point"},"id":"water:8728d10c0ffffff:3","properties":{"sample_index":3,"source_h3":"8728d10c0ffffff","source_type":"water"},"type":"Feature"},{"geometry":{"coordinates":[-122.92705180942706,48.58622599788442],"type":"Point"},"id":"water:8728d10e0ffffff:1","properties":{"sample_index":1,"source_h3":"8728d10e0ffffff","source_type":"water"},"type":"Feature"},{"geometry":{"coordinates":[-122.93852825966704,48.59635566982687],"type":"Point"},"id":"water:8728d10e0ffffff:2","properties":{"sample_index":2,"source_h3":"8728d10e0ffffff","source_type":"water"},"type":"Feature"},{"geometry":{"coordinates":[-122.93855013589109,48.57831512487427],"type":"Point"},"id":"water:8728d10e0ffffff:3","properties":{"sample_index":3,"source_h3":"8728d10e0ffffff","source_type":"water"},"type":"Feature"},{"geometry":{"coordinates":[-122.95659786774324,48.595757137098744],"type":"Point"},"id":"water:8728d10e1ffffff:1","properties":{"sample_index":1,"source_h3":"8728d10e1ffffff","source_type":"water"},"type":"Feature"},{"geometry":{"coordinates":[-122.9742653035891,48.593747276572834],"type":"Point"},"id":"water:8728d10e1ffffff:2","properties":{"sample_index":2,"source_h3":"8728d10e1ffffff","source_type":"water"},"type":"Feature"},{"geometry":{"coordinates":[-122.9399960712846,48.59754642264854],"type":"Point"},"id":"water:8728d10e1ffffff:3","properties":{"sample_index":3,"source_h3":"8728d10e1ffffff","source_type":"water"},"type":"Feature"},{"geometry":{"coordinates":[-122.94455234471798,48.60416256864996],"type":"Point"},"id":"water:8728d10e3ffffff:1","properties":{"sample_index":1,"source_h3":"8728d10e3ffffff","source_type":"water"},"type":"Feature"},{"geometry":{"coordinates":[-122.93713782114074,48.597188674801735],"type":"Point"},"id":"water:8728d10e3ffffff:2","properties":{"sample_index":2,"source_h3":"8728d10e3ffffff","source_type":"water"},"type":"Feature"},{"geometry":{"coordinates":[-122.94480004351657,48.610598235406314],"type":"Point"},"id":"water:8728d10e3ffffff:3","properties":{"sample_index":3,"source_h3":"8728d10e3ffffff","source_type":"water"},"type":"Feature"},{"geometry":{"coordinates":[-122.91512806514223,48.5666136165599],"type":"Point"},"id":"water:8728d10e4ffffff:1","properties":{"sample_index":1,"source_h3":"8728d10e4ffffff","source_type":"water"},"type":"Feature"},{"geometry":{"coordinates":[-122.93590375212429,48.576851055703294],"type":"Point"},"id":"water:8728d10e4ffffff:2","properties":{"sample_index":2,"source_h3":"8728d10e4ffffff","source_type":"water"},"type":"Feature"},{"geometry":{"coordinates":[-122.93888421787163,48.56039171237287],"type":"Point"},"id":"water:8728d10e4ffffff:3","properties":{"sample_index":3,"source_h3":"8728d10e4ffffff","source_type":"water"},"type":"Feature"},{"geometry":{"coordinates":[-122.93921621997166,48.578526997912604],"type":"Point"},"id":"water:8728d10e5ffffff:1","properties":{"sample_index":1,"source_h3":"8728d10e5ffffff","source_type":"water"},"type":"Feature"},{"geometry":{"coordinates":[-122.93762373186675,48.57670625211296],"type":"Point"},"id":"water:8728d10e5ffffff:2","properties":{"sample_index":2,"source_h3":"8728d10e5ffffff","source_type":"water"},"type":"Feature"},{"geometry":{"coordinates":[-122.94083674669143,48.58024729751069],"type":"Point"},"id":"water:8728d10e5ffffff:3","properties":{"sample_index":3,"source_h3":"8728d10e5ffffff","source_type":"water"},"type":"Feature"},{"geometry":{"coordinates":[-122.89825781811909,48.579895528655655],"type":"Point"},"id":"water:8728d10e6ffffff:1","properties":{"sample_index":1,"source_h3":"8728d10e6ffffff","source_type":"water"},"type":"Feature"},{"geometry":{"coordinates":[-122.90962021262735,48.57046259343156],"type":"Point"},"id":"water:8728d10e6ffffff:2","properties":{"sample_index":2,"source_h3":"8728d10e6ffffff","source_type":"water"},"type":"Feature"},{"geometry":{"coordinates":[-122.9115257149752,48.588043301420505],"type":"Point"},"id":"water:8728d10e6ffffff:3","properties":{"sample_index":3,"source_h3":"8728d10e6ffffff","source_type":"water"},"type":"Feature"},{"geometry":{"coordinates":[-122.97824913616022,48.62148303961421],"type":"Point"},"id":"water:8728d10e8ffffff:1","properties":{"sample_index":1,"source_h3":"8728d10e8ffffff","source_type":"water"},"type":"Feature"},{"geometry":{"coordinates":[-122.9850188017875,48.63196390640491],"type":"Point"},"id":"water:8728d10e8ffffff:2","properties":{"sample_index":2,"source_h3":"8728d10e8ffffff","source_type":"water"},"type":"Feature"},{"geometry":{"coordinates":[-122.9873551826974,48.612554152130414],"type":"Point"},"id":"water:8728d10e8ffffff:3","properties":{"sample_index":3,"source_h3":"8728d10e8ffffff","source_type":"water"},"type":"Feature"},{"geometry":{"coordinates":[-123.02817380081193,48.631934356305685],"type":"Point"},"id":"water:8728d10e9ffffff:1","properties":{"sample_index":1,"source_h3":"8728d10e9ffffff","source_type":"water"},"type":"Feature"},{"geometry":{"coordinates":[-123.02263807995259,48.61905399575429],"type":"Point"},"id":"water:8728d10e9ffffff:2","properties":{"sample_index":2,"source_h3":"8728d10e9ffffff","source_type":"water"},"type":"Feature"},{"geometry":{"coordinates":[-123.03006639403033,48.62441182054109],"type":"Point"},"id":"water:8728d10e9ffffff:3","properties":{"sample_index":3,"source_h3":"8728d10e9ffffff","source_type":"water"},"type":"Feature"},{"geometry":{"coordinates":[-122.96699902055616,48.628816906555414],"type":"Point"},"id":"water:8728d10eaffffff:1","properties":{"sample_index":1,"source_h3":"8728d10eaffffff","source_type":"water"},"type":"Feature"},{"geometry":{"coordinates":[-122.97486832022518,48.63654165062408],"type":"Point"},"id":"water:8728d10eaffffff:2","properties":{"sample_index":2,"source_h3":"8728d10eaffffff","source_type":"water"},"type":"Feature"},{"geometry":{"coordinates":[-122.95450089829095,48.62524338001115],"type":"Point"},"id":"water:8728d10eaffffff:3","properties":{"sample_index":3,"source_h3":"8728d10eaffffff","source_type":"water"},"type":"Feature"},{"geometry":{"coordinates":[-122.98017499945584,48.63499394716629],"type":"Point"},"id":"water:8728d10ebffffff:1","properties":{"sample_index":1,"source_h3":"8728d10ebffffff","source_type":"water"},"type":"Feature"},{"geometry":{"coordinates":[-122.98521368962898,48.63214177169203],"type":"Point"},"id":"water:8728d10ebffffff:2","properties":{"sample_index":2,"source_h3":"8728d10ebffffff","source_type":"water"},"type":"Feature"},{"geometry":{"coordinates":[-122.97555560889116,48.6369973186277],"type":"Point"},"id":"water:8728d10ebffffff:3","properties":{"sample_index":3,"source_h3":"8728d10ebffffff","source_type":"water"},"type":"Feature"},{"geometry":{"coordinates":[-122.97993433925365,48.602578483836574],"type":"Point"},"id":"water:8728d10ecffffff:1","properties":{"sample_index":1,"source_h3":"8728d10ecffffff","source_type":"water"},"type":"Feature"},{"geometry":{"coordinates":[-123.00251423772768,48.60001235791325],"type":"Point"},"id":"water:8728d10ecffffff:2","properties":{"sample_index":2,"source_h3":"8728d10ecffffff","source_type":"water"},"type":"Feature"},{"geometry":{"coordinates":[-122.98923450033314,48.59224355930585],"type":"Point"},"id":"water:8728d10ecffffff:3","properties":{"sample_index":3,"source_h3":"8728d10ecffffff","source_type":"water"},"type":"Feature"},{"geometry":{"coordinates":[-123.02237576133355,48.6130870990889],"type":"Point"},"id":"water:8728d10edffffff:1","properties":{"sample_index":1,"source_h3":"8728d10edffffff","source_type":"water"},"type":"Feature"},{"geometry":{"coordinates":[-123.00401983172637,48.600622722399685],"type":"Point"},"id":"water:8728d10edffffff:2","properties":{"sample_index":2,"source_h3":"8728d10edffffff","source_type":"water"},"type":"Feature"},{"geometry":{"coordinates":[-123.02312918492915,48.600022091200614],"type":"Point"},"id":"water:8728d10edffffff:3","properties":{"sample_index":3,"source_h3":"8728d10edffffff","source_type":"water"},"type":"Feature"},{"geometry":{"coordinates":[-122.96053845407872,48.618765237009484],"type":"Point"},"id":"water:8728d10eeffffff:1","properties":{"sample_index":1,"source_h3":"8728d10eeffffff","source_type":"water"},"type":"Feature"},{"geometry":{"coordinates":[-122.96723396954607,48.60463764325416],"type":"Point"},"id":"water:8728d10eeffffff:2","properties":{"sample_index":2,"source_h3":"8728d10eeffffff","source_type":"water"},"type":"Feature"},{"geometry":{"coordinates":[-122.94762536657161,48.60845726675728],"type":"Point"},"id":"water:8728d10eeffffff:3","properties":{"sample_index":3,"source_h3":"8728d10eeffffff","source_type":"water"},"type":"Feature"},{"geometry":{"coordinates":[-123.16621958304779,48.45631702696594],"type":"Point"},"id":"water:8728d1149ffffff:1","properties":{"sample_index":1,"source_h3":"8728d1149ffffff","source_type":"water"},"type":"Feature"},{"geometry":{"coordinates":[-123.1833202950341,48.45402168259093],"type":"Point"},"id":"water:8728d1149ffffff:2","properties":{"sample_index":2,"source_h3":"8728d1149ffffff","source_type":"water"},"type":"Feature"},{"geometry":{"coordinates":[-123.14911761621312,48.45860851883377],"type":"Point"},"id":"water:8728d1149ffffff:3","properties":{"sample_index":3,"source_h3":"8728d1149ffffff","source_type":"water"},"type":"Feature"},{"geometry":{"coordinates":[-123.11158627286031,48.46154502570839],"type":"Point"},"id":"water:8728d114affffff:1","properties":{"sample_index":1,"source_h3":"8728d114affffff","source_type":"water"},"type":"Feature"},{"geometry":{"coordinates":[-123.12869554537737,48.459257563342874],"type":"Point"},"id":"water:8728d114affffff:2","properties":{"sample_index":2,"source_h3":"8728d114affffff","source_type":"water"},"type":"Feature"},{"geometry":{"coordinates":[-123.09447575356349,48.46382863197434],"type":"Point"},"id":"water:8728d114affffff:3","properties":{"sample_index":3,"source_h3":"8728d114affffff","source_type":"water"},"type":"Feature"},{"geometry":{"coordinates":[-123.13972864526927,48.46876792938843],"type":"Point"},"id":"water:8728d114bffffff:1","properties":{"sample_index":1,"source_h3":"8728d114bffffff","source_type":"water"},"type":"Feature"},{"geometry":{"coordinates":[-123.1568355835077,48.46647668838263],"type":"Point"},"id":"water:8728d114bffffff:2","properties":{"sample_index":2,"source_h3":"8728d114bffffff","source_type":"water"},"type":"Feature"},{"geometry":{"coordinates":[-123.12262045582565,48.47105531518199],"type":"Point"},"id":"water:8728d114bffffff:3","properties":{"sample_index":3,"source_h3":"8728d114bffffff","source_type":"water"},"type":"Feature"},{"geometry":{"coordinates":[-123.00137154229239,48.44689786416906],"type":"Point"},"id":"water:8728d1153ffffff:1","properties":{"sample_index":1,"source_h3":"8728d1153ffffff","source_type":"water"},"type":"Feature"},{"geometry":{"coordinates":[-122.98350747898597,48.45479957950212],"type":"Point"},"id":"water:8728d1153ffffff:2","properties":{"sample_index":2,"source_h3":"8728d1153ffffff","source_type":"water"},"type":"Feature"},{"geometry":{"coordinates":[-123.0177540941769,48.45126506428203],"type":"Point"},"id":"water:8728d1153ffffff:3","properties":{"sample_index":3,"source_h3":"8728d1153ffffff","source_type":"water"},"type":"Feature"},{"geometry":{"coordinates":[-123.0596238173846,48.46569762069045],"type":"Point"},"id":"water:8728d1158ffffff:1","properties":{"sample_index":1,"source_h3":"8728d1158ffffff","source_type":"water"},"type":"Feature"},{"geometry":{"coordinates":[-123.04646592140608,48.45850668314123],"type":"Point"},"id":"water:8728d1158ffffff:2","properties":{"sample_index":2,"source_h3":"8728d1158ffffff","source_type":"water"},"type":"Feature"},{"geometry":{"coordinates":[-123.0662644745019,48.47565887752074],"type":"Point"},"id":"water:8728d1158ffffff:3","properties":{"sample_index":3,"source_h3":"8728d1158ffffff","source_type":"water"},"type":"Feature"},{"geometry":{"coordinates":[-123.08581195296446,48.46863605562888],"type":"Point"},"id":"water:8728d1159ffffff:1","properties":{"sample_index":1,"source_h3":"8728d1159ffffff","source_type":"water"},"type":"Feature"},{"geometry":{"coordinates":[-123.07127810654036,48.47954408661713],"type":"Point"},"id":"water:8728d1159ffffff:2","properties":{"sample_index":2,"source_h3":"8728d1159ffffff","source_type":"water"},"type":"Feature"},{"geometry":{"coordinates":[-123.09778825958963,48.4790169261718],"type":"Point"},"id":"water:8728d1159ffffff:3","properties":{"sample_index":3,"source_h3":"8728d1159ffffff","source_type":"water"},"type":"Feature"},{"geometry":{"coordinates":[-123.06595349662639,48.477386685040166],"type":"Point"},"id":"water:8728d115bffffff:1","properties":{"sample_index":1,"source_h3":"8728d115bffffff","source_type":"water"},"type":"Feature"},{"geometry":{"coordinates":[-123.07132877923749,48.47999498789503],"type":"Point"},"id":"water:8728d115bffffff:2","properties":{"sample_index":2,"source_h3":"8728d115bffffff","source_type":"water"},"type":"Feature"},{"geometry":{"coordinates":[-123.06131854923106,48.47625634138733],"type":"Point"},"id":"water:8728d115bffffff:3","properties":{"sample_index":3,"source_h3":"8728d115bffffff","source_type":"water"},"type":"Feature"},{"geometry":{"coordinates":[-123.08344406994574,48.45431324643566],"type":"Point"},"id":"water:8728d115dffffff:1","properties":{"sample_index":1,"source_h3":"8728d115dffffff","source_type":"water"},"type":"Feature"},{"geometry":{"coordinates":[-123.10055566877409,48.45202956395748],"type":"Point"},"id":"water:8728d115dffffff:2","properties":{"sample_index":2,"source_h3":"8728d115dffffff","source_type":"water"},"type":"Feature"},{"geometry":{"coordinates":[-123.06633122876495,48.45659307193012],"type":"Point"},"id":"water:8728d115dffffff:3","properties":{"sample_index":3,"source_h3":"8728d115dffffff","source_type":"water"},"type":"Feature"},{"geometry":{"coordinates":[-123.03890354886943,48.45578951022694],"type":"Point"},"id":"water:8728d115effffff:1","properties":{"sample_index":1,"source_h3":"8728d115effffff","source_type":"water"},"type":"Feature"},{"geometry":{"coordinates":[-123.01880333675258,48.45104232286787],"type":"Point"},"id":"water:8728d115effffff:2","properties":{"sample_index":2,"source_h3":"8728d115effffff","source_type":"water"},"type":"Feature"},{"geometry":{"coordinates":[-123.0311378857226,48.449697345137274],"type":"Point"},"id":"water:8728d115effffff:3","properties":{"sample_index":3,"source_h3":"8728d115effffff","source_type":"water"},"type":"Feature"},{"geometry":{"coordinates":[-123.20764319785306,48.62064337310989],"type":"Point"},"id":"water:8728d1310ffffff:1","properties":{"sample_index":1,"source_h3":"8728d1310ffffff","source_type":"water"},"type":"Feature"},{"geometry":{"coordinates":[-123.22477267382031,48.61834685297003],"type":"Point"},"id":"water:8728d1310ffffff:2","properties":{"sample_index":2,"source_h3":"8728d1310ffffff","source_type":"water"},"type":"Feature"},{"geometry":{"coordinates":[-123.19051245632576,48.62293602719813],"type":"Point"},"id":"water:8728d1310ffffff:3","properties":{"sample_index":3,"source_h3":"8728d1310ffffff","source_type":"water"},"type":"Feature"},{"geometry":{"coordinates":[-123.18111191694915,48.63308469822735],"type":"Point"},"id":"water:8728d1312ffffff:1","properties":{"sample_index":1,"source_h3":"8728d1312ffffff","source_type":"water"},"type":"Feature"},{"geometry":{"coordinates":[-123.19824764944818,48.6307922917374],"type":"Point"},"id":"water:8728d1312ffffff:2","properties":{"sample_index":2,"source_h3":"8728d1312ffffff","source_type":"water"},"type":"Feature"},{"geometry":{"coordinates":[-123.16397492255834,48.63537323596622],"type":"Point"},"id":"water:8728d1312ffffff:3","properties":{"sample_index":3,"source_h3":"8728d1312ffffff","source_type":"water"},"type":"Feature"},{"geometry":{"coordinates":[-123.20930766545881,48.640255882057055],"type":"Point"},"id":"water:8728d1313ffffff:1","properties":{"sample_index":1,"source_h3":"8728d1313ffffff","source_type":"water"},"type":"Feature"},{"geometry":{"coordinates":[-123.2264410386203,48.63795968727486],"type":"Point"},"id":"water:8728d1313ffffff:2","properties":{"sample_index":2,"source_h3":"8728d1313ffffff","source_type":"water"},"type":"Feature"},{"geometry":{"coordinates":[-123.19217302594802,48.642548208993944],"type":"Point"},"id":"water:8728d1313ffffff:3","properties":{"sample_index":3,"source_h3":"8728d1313ffffff","source_type":"water"},"type":"Feature"},{"geometry":{"coordinates":[-123.20597951419236,48.60102483554464],"type":"Point"},"id":"water:8728d1314ffffff:1","properties":{"sample_index":1,"source_h3":"8728d1314ffffff","source_type":"water"},"type":"Feature"},{"geometry":{"coordinates":[-123.22310509476019,48.59872799015736],"type":"Point"},"id":"water:8728d1314ffffff:2","properties":{"sample_index":2,"source_h3":"8728d1314ffffff","source_type":"water"},"type":"Feature"},{"geometry":{"coordinates":[-123.1888526688532,48.6033178166764],"type":"Point"},"id":"water:8728d1314ffffff:3","properties":{"sample_index":3,"source_h3":"8728d1314ffffff","source_type":"water"},"type":"Feature"},{"geometry":{"coordinates":[-123.17945405651432,48.61346794288897],"type":"Point"},"id":"water:8728d1316ffffff:1","properties":{"sample_index":1,"source_h3":"8728d1316ffffff","source_type":"water"},"type":"Feature"},{"geometry":{"coordinates":[-123.19658592901547,48.61117520946323],"type":"Point"},"id":"water:8728d1316ffffff:2","properties":{"sample_index":2,"source_h3":"8728d1316ffffff","source_type":"water"},"type":"Feature"},{"geometry":{"coordinates":[-123.16232099958756,48.61575680923934],"type":"Point"},"id":"water:8728d1316ffffff:3","properties":{"sample_index":3,"source_h3":"8728d1316ffffff","source_type":"water"},"type":"Feature"},{"geometry":{"coordinates":[-123.20431661392584,48.58140027123331],"type":"Point"},"id":"water:8728d1332ffffff:1","properties":{"sample_index":1,"source_h3":"8728d1332ffffff","source_type":"water"},"type":"Feature"},{"geometry":{"coordinates":[-123.22143830088783,48.579103100709446],"type":"Point"},"id":"water:8728d1332ffffff:2","properties":{"sample_index":2,"source_h3":"8728d1332ffffff","source_type":"water"},"type":"Feature"},{"geometry":{"coordinates":[-123.18719366298072,48.58369357930017],"type":"Point"},"id":"water:8728d1332ffffff:3","properties":{"sample_index":3,"source_h3":"8728d1332ffffff","source_type":"water"},"type":"Feature"},{"geometry":{"coordinates":[-123.20265449650306,48.56176968205467],"type":"Point"},"id":"water:8728d1336ffffff:1","properties":{"sample_index":1,"source_h3":"8728d1336ffffff","source_type":"water"},"type":"Feature"},{"geometry":{"coordinates":[-123.21977229165151,48.559472186505644],"type":"Point"},"id":"water:8728d1336ffffff:2","properties":{"sample_index":2,"source_h3":"8728d1336ffffff","source_type":"water"},"type":"Feature"},{"geometry":{"coordinates":[-123.18553543815906,48.564063316947575],"type":"Point"},"id":"water:8728d1336ffffff:3","properties":{"sample_index":3,"source_h3":"8728d1336ffffff","source_type":"water"},"type":"Feature"},{"geometry":{"coordinates":[-123.12694892891493,48.63205703429762],"type":"Point"},"id":"water:8728d13a0ffffff:1","properties":{"sample_index":1,"source_h3":"8728d13a0ffffff","source_type":"water"},"type":"Feature"},{"geometry":{"coordinates":[-123.11871636150288,48.642572654342565],"type":"Point"},"id":"water:8728d13a0ffffff:2","properties":{"sample_index":2,"source_h3":"8728d13a0ffffff","source_type":"water"},"type":"Feature"},{"geometry":{"coordinates":[-123.13676276628813,48.64627820692647],"type":"Point"},"id":"water:8728d13a0ffffff:3","properties":{"sample_index":3,"source_h3":"8728d13a0ffffff","source_type":"water"},"type":"Feature"},{"geometry":{"coordinates":[-123.16655848309664,48.64558551468816],"type":"Point"},"id":"water:8728d13a1ffffff:1","properties":{"sample_index":1,"source_h3":"8728d13a1ffffff","source_type":"water"},"type":"Feature"},{"geometry":{"coordinates":[-123.13742501574791,48.64780401258114],"type":"Point"},"id":"water:8728d13a1ffffff:2","properties":{"sample_index":2,"source_h3":"8728d13a1ffffff","source_type":"water"},"type":"Feature"},{"geometry":{"coordinates":[-123.14956178667913,48.636148805032654],"type":"Point"},"id":"water:8728d13a1ffffff:3","properties":{"sample_index":3,"source_h3":"8728d13a1ffffff","source_type":"water"},"type":"Feature"},{"geometry":{"coordinates":[-123.12398179065326,48.62405333660097],"type":"Point"},"id":"water:8728d13a4ffffff:1","properties":{"sample_index":1,"source_h3":"8728d13a4ffffff","source_type":"water"},"type":"Feature"},{"geometry":{"coordinates":[-123.11191889272239,48.613665508144415],"type":"Point"},"id":"water:8728d13a4ffffff:2","properties":{"sample_index":2,"source_h3":"8728d13a4ffffff","source_type":"water"},"type":"Feature"},{"geometry":{"coordinates":[-123.14142290236369,48.61805918709723],"type":"Point"},"id":"water:8728d13a4ffffff:3","properties":{"sample_index":3,"source_h3":"8728d13a4ffffff","source_type":"water"},"type":"Feature"},{"geometry":{"coordinates":[-123.15291629608011,48.62590462615781],"type":"Point"},"id":"water:8728d13a5ffffff:1","properties":{"sample_index":1,"source_h3":"8728d13a5ffffff","source_type":"water"},"type":"Feature"},{"geometry":{"coordinates":[-123.17005438873541,48.62361600922025],"type":"Point"},"id":"water:8728d13a5ffffff:2","properties":{"sample_index":2,"source_h3":"8728d13a5ffffff","source_type":"water"},"type":"Feature"},{"geometry":{"coordinates":[-123.1357769636374,48.628189373418216],"type":"Point"},"id":"water:8728d13a5ffffff:3","properties":{"sample_index":3,"source_h3":"8728d13a5ffffff","source_type":"water"},"type":"Feature"},{"geometry":{"coordinates":[-123.09816411761662,48.63114126565909],"type":"Point"},"id":"water:8728d13a6ffffff:1","properties":{"sample_index":1,"source_h3":"8728d13a6ffffff","source_type":"water"},"type":"Feature"},{"geometry":{"coordinates":[-123.11531086414465,48.62886056313468],"type":"Point"},"id":"water:8728d13a6ffffff:2","properties":{"sample_index":2,"source_h3":"8728d13a6ffffff","source_type":"water"},"type":"Feature"},{"geometry":{"coordinates":[-123.08101628283693,48.6334180947994],"type":"Point"},"id":"water:8728d13a6ffffff:3","properties":{"sample_index":3,"source_h3":"8728d13a6ffffff","source_type":"water"},"type":"Feature"},{"geometry":{"coordinates":[-123.04338696017402,48.63635325787398],"type":"Point"},"id":"water:8728d13b4ffffff:1","properties":{"sample_index":1,"source_h3":"8728d13b4ffffff","source_type":"water"},"type":"Feature"},{"geometry":{"coordinates":[-123.06054218259955,48.63408048111537],"type":"Point"},"id":"water:8728d13b4ffffff:2","properties":{"sample_index":2,"source_h3":"8728d13b4ffffff","source_type":"water"},"type":"Feature"},{"geometry":{"coordinates":[-123.02623049664709,48.63862215780158],"type":"Point"},"id":"water:8728d13b4ffffff:3","properties":{"sample_index":3,"source_h3":"8728d13b4ffffff","source_type":"water"},"type":"Feature"},{"geometry":{"coordinates":[-123.07159519731253,48.643560420327205],"type":"Point"},"id":"water:8728d13b5ffffff:1","properties":{"sample_index":1,"source_h3":"8728d13b5ffffff","source_type":"water"},"type":"Feature"},{"geometry":{"coordinates":[-123.08874809821559,48.6412838459214],"type":"Point"},"id":"water:8728d13b5ffffff:2","properties":{"sample_index":2,"source_h3":"8728d13b5ffffff","source_type":"water"},"type":"Feature"},{"geometry":{"coordinates":[-123.05444105083197,48.645833118795025],"type":"Point"},"id":"water:8728d13b5ffffff:3","properties":{"sample_index":3,"source_h3":"8728d13b5ffffff","source_type":"water"},"type":"Feature"},{"geometry":{"coordinates":[-123.02063274995176,48.65120860246347],"type":"Point"},"id":"water:8728d13b6ffffff:1","properties":{"sample_index":1,"source_h3":"8728d13b6ffffff","source_type":"water"},"type":"Feature"},{"geometry":{"coordinates":[-123.02564057893498,48.63873183008172],"type":"Point"},"id":"water:8728d13b6ffffff:2","properties":{"sample_index":2,"source_h3":"8728d13b6ffffff","source_type":"water"},"type":"Feature"},{"geometry":{"coordinates":[-123.00491416831902,48.6562012603938],"type":"Point"},"id":"water:8728d13b6ffffff:3","properties":{"sample_index":3,"source_h3":"8728d13b6ffffff","source_type":"water"},"type":"Feature"},{"geometry":{"coordinates":[-123.1960138442597,48.48318711448063],"type":"Point"},"id":"water:8728d1a90ffffff:1","properties":{"sample_index":1,"source_h3":"8728d1a90ffffff","source_type":"water"},"type":"Feature"},{"geometry":{"coordinates":[-123.21311609005181,48.48088831995785],"type":"Point"},"id":"water:8728d1a90ffffff:2","properties":{"sample_index":2,"source_h3":"8728d1a90ffffff","source_type":"water"},"type":"Feature"},{"geometry":{"coordinates":[-123.17891033841708,48.48548205557518],"type":"Point"},"id":"water:8728d1a90ffffff:3","properties":{"sample_index":3,"source_h3":"8728d1a90ffffff","source_type":"water"},"type":"Feature"},{"geometry":{"coordinates":[-123.16952354117205,48.49564087486378],"type":"Point"},"id":"water:8728d1a92ffffff:1","properties":{"sample_index":1,"source_h3":"8728d1a92ffffff","source_type":"water"},"type":"Feature"},{"geometry":{"coordinates":[-123.18663202296379,48.49334618256591],"type":"Point"},"id":"water:8728d1a92ffffff:2","properties":{"sample_index":2,"source_h3":"8728d1a92ffffff","source_type":"water"},"type":"Feature"},{"geometry":{"coordinates":[-123.15241380297054,48.497931711027775],"type":"Point"},"id":"water:8728d1a92ffffff:3","properties":{"sample_index":3,"source_h3":"8728d1a92ffffff","source_type":"water"},"type":"Feature"},{"geometry":{"coordinates":[-123.1976728358011,48.502841784204676],"type":"Point"},"id":"water:8728d1a93ffffff:1","properties":{"sample_index":1,"source_h3":"8728d1a93ffffff","source_type":"water"},"type":"Feature"},{"geometry":{"coordinates":[-123.21477896625015,48.500543314255104],"type":"Point"},"id":"water:8728d1a93ffffff:2","properties":{"sample_index":2,"source_h3":"8728d1a93ffffff","source_type":"water"},"type":"Feature"},{"geometry":{"coordinates":[-123.18056544451609,48.50513639891543],"type":"Point"},"id":"water:8728d1a93ffffff:3","properties":{"sample_index":3,"source_h3":"8728d1a93ffffff","source_type":"water"},"type":"Feature"},{"geometry":{"coordinates":[-123.19435563281777,48.46352642938521],"type":"Point"},"id":"water:8728d1a94ffffff:1","properties":{"sample_index":1,"source_h3":"8728d1a94ffffff","source_type":"water"},"type":"Feature"},{"geometry":{"coordinates":[-123.21145399573899,48.46122731040376],"type":"Point"},"id":"water:8728d1a94ffffff:2","properties":{"sample_index":2,"source_h3":"8728d1a94ffffff","source_type":"water"},"type":"Feature"},{"geometry":{"coordinates":[-123.17725601063096,48.46582169675151],"type":"Point"},"id":"water:8728d1a94ffffff:3","properties":{"sample_index":3,"source_h3":"8728d1a94ffffff","source_type":"water"},"type":"Feature"},{"geometry":{"coordinates":[-123.16787117359509,48.47598195860044],"type":"Point"},"id":"water:8728d1a96ffffff:1","properties":{"sample_index":1,"source_h3":"8728d1a96ffffff","source_type":"water"},"type":"Feature"},{"geometry":{"coordinates":[-123.18497576959072,48.473686940207024],"type":"Point"},"id":"water:8728d1a96ffffff:2","properties":{"sample_index":2,"source_h3":"8728d1a96ffffff","source_type":"water"},"type":"Feature"},{"geometry":{"coordinates":[-123.15076532197062,48.4782731226721],"type":"Point"},"id":"water:8728d1a96ffffff:3","properties":{"sample_index":3,"source_h3":"8728d1a96ffffff","source_type":"water"},"type":"Feature"}],"type":"FeatureCollection"}
