{"features":[{"geometry":{"coordinates":[[[[-123.01683508999992,48.49664948100008],[-122.99913489499994,48.47260163000004],[-122.99132239499994,48.467678127000056],[-122.98289954299992,48.46360911700003],[-122.96495520699995,48.458319403000075],[-122.96495520699995,48.45148346600007],[-122.9793188139999,48.456366278000075],[-122.99038652299993,48.45587799700007],[-123.00161699099993,48.453111070000034],[-123.01646887899994,48.45148346600007],[-123.03001868399991,48.45380280200004],[-123.03844153599994,48.459418036000045],[-123.04527747299994,48.46637604400007],[-123.05370032499991,48.47260163000004],[-123.06541907499991,48.478501695000034],[-123.0703832669999,48.480129299000055],[-123.09162350199995,48.47882721600007],[-123.10265051999994,48.48029205900008],[-123.11636308499993,48.48419830900008],[-123.1297094389999,48.48973216400009],[-123.13931230399993,48.49583567900004],[-123.14915930899991,48.50560130400004],[-123.15444902299993,48.51312897300005],[-123.16657467399995,48.54352448100008],[-123.17393958199995,48.573431708000044],[-123.1741430329999,48.57843659100007],[-123.17756100199995,48.598822333000044],[-123.15843665299991,48.614569403000075],[-123.12913977799991,48.62006256700005],[-123.10212154899995,48.60911692900004],[-123.0938207669999,48.59760163000004],[-123.07664954299992,48.584051825000074],[-123.05776933499993,48.57290273600006],[-123.02464758999992,48.56281159100007],[-123.00430253799993,48.53945547100005],[-122.97765051999994,48.531317450000074],[-122.97996985599991,48.52513255400004],[-122.9922582669999,48.51357656500005],[-123.00234941299993,48.50918203300006],[-123.0105688139999,48.51162344000005],[-123.01659094999991,48.511419989000046],[-123.02017167899993,48.499335028000075],[-123.01683508999992,48.49664948100008]]],[[[-122.80044511599993,48.62962474200003],[-122.80451412699995,48.62372467700004],[-122.80540930899991,48.616888739000046],[-122.80894934799994,48.61127350500004],[-122.82095292899993,48.60911692900004],[-122.83112545499989,48.61269765800006],[-122.8413793609999,48.62091705900008],[-122.86587480399993,48.649603583000044],[-122.87987219999991,48.67719147300005],[-122.8823949859999,48.68797435100004],[-122.8867895169999,48.69627513200004],[-122.89635169199994,48.69977448100008],[-122.90591386599993,48.697333075000074],[-122.91030839799993,48.68797435100004],[-122.90876217399995,48.676947333000044],[-122.90611731699994,48.671087958000044],[-122.90562903599994,48.666083075000074],[-122.91030839799993,48.657538153000075],[-122.86192786399994,48.60171133000006],[-122.87437903599994,48.593736070000034],[-122.8875219389999,48.58999258000006],[-122.91714433499993,48.58869049700007],[-122.93333899599992,48.59275950700004],[-122.94139563699991,48.60260651200008],[-122.94587154899995,48.61408112200007],[-122.95128333199995,48.62343984600005],[-122.96841386599993,48.63458893400008],[-122.98009192599994,48.63861725500004],[-122.98546301999994,48.63304271000004],[-122.98623613199993,48.61933014500005],[-122.98961341099994,48.60464101800005],[-122.99705969999991,48.59715403900009],[-123.00963294199994,48.60541413000004],[-123.02220618399991,48.618394273000035],[-123.02651933499993,48.62653229400007],[-123.02635657499991,48.63646067900004],[-123.02090410099993,48.64248281500005],[-122.99714107999989,48.660589911000045],[-122.98884029899995,48.66437409100007],[-122.97777258999992,48.66779205900008],[-122.92931067599994,48.70844147300005],[-122.92335411473077,48.71],[-122.87257021254437,48.71],[-122.85781816299993,48.708685614000046],[-122.8,48.68580626127555],[-122.8,48.62983514523168],[-122.80044511599993,48.62962474200003]]]],"type":"MultiPolygon"},"id":"0","properties":{},"type":"Feature"},{"geometry":{"coordinates":[[[-122.85846920499989,48.47284577000005],[-122.84935462099992,48.46161530200004],[-122.83629309799994,48.45994700700004],[-122.82095292899993,48.47260163000004],[-122.80833899599992,48.458197333000044],[-122.80614173099991,48.44204336100006],[-122.81309973899994,48.42731354400007],[-122.82774817599994,48.41738515800006],[-122.88988196499992,48.42413971600007],[-122.88345292899993,48.441473700000074],[-122.89867102799991,48.44790273600006],[-122.92137610599991,48.45099518400008],[-122.93761145699995,48.458319403000075],[-122.94253495999993,48.475775458000044],[-122.93700110599991,48.49323151200008],[-122.92487545499989,48.507147528000075],[-122.91030839799993,48.51357656500005],[-122.91624915299991,48.523871161000045],[-122.91698157499991,48.533636786000045],[-122.91246497299994,48.54173411700003],[-122.91030839799993,48.54706452000005],[-122.88707434799994,48.563666083000044],[-122.8770238919999,48.56586334800005],[-122.86074785099993,48.53961823100008],[-122.85903886599993,48.52130768400008],[-122.86192786399994,48.48932526200008],[-122.85846920499989,48.47284577000005]]],"type":"Polygon"},"id":"1","properties":{},"type":"Feature"},{"geometry":{"coordinates":[[[[-123.23884029899995,48.430121161000045],[-123.22655188699991,48.425848700000074],[-123.22866777299993,48.42259349200003],[-123.23493404899995,48.42259349200003],[-123.2371313139999,48.42214590100008],[-123.23867753799993,48.42133209800005],[-123.2390844389999,48.42015208500004],[-123.23989824099993,48.41946035400008],[-123.2434382799999,48.41966380400004],[-123.25108801999994,48.42519765800006],[-123.24828040299991,48.42942942900004],[-123.23884029899995,48.430121161000045]]],[[[-122.8028051419999,48.49416738500008],[-122.81623287699995,48.48586660400008],[-122.81875566299993,48.48147207200009],[-122.82005774599992,48.48078034100007],[-122.8235164049999,48.481675523000035],[-122.82013912699995,48.49441152600008],[-122.82241777299993,48.49953847900008],[-122.82628333199995,48.501654364000046],[-122.83002682199992,48.50568268400008],[-122.83873450399994,48.51113515800006],[-122.83844967399995,48.51434967700004],[-122.83275305899991,48.51935455900008],[-122.82339433499993,48.524644273000035],[-122.8,48.52396489233622],[-122.8,48.4972266842053],[-122.8028051419999,48.49416738500008]]],[[[-122.92300370999993,48.58535390800006],[-122.91441809799994,48.58470286700003],[-122.91108150899993,48.57754140800006],[-122.9160457019999,48.56818268400008],[-122.9212133449999,48.56504954600007],[-122.92438717399995,48.56391022300005],[-122.92837480399993,48.563381252000056],[-122.93472245999993,48.56391022300005],[-122.93960527299993,48.562933661000045],[-122.94302324099993,48.56049225500004],[-122.94452877499992,48.557074286000045],[-122.94546464799993,48.55109284100007],[-122.95164954299992,48.54751211100006],[-122.9851374989999,48.55503978100006],[-122.9873347649999,48.56049225500004],[-122.98314368399991,48.56203847900008],[-122.9839574859999,48.56513092700004],[-122.99502519399994,48.57591380400004],[-122.99909420499989,48.57762278900009],[-123.0110570949999,48.57908763200004],[-123.01577714799993,48.58234284100007],[-123.0144343739999,48.58624909100007],[-123.00247148299991,48.58653392100007],[-122.96996008999992,48.59475332200009],[-122.96007239499994,48.58970774900007],[-122.94127356699994,48.587103583000044],[-122.9402563139999,48.58502838700008],[-122.9409480459999,48.57994212400007],[-122.93687903599994,48.57575104400007],[-122.9331762359999,48.577337958000044],[-122.9329320949999,48.58177317900004],[-122.92943274599992,48.584418036000045],[-122.92300370999993,48.58535390800006]]],[[[-123.11070716099994,48.63727448100008],[-123.10814368399991,48.63523997600004],[-123.10846920499989,48.63430410400008],[-123.1408992179999,48.63804759300007],[-123.15038001199991,48.642279364000046],[-123.16401119699992,48.64626699400009],[-123.16323808499993,48.65013255400004],[-123.15221106699994,48.64846426000008],[-123.1467992829999,48.64679596600007],[-123.1321101549999,48.64366282800006],[-123.12096106699994,48.641465562000064],[-123.11375891799992,48.63804759300007],[-123.11070716099994,48.63727448100008]]],[[[-123.16889400899993,48.67295970300006],[-123.17231197799993,48.66860586100006],[-123.17943274599992,48.66860586100006],[-123.19009355399993,48.672390041000085],[-123.19774329299992,48.67283763200004],[-123.19554602799991,48.67064036700003],[-123.18696041599992,48.66783274900007],[-123.18411210799991,48.662543036000045],[-123.1897273429999,48.659857489000046],[-123.2356257799999,48.680121161000045],[-123.23912512899994,48.686753648000035],[-123.23135331899994,48.690619208000044],[-123.21532141799992,48.688666083000044],[-123.20844479099992,48.68374258000006],[-123.20653235599991,48.680894273000035],[-123.19391842399995,48.67601146000004],[-123.18720455599993,48.67560455900008],[-123.17825273299991,48.68081289300005],[-123.17434648299991,48.68032461100006],[-123.17084713399993,48.67735423400006],[-123.16889400899993,48.67295970300006]]],[[[-123.00837154899995,48.69236888200004],[-123.01284745999993,48.687608140000066],[-123.03726152299993,48.67690664300005],[-123.0417781239999,48.678574937000064],[-123.0432836579999,48.693345445000034],[-123.0464574859999,48.695013739000046],[-123.06582597599993,48.700384833000044],[-123.0593969389999,48.70567454600007],[-123.0512867132246,48.71],[-123.00929411325505,48.71],[-123.00841223899994,48.697333075000074],[-123.00837154899995,48.69236888200004]]],[[[-123.29702714799993,48.70490143400008],[-123.3,48.70245708934692],[-123.3,48.71],[-123.29583930993348,48.71],[-123.29702714799993,48.70490143400008]]],[[[-123.29946855399993,48.699733791000085],[-123.29975338399993,48.69912344000005],[-123.3,48.69918408326898],[-123.3,48.70067267923827],[-123.29946855399993,48.699733791000085]]]],"type":"MultiPolygon"},"id":"2","properties":{},"type":"Feature"}],"type":"FeatureCollection"}
